{"type":"FeatureCollection","features":[{"type":"Feature","properties":{"c":"#ffffb2","v0":5.0,"v1":10.0},"geometry":{"type":"Polygon","coordinates":[[[-114.2185,40.0034],[-114.2075,40.0264],[-114.164,40.0682],[-114.088,40.129],[-114.03,40.158],[-113.99,40.1554],[-113.95,40.1618],[-113.91,40.1772],[-113.865,40.1857],[-113.815,40.1871],[-113.765,40.1981],[-113.715,40.2186],[-113.675,40.2252],[-113.645,40.218],[-113.6218,40.2047],[-113.6055,40.1852],[-113.5992,40.1602],[-113.6031,40.1297],[-113.6263,40.0929],[-113.6688,40.0499],[-113.7031,40.004],[-113.7293,39.9551],[-113.7593,39.9204],[-113.7931,39.9001],[-113.83,39.8902],[-113.87,39.8905],[-113.93,39.9094],[-114.01,39.9467],[-114.075,39.955],[-114.125,39.9343],[-114.1627,39.9294],[-114.188,39.9404],[-114.2065,39.9574],[-114.2182,39.9804],[-114.2185,40.0034]],[[-114.2051,40.0024],[-114.195,40.0233],[-114.155,40.0629],[-114.085,40.1211],[-114.03,40.1484],[-113.99,40.1449],[-113.95,40.151],[-113.91,40.1666],[-113.865,40.1753],[-113.815,40.1773],[-113.765,40.1883],[-113.715,40.2085],[-113.6722,40.2116],[-113.6367,40.1978],[-113.6186,40.1717],[-113.618,40.1335],[-113.6608,40.0624],[-113.7469,39.9585],[-113.815,39.9052],[-113.865,39.9027],[-113.93,39.9203],[-114.01,39.958],[-114.075,39.9663],[-114.125,39.945],[-114.1626,39.9411],[-114.1879,39.9545],[-114.2029,39.9689],[-114.2078,39.9842],[-114.2051,40.0024]]]}},{"type":"Feature","properties":{"c":"#ffffb2","v0":5.0,"v1":10.0},"geometry":{"type":"Polygon","coordinates":[[[-79.9902,31.7077],[-79.9634,31.7454],[-79.93,31.7715],[-79.89,31.786],[-79.855,31.7916],[-79.825,31.7882],[-79.79,31.7753],[-79.75,31.7527],[-79.695,31.7442],[-79.625,31.75],[-79.5558,31.7751],[-79.4873,31.8196],[-79.4555,31.8546],[-79.4604,31.8801],[-79.4546,31.9029],[-79.4382,31.9232],[-79.415,31.9369],[-79.385,31.944],[-79.3573,31.9423],[-79.332,31.932],[-79.3221,31.914],[-79.3275,31.8886],[-79.3587,31.8673],[-79.4159,31.8504],[-79.4249,31.8121],[-79.3858,31.7526],[-79.3721,31.7089],[-79.384,31.6809],[-79.405,31.6561],[-79.435,31.6344],[-79.475,31.6246],[-79.525,31.6269],[-79.585,31.6215],[-79.655,31.6086],[-79.715,31.6091],[-79.765,31.6229],[-79.8338,31.6318],[-79.9215,31.6357],[-79.9749,31.6505],[-79.9941,31.676],[-79.9902,31.7077]]]}},{"type":"Feature","properties":{"c":"#ffffb2","v0":5.0,"v1":10.0},"geometry":{"type":"Polygon","coordinates":[[[-79.7985,31.8801],[-79.7904,31.8886],[-79.7873,31.8854],[-79.7891,31.8707],[-79.7931,31.8664],[-79.7994,31.8727],[-79.7985,31.8801]]]}},{"type":"Feature","properties":{"c":"#ffffb2","v0":5.0,"v1":10.0},"geometry":{"type":"Polygon","coordinates":[[[-80.4043,30.748],[-80.3961,30.7824],[-80.3714,30.8057],[-80.3305,30.8179],[-80.2818,30.8566],[-80.2255,30.9216],[-80.1655,30.9581],[-80.1018,30.9661],[-80.045,30.9897],[-79.995,31.0289],[-79.9,31.0582],[-79.76,31.0776],[-79.65,31.0774],[-79.57,31.0574],[-79.5204,31.0369],[-79.5012,31.016],[-79.4899,30.9927],[-79.4865,30.967],[-79.4961,30.9465],[-79.5187,30.9314],[-79.56,30.9257],[-79.62,30.9295],[-79.685,30.9165],[-79.755,30.887],[-79.82,30.8757],[-79.88,30.8828],[-79.95,30.8768],[-80.03,30.8577],[-80.105,30.8288],[-80.175,30.7898],[-80.2187,30.7519],[-80.2361,30.7149],[-80.2611,30.687],[-80.2937,30.6681],[-80.328,30.6595],[-80.3639,30.6612],[-80.3885,30.6792],[-80.4018,30.7136],[-80.4043,30.748]],[[-80.3751,30.7412],[-80.3717,30.7621],[-80.345,30.7827],[-80.295,30.8031],[-80.25,30.8406],[-80.21,30.8951],[-80.18,30.927],[-80.16,30.9363],[-80.125,30.9409],[-80.075,30.9406],[-80.027,30.9611],[-79.9809,31.0021],[-79.9209,31.0246],[-79.847,31.0284],[-79.785,31.038],[-79.735,31.0534],[-79.6642,31.0472],[-79.5726,31.0194],[-79.5278,30.9927],[-79.5297,30.967],[-79.5605,30.9557],[-79.6202,30.9589],[-79.685,30.9454],[-79.755,30.9153],[-79.82,30.9042],[-79.88,30.9122],[-79.93,30.9079],[-79.97,30.8914],[-80.015,30.8808],[-80.065,30.8759],[-80.125,30.8538],[-80.195,30.8147],[-80.2404,30.7747],[-80.2613,30.734],[-80.2863,30.7059],[-80.3154,30.6903],[-80.34,30.6856],[-80.36,30.6918],[-80.3717,30.7039],[-80.3751,30.7219],[-80.3751,30.7412]]]}},{"type":"Feature","properties":{"c":"#ffffb2","v0":5.0,"v1":10.0},"geometry":{"type":"Polygon","coordinates":[[[-86.1059,29.8715],[-86.082,29.9145],[-86.035,29.9492],[-85.965,29.9757],[-85.915,29.9875],[-85.885,29.9848],[-85.835,29.9661],[-85.765,29.9314],[-85.66,29.9384],[-85.52,29.9871],[-85.43,30.0098],[-85.39,30.0065],[-85.3596,29.9922],[-85.3387,29.9668],[-85.3387,29.9196],[-85.3596,29.8506],[-85.42,29.8016],[-85.52,29.7725],[-85.68,29.7536],[-85.9,29.7449],[-86.0323,29.7505],[-86.0769,29.7706],[-86.1038,29.798],[-86.1132,29.8327],[-86.1059,29.8715]],[[-86.0953,29.8675],[-86.0784,29.9025],[-86.035,29.9344],[-85.965,29.9633],[-85.915,29.9756],[-85.885,29.9713],[-85.835,29.9517],[-85.765,29.9166],[-85.66,29.9241],[-85.52,29.9743],[-85.43,29.9972],[-85.39,29.9931],[-85.363,29.9817],[-85.3491,29.9633],[-85.35,29.9237],[-85.3658,29.863],[-85.4228,29.8171],[-85.5209,29.7858],[-85.68,29.7658],[-85.9,29.757],[-86.0274,29.7596],[-86.0622,29.7736],[-86.0856,29.798],[-86.0976,29.8327],[-86.0953,29.8675]]]}},{"type":"Feature","properties":{"c":"#ffffb2","v0":5.0,"v1":10.0},"geometry":{"type":"Polygon","coordinates":[[[-78.3406,29.8891],[-78.3275,29.9324],[-78.3082,29.9667],[-78.2827,29.992],[-78.255,30.0087],[-78.225,30.0167],[-78.195,30.0166],[-78.165,30.0083],[-78.1411,29.9916],[-78.1233,29.9666],[-78.1112,29.9281],[-78.1048,29.876],[-78.0853,29.837],[-78.0528,29.811],[-78.0399,29.7648],[-78.0466,29.6986],[-78.065,29.66],[-78.095,29.6492],[-78.125,29.6472],[-78.155,29.6539],[-78.1785,29.6751],[-78.1956,29.7107],[-78.2306,29.7419],[-78.2835,29.7686],[-78.3193,29.8033],[-78.3379,29.846],[-78.3406,29.8891]],[[-78.3032,29.8934],[-78.2789,29.9454],[-78.2576,29.9763],[-78.2392,29.986],[-78.215,29.9886],[-78.185,29.9839],[-78.1601,29.9444],[-78.1402,29.8699],[-78.1142,29.8197],[-78.0821,29.7936],[-78.067,29.7583],[-78.069,29.7137],[-78.087,29.6877],[-78.1211,29.6802],[-78.1511,29.6966],[-78.177,29.7369],[-78.215,29.769],[-78.265,29.7927],[-78.2963,29.8203],[-78.309,29.8517],[-78.3032,29.8934]]]}},{"type":"Feature","properties":{"c":"#ffffb2","v0":5.0,"v1":10.0},"geometry":{"type":"Polygon","coordinates":[[[-84.3113,29.8284],[-84.2838,29.8545],[-84.2,29.882],[-84.06,29.9109],[-83.9748,29.9152],[-83.9445,29.8949],[-83.922,29.863],[-83.9071,29.8197],[-83.9073,29.7845],[-83.9224,29.7576],[-83.955,29.7484],[-84.005,29.7567],[-84.05,29.7511],[-84.09,29.7315],[-84.13,29.7208],[-84.17,29.7189],[-84.205,29.7214],[-84.235,29.7282],[-84.2688,29.7526],[-84.3063,29.7944],[-84.3113,29.8284]]]}},{"type":"Feature","properties":{"c":"#ffffb2","v0":5.0,"v1":10.0},"geometry":{"type":"Polygon","coordinates":[[[-85.34,29.622],[-85.32,29.6524],[-85.265,29.6773],[-85.175,29.6969],[-85.115,29.7185],[-85.085,29.7423],[-85.055,29.7567],[-85.025,29.7615],[-84.99,29.7561],[-84.95,29.7407],[-84.91,29.7335],[-84.87,29.7346],[-84.825,29.754],[-84.775,29.7916],[-84.72,29.8188],[-84.66,29.8356],[-84.615,29.857],[-84.585,29.8828],[-84.55,29.897],[-84.51,29.8995],[-84.4838,29.8968],[-84.4714,29.8887],[-84.4651,29.876],[-84.4651,29.8587],[-84.4889,29.8153],[-84.5364,29.7459],[-84.5326,29.7052],[-84.4775,29.6933],[-84.4342,29.6542],[-84.4027,29.5879],[-84.3577,29.5483],[-84.2992,29.5355],[-84.2561,29.5181],[-84.2282,29.4961],[-84.2142,29.4676],[-84.2139,29.4328],[-84.2326,29.398],[-84.2701,29.3631],[-84.2886,29.3282],[-84.2881,29.2934],[-84.2834,29.2704],[-84.2745,29.2594],[-84.25,29.2527],[-84.21,29.2503],[-84.1799,29.2428],[-84.1597,29.23],[-84.1521,29.2017],[-84.1572,29.1581],[-84.1873,29.1107],[-84.2424,29.0596],[-84.285,29.0285],[-84.315,29.0175],[-84.38,29.012],[-84.48,29.012],[-84.575,29.0243],[-84.665,29.0491],[-84.75,29.0458],[-84.83,29.0145],[-84.91,29.006],[-84.99,29.0202],[-85.0424,29.0371],[-85.0672,29.0566],[-85.0823,29.0794],[-85.0878,29.1057],[-85.0692,29.1406],[-85.0265,29.1843],[-85.0074,29.2366],[-85.0121,29.2977],[-84.9883,29.3409],[-84.9361,29.3661],[-84.875,29.377],[-84.805,29.3735],[-84.7695,29.387],[-84.7685,29.4175],[-84.8035,29.4443],[-84.8745,29.4673],[-84.945,29.504],[-85.015,29.5543],[-85.075,29.5728],[-85.125,29.5595],[-85.18,29.5523],[-85.24,29.5515],[-85.285,29.5558],[-85.315,29.5654],[-85.335,29.5793],[-85.345,29.5977],[-85.34,29.622]],[[-85.3148,29.6179],[-85.2983,29.6401],[-85.25,29.6587],[-85.17,29.6737],[-85.105,29.6964],[-85.055,29.7268],[-85.005,29.7337],[-84.955,29.7173],[-84.905,29.7108],[-84.855,29.7142],[-84.8041,29.7365],[-84.7523,29.7775],[-84.7023,29.8034],[-84.6541,29.8142],[-84.61,29.8343],[-84.57,29.8635],[-84.54,29.8783],[-84.52,29.8788],[-84.5084,29.8675],[-84.5052,29.8443],[-84.5265,29.798],[-84.5723,29.7285],[-84.5889,29.6883],[-84.5763,29.6773],[-84.545,29.6713],[-84.495,29.6705],[-84.4535,29.6368],[-84.4205,29.5705],[-84.3639,29.5242],[-84.2839,29.4981],[-84.2435,29.4676],[-84.2425,29.4328],[-84.2607,29.4023],[-84.298,29.3762],[-84.3165,29.337],[-84.3162,29.2846],[-84.3095,29.2516],[-84.2965,29.2378],[-84.265,29.2289],[-84.215,29.2251],[-84.1856,29.2145],[-84.1768,29.1973],[-84.1773,29.1755],[-84.1871,29.1493],[-84.2163,29.1144],[-84.2648,29.0707],[-84.3043,29.0446],[-84.3348,29.036],[-84.395,29.0323],[-84.485,29.0334],[-84.57,29.0461],[-84.65,29.0704],[-84.71,29.0807],[-84.75,29.077],[-84.8,29.0613],[-84.86,29.0335],[-84.9231,29.0269],[-84.9892,29.0415],[-85.0318,29.0576],[-85.0507,29.0751],[-85.0612,29.0926],[-85.0632,29.11],[-85.0429,29.1362],[-85.0002,29.1712],[-84.9816,29.221],[-84.9872,29.2856],[-84.96,29.3289],[-84.9,29.3508],[-84.845,29.3509],[-84.795,29.3291],[-84.761,29.3338],[-84.7431,29.365],[-84.7354,29.3936],[-84.738,29.4197],[-84.752,29.4439],[-84.7773,29.4659],[-84.815,29.4814],[-84.865,29.4902],[-84.91,29.5051],[-84.95,29.526],[-84.985,29.5562],[-85.015,29.5958],[-85.07,29.6046],[-85.15,29.5827],[-85.215,29.5728],[-85.265,29.5751],[-85.2983,29.5839],[-85.3148,29.5992],[-85.3148,29.6179]]]}},{"type":"Feature","properties":{"c":"#ffffb2","v0":5.0,"v1":10.0},"geometry":{"type":"Polygon","coordinates":[[[-81.197,29.8023],[-81.1742,29.8457],[-81.1346,29.8761],[-81.0782,29.8937],[-81.03,29.9004],[-80.99,29.8964],[-80.95,29.8819],[-80.91,29.8568],[-80.87,29.8404],[-80.83,29.8325],[-80.8005,29.8166],[-80.7815,29.7926],[-80.7815,29.7644],[-80.8005,29.732],[-80.83,29.7074],[-80.87,29.6908],[-80.915,29.6905],[-80.965,29.7066],[-81.03,29.7136],[-81.11,29.7113],[-81.16,29.7165],[-81.18,29.729],[-81.1946,29.7466],[-81.2038,29.7693],[-81.197,29.8023]]]}},{"type":"Feature","properties":{"c":"#ffffb2","v0":5.0,"v1":10.0},"geometry":{"type":"Polygon","coordinates":[[[-80.3549,27.5742],[-80.3397,27.6539],[-80.3212,27.7115],[-80.2996,27.7469],[-80.2641,27.7753],[-80.2147,27.7967],[-80.165,27.7995],[-80.115,27.7838],[-80.08,27.7885],[-80.06,27.8136],[-80.0451,27.8418],[-80.0354,27.8729],[-80.0399,27.9282],[-80.0585,28.0077],[-80.0608,28.0695],[-80.0468,28.1136],[-80.0274,28.1434],[-80.0025,28.1589],[-79.97,28.163],[-79.93,28.1555],[-79.8888,28.1301],[-79.8463,28.0867],[-79.8123,28.0297],[-79.7867,27.9591],[-79.7749,27.9017],[-79.7769,27.8575],[-79.7926,27.8],[-79.8222,27.7292],[-79.8502,27.6846],[-79.8767,27.6663],[-79.915,27.6555],[-79.965,27.6521],[-80.0,27.6272],[-80.02,27.5807],[-80.055,27.5406],[-80.105,27.5068],[-80.175,27.4887],[-80.265,27.4863],[-80.3231,27.4974],[-80.3494,27.522],[-80.3549,27.5742]],[[-80.3185,27.5919],[-80.3,27.6716],[-80.2806,27.7231],[-80.2602,27.7465],[-80.235,27.7628],[-80.205,27.7722],[-80.165,27.7682],[-80.115,27.7509],[-80.0796,27.7478],[-80.0588,27.759],[-80.0359,27.7955],[-80.011,27.8575],[-80.0074,27.9193],[-80.0251,27.9812],[-80.0329,28.0293],[-80.031,28.0639],[-80.0207,28.0948],[-80.0021,28.122],[-79.9771,28.1341],[-79.9457,28.131],[-79.91,28.109],[-79.87,28.0681],[-79.839,28.0167],[-79.817,27.9547],[-79.807,27.902],[-79.809,27.8585],[-79.8232,27.8054],[-79.8495,27.7428],[-79.8695,27.7058],[-79.8832,27.6946],[-79.9201,27.6857],[-79.9802,27.6793],[-80.0231,27.6495],[-80.0486,27.5963],[-80.0817,27.5564],[-80.1223,27.5298],[-80.1795,27.5153],[-80.2532,27.5127],[-80.2994,27.5216],[-80.3183,27.5419],[-80.3185,27.5919]]]}},{"type":"Feature","properties":{"c":"#ffffb2","v0":5.0,"v1":10.0},"geometry":{"type":"Polygon","coordinates":[[[-94.772,27.4405],[-94.7573,27.4658],[-94.73,27.4864],[-94.69,27.5022],[-94.61,27.5063],[-94.49,27.4989],[-94.405,27.5017],[-94.355,27.5148],[-94.29,27.5225],[-94.21,27.5246],[-94.115,27.5249],[-94.005,27.5234],[-93.9411,27.5167],[-93.9232,27.5048],[-93.9097,27.4855],[-93.9005,27.4588],[-93.8994,27.4307],[-93.9065,27.4009],[-93.925,27.3768],[-93.955,27.3583],[-94.07,27.3425],[-94.27,27.3294],[-94.3867,27.2869],[-94.4202,27.2149],[-94.4602,27.1671],[-94.5067,27.1433],[-94.545,27.1366],[-94.575,27.1469],[-94.5971,27.1632],[-94.6114,27.1856],[-94.6164,27.231],[-94.6121,27.2996],[-94.64,27.3414],[-94.7,27.3567],[-94.7423,27.3802],[-94.767,27.4119],[-94.772,27.4405]],[[-94.7517,27.4387],[-94.7372,27.4605],[-94.715,27.4768],[-94.685,27.4876],[-94.61,27.4894],[-94.49,27.4821],[-94.405,27.4849],[-94.355,27.4976],[-94.29,27.505],[-94.21,27.5072],[-94.12,27.5086],[-94.02,27.5091],[-93.96,27.5041],[-93.94,27.4936],[-93.9262,27.4777],[-93.9187,27.4563],[-93.9182,27.4322],[-93.9249,27.4056],[-93.9387,27.3859],[-93.9596,27.3732],[-94.073,27.3599],[-94.2791,27.3459],[-94.398,27.3034],[-94.43,27.2323],[-94.467,27.1847],[-94.509,27.1607],[-94.54,27.1514],[-94.56,27.1569],[-94.5771,27.1689],[-94.5913,27.1875],[-94.5958,27.2323],[-94.5904,27.3034],[-94.6233,27.3503],[-94.6944,27.373],[-94.7372,27.3952],[-94.7517,27.4169],[-94.7517,27.4387]]]}},{"type":"Feature","properties":{"c":"#ffffb2","v0":5.0,"v1":10.0},"geometry":{"type":"Polygon","coordinates":[[[-96.1535,26.6736],[-96.1378,26.6971],[-96.1,26.7097],[-96.04,26.7112],[-95.9824,26.6994],[-95.9271,26.6743],[-95.8971,26.6425],[-95.8924,26.604],[-95.9,26.5762],[-95.92,26.5593],[-95.96,26.5676],[-96.02,26.6012],[-96.07,26.6211],[-96.11,26.6273],[-96.1378,26.6382],[-96.1535,26.6539],[-96.1535,26.6736]]]}},{"type":"Feature","properties":{"c":"#ffffb2","v0":5.0,"v1":10.0},"geometry":{"type":"Polygon","coordinates":[[[-96.1251,26.3187],[-96.115,26.3488],[-96.085,26.3759],[-96.035,26.3999],[-95.995,26.4263],[-95.965,26.4551],[-95.94,26.4684],[-95.92,26.4662],[-95.93,26.4098],[-95.97,26.299],[-96.0,26.2384],[-96.02,26.228],[-96.045,26.2246],[-96.075,26.2281],[-96.1,26.2483],[-96.1201,26.2853],[-96.1251,26.3187]]]}},{"type":"Feature","properties":{"c":"#ffffb2","v0":5.0,"v1":10.0},"geometry":{"type":"Polygon","coordinates":[[[-79.1938,25.5933],[-79.1887,25.6113],[-79.1672,25.6364],[-79.1291,25.6684],[-79.04,25.697],[-78.9,25.7222],[-78.81,25.7286],[-78.77,25.7163],[-78.7367,25.6922],[-78.7101,25.6563],[-78.7051,25.6162],[-78.7217,25.5717],[-78.77,25.5271],[-78.85,25.4823],[-78.955,25.4718],[-79.085,25.4955],[-79.1616,25.5265],[-79.1847,25.565],[-79.1938,25.5933]],[[-79.1732,25.5933],[-79.1663,25.6113],[-79.1446,25.634],[-79.1082,25.6611],[-79.025,25.6854],[-78.895,25.7068],[-78.8109,25.7113],[-78.7727,25.6987],[-78.7442,25.679],[-78.7253,25.6519],[-78.721,25.6204],[-78.7315,25.5843],[-78.7751,25.544],[-78.8517,25.4997],[-78.95,25.4876],[-79.07,25.508],[-79.1417,25.5347],[-79.165,25.5678],[-79.1732,25.5933]]]}},{"type":"Feature","properties":{"c":"#ffffb2","v0":5.0,"v1":10.0},"geometry":{"type":"Polygon","coordinates":[[[-97.4252,23.4002],[-97.3392,23.5103],[-97.2768,23.5699],[-97.238,23.5791],[-97.2224,23.5929],[-97.2299,23.6112],[-97.2503,23.6295],[-97.2836,23.6478],[-97.3024,23.6661],[-97.3067,23.6845],[-97.2844,23.7165],[-97.2355,23.7623],[-97.2077,23.8355],[-97.201,23.9361],[-97.1748,24.0366],[-97.1289,24.137],[-97.0863,24.2055],[-97.0469,24.2419],[-96.9768,24.3422],[-96.8761,24.5061],[-96.7368,24.6484],[-96.5589,24.7691],[-96.45,24.8305],[-96.41,24.8327],[-96.355,24.8478],[-96.285,24.8759],[-96.236,24.8781],[-96.208,24.8543],[-96.1936,24.8287],[-96.1929,24.8015],[-96.2069,24.7659],[-96.2356,24.722],[-96.283,24.6856],[-96.3489,24.6569],[-96.4011,24.588],[-96.4396,24.4788],[-96.4917,24.3819],[-96.5572,24.2974],[-96.6013,24.2335],[-96.6239,24.1905],[-96.6339,24.1585],[-96.6313,24.1377],[-96.615,24.1318],[-96.585,24.141],[-96.5471,24.1879],[-96.5012,24.2726],[-96.4412,24.3439],[-96.3671,24.402],[-96.315,24.4255],[-96.285,24.4146],[-96.2623,24.3947],[-96.2468,24.3658],[-96.2511,24.324],[-96.2751,24.2693],[-96.2828,24.2371],[-96.2743,24.2274],[-96.2165,24.2365],[-96.1096,24.2644],[-96.0096,24.3106],[-95.9165,24.3751],[-95.84,24.4009],[-95.78,24.3879],[-95.705,24.388],[-95.615,24.4013],[-95.5519,24.3983],[-95.5156,24.3791],[-95.4951,24.3559],[-95.4904,24.3285],[-95.4946,24.2921],[-95.5077,24.2465],[-95.5373,24.21],[-95.5833,24.1826],[-95.5757,24.1325],[-95.5144,24.0594],[-95.48,24.0046],[-95.4724,23.9681],[-95.479,23.9371],[-95.4997,23.9117],[-95.5312,23.8934],[-95.5737,23.8822],[-95.5999,23.8538],[-95.6097,23.808],[-95.6235,23.777],[-95.6412,23.7608],[-95.675,23.7538],[-95.725,23.7561],[-95.76,23.7755],[-95.78,23.8119],[-95.845,23.8147],[-95.955,23.7839],[-96.035,23.7755],[-96.085,23.7897],[-96.14,23.7929],[-96.2,23.7852],[-96.26,23.7864],[-96.32,23.7963],[-96.385,23.8183],[-96.455,23.8522],[-96.505,23.8584],[-96.535,23.837],[-96.57,23.8288],[-96.61,23.8338],[-96.6331,23.8326],[-96.6392,23.8254],[-96.634,23.7989],[-96.6176,23.7531],[-96.6295,23.7015],[-96.6698,23.6439],[-96.705,23.6121],[-96.735,23.606],[-96.77,23.6147],[-96.81,23.6383],[-96.85,23.6334],[-96.89,23.6],[-96.935,23.5858],[-96.985,23.5907],[-97.0118,23.5771],[-97.0154,23.5448],[-97.0063,23.5149],[-96.9848,23.4874],[-96.9639,23.4415],[-96.9437,23.3773],[-96.9377,23.3341],[-96.9459,23.312],[-96.96,23.2991],[-96.98,23.2956],[-97.005,23.3004],[-97.035,23.3136],[-97.08,23.3558],[-97.14,23.4269],[-97.1784,23.4377],[-97.1952,23.3883],[-97.2452,23.3372],[-97.3284,23.2844],[-97.385,23.2635],[-97.415,23.2744],[-97.4395,23.2962],[-97.4586,23.3288],[-97.4252,23.4002]],[[-97.3986,23.395],[-97.3129,23.4946],[-97.2491,23.545],[-97.2072,23.5463],[-97.1896,23.5654],[-97.1962,23.602],[-97.2196,23.6387],[-97.2597,23.6753],[-97.2555,23.7165],[-97.2069,23.7623],[-97.1798,23.8355],[-97.174,23.9361],[-97.1474,24.0366],[-97.1,24.137],[-97.0598,24.2012],[-97.0266,24.2292],[-96.9599,24.3249],[-96.8598,24.4882],[-96.7248,24.6274],[-96.5549,24.7426],[-96.45,24.8017],[-96.41,24.8047],[-96.355,24.8207],[-96.285,24.8494],[-96.2413,24.8539],[-96.2239,24.8341],[-96.2161,24.8151],[-96.2179,24.797],[-96.2315,24.7697],[-96.2567,24.7334],[-96.3022,24.7016],[-96.3679,24.6743],[-96.423,24.5998],[-96.4677,24.478],[-96.5313,24.3596],[-96.6138,24.2447],[-96.6538,24.1652],[-96.6513,24.1213],[-96.625,24.1066],[-96.575,24.1212],[-96.53,24.1675],[-96.49,24.2454],[-96.435,24.3147],[-96.365,24.3751],[-96.32,24.4024],[-96.3,24.3966],[-96.284,24.3831],[-96.2719,24.3619],[-96.2791,24.324],[-96.3055,24.2693],[-96.3115,24.2304],[-96.2972,24.2075],[-96.23,24.2109],[-96.11,24.2408],[-96.005,24.2877],[-95.915,24.3519],[-95.84,24.3772],[-95.78,24.3639],[-95.71,24.3648],[-95.63,24.3798],[-95.5718,24.3783],[-95.5355,24.3603],[-95.5243,24.3194],[-95.5382,24.2556],[-95.5713,24.2173],[-95.6238,24.2044],[-95.6588,24.1907],[-95.6763,24.1762],[-95.6594,24.1553],[-95.608,24.1279],[-95.5598,24.0777],[-95.5146,24.0046],[-95.4965,23.9579],[-95.5055,23.9374],[-95.54,23.9152],[-95.6,23.8911],[-95.635,23.8546],[-95.645,23.8055],[-95.67,23.7797],[-95.71,23.7772],[-95.7389,23.7966],[-95.7567,23.8378],[-95.7717,23.8603],[-95.7839,23.8642],[-95.845,23.8478],[-95.955,23.8111],[-96.035,23.7995],[-96.085,23.813],[-96.14,23.8159],[-96.2,23.808],[-96.265,23.8104],[-96.335,23.8233],[-96.41,23.8501],[-96.49,23.8907],[-96.5378,23.8979],[-96.5534,23.8715],[-96.5834,23.8595],[-96.6278,23.8618],[-96.6561,23.8572],[-96.6683,23.8458],[-96.6646,23.8126],[-96.645,23.7577],[-96.6538,23.7056],[-96.6913,23.6564],[-96.72,23.6312],[-96.74,23.6301],[-96.77,23.6422],[-96.81,23.6674],[-96.85,23.6628],[-96.89,23.6284],[-96.935,23.6146],[-96.985,23.6216],[-97.0173,23.6194],[-97.0318,23.6078],[-97.0405,23.5837],[-97.0435,23.547],[-97.0322,23.5103],[-97.0065,23.4737],[-96.9877,23.4226],[-96.9759,23.3571],[-96.98,23.3245],[-97.0,23.3249],[-97.0236,23.3347],[-97.0508,23.3539],[-97.0813,23.3957],[-97.1152,23.4599],[-97.1417,23.498],[-97.1606,23.51],[-97.1778,23.5054],[-97.1934,23.4842],[-97.2032,23.4553],[-97.2072,23.4186],[-97.2181,23.3911],[-97.236,23.3727],[-97.2813,23.3448],[-97.3538,23.3074],[-97.4029,23.3028],[-97.4286,23.331],[-97.3986,23.395]]]}},{"type":"Feature","properties":{"c":"#ffffb2","v0":5.0,"v1":10.0},"geometry":{"type":"Polygon","coordinates":[[[-95.8912,24.1624],[-95.8637,24.1857],[-95.8251,24.1902],[-95.7754,24.176],[-95.7654,24.1563],[-95.7951,24.1308],[-95.825,24.1184],[-95.855,24.1188],[-95.8787,24.127],[-95.8962,24.1428],[-95.8912,24.1624]],[[-95.8535,24.1562],[-95.8378,24.1672],[-95.8238,24.1672],[-95.8114,24.1562],[-95.8193,24.1507],[-95.8474,24.1507],[-95.8535,24.1562]]]}},{"type":"Feature","properties":{"c":"#ffffb2","v0":5.0,"v1":10.0},"geometry":{"type":"Polygon","coordinates":[[[-96.9632,23.98],[-96.9544,24.0038],[-96.94,24.0189],[-96.92,24.0253],[-96.8968,24.0133],[-96.8703,23.9832],[-96.8703,23.953],[-96.8968,23.9228],[-96.92,23.9109],[-96.94,23.9172],[-96.9544,23.9323],[-96.9632,23.9562],[-96.9632,23.98]],[[-96.9329,23.9759],[-96.9176,23.9917],[-96.9038,23.9917],[-96.8913,23.9759],[-96.8913,23.9602],[-96.9038,23.9444],[-96.9176,23.9444],[-96.9329,23.9602],[-96.9329,23.9759]]]}},{"type":"Feature","properties":{"c":"#ffffb2","v0":5.0,"v1":10.0},"geometry":{"type":"Polygon","coordinates":[[[-96.4335,23.5103],[-96.4265,23.547],[-96.3997,23.5836],[-96.3532,23.6201],[-96.31,23.6396],[-96.27,23.6422],[-96.2175,23.6331],[-96.1526,23.6124],[-96.0876,23.6066],[-96.0225,23.6157],[-95.9704,23.6066],[-95.9312,23.5791],[-95.9015,23.5149],[-95.8813,23.414],[-95.8809,23.3516],[-95.9003,23.3277],[-95.9391,23.314],[-95.9973,23.3103],[-96.0193,23.2763],[-96.0053,23.212],[-96.0112,23.1604],[-96.0371,23.1217],[-96.065,23.1007],[-96.095,23.0972],[-96.1787,23.1396],[-96.316,23.2277],[-96.3978,23.3268],[-96.4239,23.437],[-96.4335,23.5103]],[[-96.4186,23.5103],[-96.4102,23.547],[-96.387,23.5805],[-96.349,23.6107],[-96.305,23.6261],[-96.255,23.6269],[-96.205,23.6176],[-96.155,23.5983],[-96.095,23.5936],[-96.025,23.6034],[-95.9743,23.5976],[-95.9429,23.5761],[-95.9169,23.5149],[-95.8961,23.414],[-95.9017,23.352],[-95.9339,23.329],[-96.0,23.3195],[-96.1,23.3237],[-96.155,23.322],[-96.165,23.3144],[-96.165,23.3015],[-96.155,23.2833],[-96.135,23.2794],[-96.105,23.2899],[-96.08,23.2927],[-96.06,23.2878],[-96.0402,23.2681],[-96.0206,23.2337],[-96.0206,23.1931],[-96.0402,23.1463],[-96.065,23.1199],[-96.095,23.1139],[-96.1743,23.1511],[-96.3028,23.2315],[-96.3746,23.2855],[-96.3897,23.313],[-96.4036,23.3681],[-96.4164,23.4507],[-96.4186,23.5103]]]}},{"type":"Feature","properties":{"c":"#fed976","v0":10.0,"v1":20.0},"geometry":{"type":"Polygon","coordinates":[[[-114.2051,40.0024],[-114.195,40.0233],[-114.155,40.0629],[-114.085,40.1211],[-114.03,40.1484],[-113.99,40.1449],[-113.95,40.151],[-113.91,40.1666],[-113.865,40.1753],[-113.815,40.1773],[-113.765,40.1883],[-113.715,40.2085],[-113.6722,40.2116],[-113.6367,40.1978],[-113.6186,40.1717],[-113.618,40.1335],[-113.6608,40.0624],[-113.7469,39.9585],[-113.815,39.9052],[-113.865,39.9027],[-113.93,39.9203],[-114.01,39.958],[-114.075,39.9663],[-114.125,39.945],[-114.1626,39.9411],[-114.1879,39.9545],[-114.2029,39.9689],[-114.2078,39.9842],[-114.2051,40.0024]],[[-114.1598,40.0283],[-114.0866,40.101],[-114.03,40.1358],[-113.99,40.1326],[-113.95,40.1391],[-113.91,40.1552],[-113.86,40.1655],[-113.8,40.1699],[-113.75,40.1806],[-113.71,40.1977],[-113.674,40.1985],[-113.642,40.1832],[-113.6282,40.1602],[-113.6326,40.1297],[-113.6572,40.0914],[-113.7019,40.0455],[-113.7334,40.0034],[-113.7517,39.9651],[-113.7731,39.9374],[-113.7977,39.9203],[-113.83,39.9122],[-113.87,39.913],[-113.93,39.9323],[-114.01,39.9699],[-114.075,39.9785],[-114.125,39.9579],[-114.1616,39.9587],[-114.1848,39.9808],[-114.1598,40.0283]]]}},{"type":"Feature","properties":{"c":"#fed976","v0":10.0,"v1":20.0},"geometry":{"type":"Polygon","coordinates":[[[-80.3751,30.7412],[-80.3717,30.7621],[-80.345,30.7827],[-80.295,30.8031],[-80.25,30.8406],[-80.21,30.8951],[-80.18,30.927],[-80.16,30.9363],[-80.125,30.9409],[-80.075,30.9406],[-80.027,30.9611],[-79.9809,31.0021],[-79.9209,31.0246],[-79.847,31.0284],[-79.785,31.038],[-79.735,31.0534],[-79.6642,31.0472],[-79.5726,31.0194],[-79.5278,30.9927],[-79.5297,30.967],[-79.5605,30.9557],[-79.6202,30.9589],[-79.685,30.9454],[-79.755,30.9153],[-79.82,30.9042],[-79.88,30.9122],[-79.93,30.9079],[-79.97,30.8914],[-80.015,30.8808],[-80.065,30.8759],[-80.125,30.8538],[-80.195,30.8147],[-80.2404,30.7747],[-80.2613,30.734],[-80.2863,30.7059],[-80.3154,30.6903],[-80.34,30.6856],[-80.36,30.6918],[-80.3717,30.7039],[-80.3751,30.7219],[-80.3751,30.7412]]]}},{"type":"Feature","properties":{"c":"#fed976","v0":10.0,"v1":20.0},"geometry":{"type":"Polygon","coordinates":[[[-86.0953,29.8675],[-86.0784,29.9025],[-86.035,29.9344],[-85.965,29.9633],[-85.915,29.9756],[-85.885,29.9713],[-85.835,29.9517],[-85.765,29.9166],[-85.66,29.9241],[-85.52,29.9743],[-85.43,29.9972],[-85.39,29.9931],[-85.363,29.9817],[-85.3491,29.9633],[-85.35,29.9237],[-85.3658,29.863],[-85.4228,29.8171],[-85.5209,29.7858],[-85.68,29.7658],[-85.9,29.757],[-86.0274,29.7596],[-86.0622,29.7736],[-86.0856,29.798],[-86.0976,29.8327],[-86.0953,29.8675]],[[-86.0759,29.866],[-86.0586,29.898],[-86.02,29.9255],[-85.96,29.9487],[-85.92,29.96],[-85.9,29.9593],[-85.85,29.939],[-85.77,29.8992],[-85.665,29.9041],[-85.535,29.9537],[-85.45,29.9787],[-85.41,29.9792],[-85.3834,29.9731],[-85.3702,29.9604],[-85.3702,29.9271],[-85.3834,29.8732],[-85.435,29.8315],[-85.525,29.802],[-85.68,29.7828],[-85.9,29.774],[-86.0252,29.7766],[-86.0556,29.7909],[-86.0742,29.811],[-86.0811,29.837],[-86.0759,29.866]]]}},{"type":"Feature","properties":{"c":"#fed976","v0":10.0,"v1":20.0},"geometry":{"type":"Polygon","coordinates":[[[-78.3032,29.8934],[-78.2789,29.9454],[-78.2576,29.9763],[-78.2392,29.986],[-78.215,29.9886],[-78.185,29.9839],[-78.1601,29.9444],[-78.1402,29.8699],[-78.1142,29.8197],[-78.0821,29.7936],[-78.067,29.7583],[-78.069,29.7137],[-78.087,29.6877],[-78.1211,29.6802],[-78.1511,29.6966],[-78.177,29.7369],[-78.215,29.769],[-78.265,29.7927],[-78.2963,29.8203],[-78.309,29.8517],[-78.3032,29.8934]]]}},{"type":"Feature","properties":{"c":"#fed976","v0":10.0,"v1":20.0},"geometry":{"type":"Polygon","coordinates":[[[-85.3148,29.6179],[-85.2983,29.6401],[-85.25,29.6587],[-85.17,29.6737],[-85.105,29.6964],[-85.055,29.7268],[-85.005,29.7337],[-84.955,29.7173],[-84.905,29.7108],[-84.855,29.7142],[-84.8041,29.7365],[-84.7523,29.7775],[-84.7023,29.8034],[-84.6541,29.8142],[-84.61,29.8343],[-84.57,29.8635],[-84.54,29.8783],[-84.52,29.8788],[-84.5084,29.8675],[-84.5052,29.8443],[-84.5265,29.798],[-84.5723,29.7285],[-84.5889,29.6883],[-84.5763,29.6773],[-84.545,29.6713],[-84.495,29.6705],[-84.4535,29.6368],[-84.4205,29.5705],[-84.3639,29.5242],[-84.2839,29.4981],[-84.2435,29.4676],[-84.2425,29.4328],[-84.2607,29.4023],[-84.298,29.3762],[-84.3165,29.337],[-84.3162,29.2846],[-84.3095,29.2516],[-84.2965,29.2378],[-84.265,29.2289],[-84.215,29.2251],[-84.1856,29.2145],[-84.1768,29.1973],[-84.1773,29.1755],[-84.1871,29.1493],[-84.2163,29.1144],[-84.2648,29.0707],[-84.3043,29.0446],[-84.3348,29.036],[-84.395,29.0323],[-84.485,29.0334],[-84.57,29.0461],[-84.65,29.0704],[-84.71,29.0807],[-84.75,29.077],[-84.8,29.0613],[-84.86,29.0335],[-84.9231,29.0269],[-84.9892,29.0415],[-85.0318,29.0576],[-85.0507,29.0751],[-85.0612,29.0926],[-85.0632,29.11],[-85.0429,29.1362],[-85.0002,29.1712],[-84.9816,29.221],[-84.9872,29.2856],[-84.96,29.3289],[-84.9,29.3508],[-84.845,29.3509],[-84.795,29.3291],[-84.761,29.3338],[-84.7431,29.365],[-84.7354,29.3936],[-84.738,29.4197],[-84.752,29.4439],[-84.7773,29.4659],[-84.815,29.4814],[-84.865,29.4902],[-84.91,29.5051],[-84.95,29.526],[-84.985,29.5562],[-85.015,29.5958],[-85.07,29.6046],[-85.15,29.5827],[-85.215,29.5728],[-85.265,29.5751],[-85.2983,29.5839],[-85.3148,29.5992],[-85.3148,29.6179]]]}},{"type":"Feature","properties":{"c":"#fed976","v0":10.0,"v1":20.0},"geometry":{"type":"Polygon","coordinates":[[[-80.3185,27.5919],[-80.3,27.6716],[-80.2806,27.7231],[-80.2602,27.7465],[-80.235,27.7628],[-80.205,27.7722],[-80.165,27.7682],[-80.115,27.7509],[-80.0796,27.7478],[-80.0588,27.759],[-80.0359,27.7955],[-80.011,27.8575],[-80.0074,27.9193],[-80.0251,27.9812],[-80.0329,28.0293],[-80.031,28.0639],[-80.0207,28.0948],[-80.0021,28.122],[-79.9771,28.1341],[-79.9457,28.131],[-79.91,28.109],[-79.87,28.0681],[-79.839,28.0167],[-79.817,27.9547],[-79.807,27.902],[-79.809,27.8585],[-79.8232,27.8054],[-79.8495,27.7428],[-79.8695,27.7058],[-79.8832,27.6946],[-79.9201,27.6857],[-79.9802,27.6793],[-80.0231,27.6495],[-80.0486,27.5963],[-80.0817,27.5564],[-80.1223,27.5298],[-80.1795,27.5153],[-80.2532,27.5127],[-80.2994,27.5216],[-80.3183,27.5419],[-80.3185,27.5919]]]}},{"type":"Feature","properties":{"c":"#fed976","v0":10.0,"v1":20.0},"geometry":{"type":"Polygon","coordinates":[[[-94.7517,27.4387],[-94.7372,27.4605],[-94.715,27.4768],[-94.685,27.4876],[-94.61,27.4894],[-94.49,27.4821],[-94.405,27.4849],[-94.355,27.4976],[-94.29,27.505],[-94.21,27.5072],[-94.12,27.5086],[-94.02,27.5091],[-93.96,27.5041],[-93.94,27.4936],[-93.9262,27.4777],[-93.9187,27.4563],[-93.9182,27.4322],[-93.9249,27.4056],[-93.9387,27.3859],[-93.9596,27.3732],[-94.073,27.3599],[-94.2791,27.3459],[-94.398,27.3034],[-94.43,27.2323],[-94.467,27.1847],[-94.509,27.1607],[-94.54,27.1514],[-94.56,27.1569],[-94.5771,27.1689],[-94.5913,27.1875],[-94.5958,27.2323],[-94.5904,27.3034],[-94.6233,27.3503],[-94.6944,27.373],[-94.7372,27.3952],[-94.7517,27.4169],[-94.7517,27.4387]],[[-94.6941,27.4369],[-94.6514,27.4551],[-94.58,27.4599],[-94.48,27.4513],[-94.405,27.4526],[-94.355,27.4637],[-94.245,27.471],[-94.075,27.4744],[-93.9803,27.4685],[-93.961,27.4532],[-93.9542,27.4367],[-93.9599,27.4189],[-93.9742,27.4056],[-93.9969,27.3967],[-94.1087,27.3867],[-94.3096,27.3755],[-94.425,27.3331],[-94.455,27.2596],[-94.485,27.2128],[-94.515,27.1928],[-94.5386,27.1908],[-94.5558,27.2066],[-94.5581,27.2368],[-94.5455,27.2812],[-94.5433,27.3168],[-94.5513,27.3434],[-94.5953,27.3745],[-94.6755,27.41],[-94.6941,27.4369]]]}},{"type":"Feature","properties":{"c":"#fed976","v0":10.0,"v1":20.0},"geometry":{"type":"Polygon","coordinates":[[[-79.1732,25.5933],[-79.1663,25.6113],[-79.1446,25.634],[-79.1082,25.6611],[-79.025,25.6854],[-78.895,25.7068],[-78.8109,25.7113],[-78.7727,25.6987],[-78.7442,25.679],[-78.7253,25.6519],[-78.721,25.6204],[-78.7315,25.5843],[-78.7751,25.544],[-78.8517,25.4997],[-78.95,25.4876],[-79.07,25.508],[-79.1417,25.5347],[-79.165,25.5678],[-79.1732,25.5933]],[[-79.1215,25.6],[-79.0872,25.6313],[-79.03,25.6542],[-78.95,25.6684],[-78.885,25.6776],[-78.835,25.6818],[-78.795,25.6717],[-78.765,25.6475],[-78.7539,25.6226],[-78.7618,25.5971],[-78.7968,25.5657],[-78.8589,25.5285],[-78.945,25.5188],[-79.055,25.5365],[-79.1172,25.5551],[-79.1315,25.5746],[-79.1215,25.6]]]}},{"type":"Feature","properties":{"c":"#fed976","v0":10.0,"v1":20.0},"geometry":{"type":"Polygon","coordinates":[[[-97.3986,23.395],[-97.3129,23.4946],[-97.2491,23.545],[-97.2072,23.5463],[-97.1896,23.5654],[-97.1962,23.602],[-97.2196,23.6387],[-97.2597,23.6753],[-97.2555,23.7165],[-97.2069,23.7623],[-97.1798,23.8355],[-97.174,23.9361],[-97.1474,24.0366],[-97.1,24.137],[-97.0598,24.2012],[-97.0266,24.2292],[-96.9599,24.3249],[-96.8598,24.4882],[-96.7248,24.6274],[-96.5549,24.7426],[-96.45,24.8017],[-96.41,24.8047],[-96.355,24.8207],[-96.285,24.8494],[-96.2413,24.8539],[-96.2239,24.8341],[-96.2161,24.8151],[-96.2179,24.797],[-96.2315,24.7697],[-96.2567,24.7334],[-96.3022,24.7016],[-96.3679,24.6743],[-96.423,24.5998],[-96.4677,24.478],[-96.5313,24.3596],[-96.6138,24.2447],[-96.6538,24.1652],[-96.6513,24.1213],[-96.625,24.1066],[-96.575,24.1212],[-96.53,24.1675],[-96.49,24.2454],[-96.435,24.3147],[-96.365,24.3751],[-96.32,24.4024],[-96.3,24.3966],[-96.284,24.3831],[-96.2719,24.3619],[-96.2791,24.324],[-96.3055,24.2693],[-96.3115,24.2304],[-96.2972,24.2075],[-96.23,24.2109],[-96.11,24.2408],[-96.005,24.2877],[-95.915,24.3519],[-95.84,24.3772],[-95.78,24.3639],[-95.71,24.3648],[-95.63,24.3798],[-95.5718,24.3783],[-95.5355,24.3603],[-95.5243,24.3194],[-95.5382,24.2556],[-95.5713,24.2173],[-95.6238,24.2044],[-95.6588,24.1907],[-95.6763,24.1762],[-95.6594,24.1553],[-95.608,24.1279],[-95.5598,24.0777],[-95.5146,24.0046],[-95.4965,23.9579],[-95.5055,23.9374],[-95.54,23.9152],[-95.6,23.8911],[-95.635,23.8546],[-95.645,23.8055],[-95.67,23.7797],[-95.71,23.7772],[-95.7389,23.7966],[-95.7567,23.8378],[-95.7717,23.8603],[-95.7839,23.8642],[-95.845,23.8478],[-95.955,23.8111],[-96.035,23.7995],[-96.085,23.813],[-96.14,23.8159],[-96.2,23.808],[-96.265,23.8104],[-96.335,23.8233],[-96.41,23.8501],[-96.49,23.8907],[-96.5378,23.8979],[-96.5534,23.8715],[-96.5834,23.8595],[-96.6278,23.8618],[-96.6561,23.8572],[-96.6683,23.8458],[-96.6646,23.8126],[-96.645,23.7577],[-96.6538,23.7056],[-96.6913,23.6564],[-96.72,23.6312],[-96.74,23.6301],[-96.77,23.6422],[-96.81,23.6674],[-96.85,23.6628],[-96.89,23.6284],[-96.935,23.6146],[-96.985,23.6216],[-97.0173,23.6194],[-97.0318,23.6078],[-97.0405,23.5837],[-97.0435,23.547],[-97.0322,23.5103],[-97.0065,23.4737],[-96.9877,23.4226],[-96.9759,23.3571],[-96.98,23.3245],[-97.0,23.3249],[-97.0236,23.3347],[-97.0508,23.3539],[-97.0813,23.3957],[-97.1152,23.4599],[-97.1417,23.498],[-97.1606,23.51],[-97.1778,23.5054],[-97.1934,23.4842],[-97.2032,23.4553],[-97.2072,23.4186],[-97.2181,23.3911],[-97.236,23.3727],[-97.2813,23.3448],[-97.3538,23.3074],[-97.4029,23.3028],[-97.4286,23.331],[-97.3986,23.395]],[[-95.8912,24.1624],[-95.8637,24.1857],[-95.8251,24.1902],[-95.7754,24.176],[-95.7654,24.1563],[-95.7951,24.1308],[-95.825,24.1184],[-95.855,24.1188],[-95.8787,24.127],[-95.8962,24.1428],[-95.8912,24.1624]],[[-96.9632,23.98],[-96.9544,24.0038],[-96.94,24.0189],[-96.92,24.0253],[-96.8968,24.0133],[-96.8703,23.9832],[-96.8703,23.953],[-96.8968,23.9228],[-96.92,23.9109],[-96.94,23.9172],[-96.9544,23.9323],[-96.9632,23.9562],[-96.9632,23.98]]]}},{"type":"Feature","properties":{"c":"#fed976","v0":10.0,"v1":20.0},"geometry":{"type":"Polygon","coordinates":[[[-96.4186,23.5103],[-96.4102,23.547],[-96.387,23.5805],[-96.349,23.6107],[-96.305,23.6261],[-96.255,23.6269],[-96.205,23.6176],[-96.155,23.5983],[-96.095,23.5936],[-96.025,23.6034],[-95.9743,23.5976],[-95.9429,23.5761],[-95.9169,23.5149],[-95.8961,23.414],[-95.9017,23.352],[-95.9339,23.329],[-96.0,23.3195],[-96.1,23.3237],[-96.155,23.322],[-96.165,23.3144],[-96.165,23.3015],[-96.155,23.2833],[-96.135,23.2794],[-96.105,23.2899],[-96.08,23.2927],[-96.06,23.2878],[-96.0402,23.2681],[-96.0206,23.2337],[-96.0206,23.1931],[-96.0402,23.1463],[-96.065,23.1199],[-96.095,23.1139],[-96.1743,23.1511],[-96.3028,23.2315],[-96.3746,23.2855],[-96.3897,23.313],[-96.4036,23.3681],[-96.4164,23.4507],[-96.4186,23.5103]],[[-96.3981,23.5103],[-96.3877,23.547],[-96.3644,23.577],[-96.3281,23.6003],[-96.29,23.6111],[-96.25,23.6094],[-96.205,23.5986],[-96.155,23.5786],[-96.095,23.5738],[-96.025,23.5841],[-95.9777,23.5787],[-95.9532,23.5576],[-95.9313,23.5058],[-95.9122,23.4232],[-95.9145,23.3705],[-95.9382,23.3477],[-96.0,23.3387],[-96.1,23.3435],[-96.1593,23.3411],[-96.1779,23.3316],[-96.1829,23.3087],[-96.1743,23.2726],[-96.16,23.2517],[-96.14,23.2461],[-96.115,23.2483],[-96.085,23.2584],[-96.0609,23.2518],[-96.0428,23.2283],[-96.0405,23.1982],[-96.054,23.1614],[-96.0731,23.1403],[-96.0977,23.1348],[-96.17,23.1691],[-96.29,23.2432],[-96.3633,23.3332],[-96.3899,23.4391],[-96.3981,23.5103]]]}},{"type":"Feature","properties":{"c":"#feb24c","v0":20.0,"v1":30.0},"geometry":{"type":"Polygon","coordinates":[[[-114.1598,40.0283],[-114.0866,40.101],[-114.03,40.1358],[-113.99,40.1326],[-113.95,40.1391],[-113.91,40.1552],[-113.86,40.1655],[-113.8,40.1699],[-113.75,40.1806],[-113.71,40.1977],[-113.674,40.1985],[-113.642,40.1832],[-113.6282,40.1602],[-113.6326,40.1297],[-113.6572,40.0914],[-113.7019,40.0455],[-113.7334,40.0034],[-113.7517,39.9651],[-113.7731,39.9374],[-113.7977,39.9203],[-113.83,39.9122],[-113.87,39.913],[-113.93,39.9323],[-114.01,39.9699],[-114.075,39.9785],[-114.125,39.9579],[-114.1616,39.9587],[-114.1848,39.9808],[-114.1598,40.0283]],[[-114.1506,40.0258],[-114.0835,40.0935],[-114.025,40.127],[-113.975,40.1265],[-113.935,40.1333],[-113.905,40.1475],[-113.8628,40.156],[-113.8085,40.1588],[-113.7585,40.1696],[-113.7128,40.1884],[-113.6771,40.1922],[-113.6512,40.1811],[-113.6379,40.1641],[-113.6372,40.1411],[-113.6801,40.0775],[-113.7667,39.9731],[-113.83,39.9212],[-113.87,39.9221],[-113.93,39.9414],[-114.01,39.9792],[-114.075,39.9879],[-114.125,39.9678],[-114.1585,39.9662],[-114.1756,39.9833],[-114.1506,40.0258]]]}},{"type":"Feature","properties":{"c":"#feb24c","v0":20.0,"v1":30.0},"geometry":{"type":"Polygon","coordinates":[[[-86.0759,29.866],[-86.0586,29.898],[-86.02,29.9255],[-85.96,29.9487],[-85.92,29.96],[-85.9,29.9593],[-85.85,29.939],[-85.77,29.8992],[-85.665,29.9041],[-85.535,29.9537],[-85.45,29.9787],[-85.41,29.9792],[-85.3834,29.9731],[-85.3702,29.9604],[-85.3702,29.9271],[-85.3834,29.8732],[-85.435,29.8315],[-85.525,29.802],[-85.68,29.7828],[-85.9,29.774],[-86.0252,29.7766],[-86.0556,29.7909],[-86.0742,29.811],[-86.0811,29.837],[-86.0759,29.866]],[[-86.0608,29.863],[-86.0468,29.8891],[-86.0123,29.9127],[-85.9574,29.934],[-85.92,29.9441],[-85.9,29.9431],[-85.85,29.9224],[-85.77,29.8819],[-85.66,29.8881],[-85.52,29.9411],[-85.435,29.9654],[-85.405,29.9611],[-85.3879,29.9534],[-85.3838,29.9423],[-85.3888,29.9164],[-85.4029,29.8757],[-85.455,29.8414],[-85.545,29.8135],[-85.69,29.7951],[-85.89,29.7864],[-86.005,29.7868],[-86.035,29.7963],[-86.0545,29.8133],[-86.0634,29.8378],[-86.0608,29.863]]]}},{"type":"Feature","properties":{"c":"#feb24c","v0":20.0,"v1":30.0},"geometry":{"type":"Polygon","coordinates":[[[-94.6941,27.4369],[-94.6514,27.4551],[-94.58,27.4599],[-94.48,27.4513],[-94.405,27.4526],[-94.355,27.4637],[-94.245,27.471],[-94.075,27.4744],[-93.9803,27.4685],[-93.961,27.4532],[-93.9542,27.4367],[-93.9599,27.4189],[-93.9742,27.4056],[-93.9969,27.3967],[-94.1087,27.3867],[-94.3096,27.3755],[-94.425,27.3331],[-94.455,27.2596],[-94.485,27.2128],[-94.515,27.1928],[-94.5386,27.1908],[-94.5558,27.2066],[-94.5581,27.2368],[-94.5455,27.2812],[-94.5433,27.3168],[-94.5513,27.3434],[-94.5953,27.3745],[-94.6755,27.41],[-94.6941,27.4369]]]}},{"type":"Feature","properties":{"c":"#feb24c","v0":20.0,"v1":30.0},"geometry":{"type":"Polygon","coordinates":[[[-79.1215,25.6],[-79.0872,25.6313],[-79.03,25.6542],[-78.95,25.6684],[-78.885,25.6776],[-78.835,25.6818],[-78.795,25.6717],[-78.765,25.6475],[-78.7539,25.6226],[-78.7618,25.5971],[-78.7968,25.5657],[-78.8589,25.5285],[-78.945,25.5188],[-79.055,25.5365],[-79.1172,25.5551],[-79.1315,25.5746],[-79.1215,25.6]]]}},{"type":"Feature","properties":{"c":"#feb24c","v0":20.0,"v1":30.0},"geometry":{"type":"Polygon","coordinates":[[[-96.3981,23.5103],[-96.3877,23.547],[-96.3644,23.577],[-96.3281,23.6003],[-96.29,23.6111],[-96.25,23.6094],[-96.205,23.5986],[-96.155,23.5786],[-96.095,23.5738],[-96.025,23.5841],[-95.9777,23.5787],[-95.9532,23.5576],[-95.9313,23.5058],[-95.9122,23.4232],[-95.9145,23.3705],[-95.9382,23.3477],[-96.0,23.3387],[-96.1,23.3435],[-96.1593,23.3411],[-96.1779,23.3316],[-96.1829,23.3087],[-96.1743,23.2726],[-96.16,23.2517],[-96.14,23.2461],[-96.115,23.2483],[-96.085,23.2584],[-96.0609,23.2518],[-96.0428,23.2283],[-96.0405,23.1982],[-96.054,23.1614],[-96.0731,23.1403],[-96.0977,23.1348],[-96.17,23.1691],[-96.29,23.2432],[-96.3633,23.3332],[-96.3899,23.4391],[-96.3981,23.5103]],[[-96.3817,23.5073],[-96.3739,23.538],[-96.355,23.5637],[-96.325,23.5845],[-96.29,23.594],[-96.25,23.5922],[-96.205,23.5813],[-96.155,23.561],[-96.1,23.5573],[-96.04,23.5699],[-95.9978,23.5689],[-95.9734,23.5543],[-95.9515,23.5058],[-95.9321,23.4232],[-95.9293,23.375],[-95.9431,23.3612],[-96.01,23.3538],[-96.13,23.3528],[-96.195,23.3225],[-96.205,23.2629],[-96.235,23.2417],[-96.285,23.259],[-96.3198,23.2779],[-96.3394,23.2983],[-96.3583,23.3543],[-96.3764,23.4461],[-96.3817,23.5073]],[[-96.1268,23.2056],[-96.0889,23.2205],[-96.066,23.2205],[-96.058,23.2056],[-96.063,23.1861],[-96.081,23.1618],[-96.0995,23.1526],[-96.1185,23.1585],[-96.1325,23.1706],[-96.1413,23.189],[-96.1268,23.2056]]]}},{"type":"Feature","properties":{"c":"#fd8d3c","v0":30.0,"v1":40.0},"geometry":{"type":"Polygon","coordinates":[[[-114.1506,40.0258],[-114.0835,40.0935],[-114.025,40.127],[-113.975,40.1265],[-113.935,40.1333],[-113.905,40.1475],[-113.8628,40.156],[-113.8085,40.1588],[-113.7585,40.1696],[-113.7128,40.1884],[-113.6771,40.1922],[-113.6512,40.1811],[-113.6379,40.1641],[-113.6372,40.1411],[-113.6801,40.0775],[-113.7667,39.9731],[-113.83,39.9212],[-113.87,39.9221],[-113.93,39.9414],[-114.01,39.9792],[-114.075,39.9879],[-114.125,39.9678],[-114.1585,39.9662],[-114.1756,39.9833],[-114.1506,40.0258]],[[-114.1424,40.0236],[-114.0808,40.087],[-114.025,40.1186],[-113.975,40.1183],[-113.885,40.136],[-113.755,40.1716],[-113.6799,40.1859],[-113.6597,40.179],[-113.6489,40.1641],[-113.6476,40.1411],[-113.6877,40.0795],[-113.7692,39.9792],[-113.825,39.9278],[-113.855,39.9256],[-113.915,39.9449],[-114.005,39.9859],[-114.075,39.9968],[-114.125,39.9777],[-114.1558,39.9741],[-114.1674,39.986],[-114.1424,40.0236]]]}},{"type":"Feature","properties":{"c":"#fd8d3c","v0":30.0,"v1":40.0},"geometry":{"type":"Polygon","coordinates":[[[-86.0608,29.863],[-86.0468,29.8891],[-86.0123,29.9127],[-85.9574,29.934],[-85.92,29.9441],[-85.9,29.9431],[-85.85,29.9224],[-85.77,29.8819],[-85.66,29.8881],[-85.52,29.9411],[-85.435,29.9654],[-85.405,29.9611],[-85.3879,29.9534],[-85.3838,29.9423],[-85.3888,29.9164],[-85.4029,29.8757],[-85.455,29.8414],[-85.545,29.8135],[-85.69,29.7951],[-85.89,29.7864],[-86.005,29.7868],[-86.035,29.7963],[-86.0545,29.8133],[-86.0634,29.8378],[-86.0608,29.863]],[[-86.0371,29.8617],[-86.019,29.885],[-85.985,29.9041],[-85.935,29.919],[-85.87,29.9044],[-85.79,29.8601],[-85.74,29.8376],[-85.72,29.8367],[-85.65,29.8629],[-85.53,29.9161],[-85.4543,29.9412],[-85.4228,29.9382],[-85.4128,29.9201],[-85.4243,29.8868],[-85.47,29.8571],[-85.55,29.831],[-85.625,29.8211],[-85.695,29.8275],[-85.765,29.8231],[-85.835,29.8079],[-85.9,29.8003],[-85.96,29.8003],[-86.0011,29.8041],[-86.0232,29.8116],[-86.0373,29.824],[-86.0432,29.8414],[-86.0371,29.8617]]]}},{"type":"Feature","properties":{"c":"#fd8d3c","v0":30.0,"v1":40.0},"geometry":{"type":"Polygon","coordinates":[[[-96.3817,23.5073],[-96.3739,23.538],[-96.355,23.5637],[-96.325,23.5845],[-96.29,23.594],[-96.25,23.5922],[-96.205,23.5813],[-96.155,23.561],[-96.1,23.5573],[-96.04,23.5699],[-95.9978,23.5689],[-95.9734,23.5543],[-95.9515,23.5058],[-95.9321,23.4232],[-95.9293,23.375],[-95.9431,23.3612],[-96.01,23.3538],[-96.13,23.3528],[-96.195,23.3225],[-96.205,23.2629],[-96.235,23.2417],[-96.285,23.259],[-96.3198,23.2779],[-96.3394,23.2983],[-96.3583,23.3543],[-96.3764,23.4461],[-96.3817,23.5073]],[[-96.3565,23.5058],[-96.3485,23.5333],[-96.3309,23.5539],[-96.3036,23.5677],[-96.25,23.563],[-96.17,23.5396],[-96.1,23.534],[-96.04,23.5462],[-96.003,23.5464],[-95.9889,23.5346],[-95.9739,23.4957],[-95.958,23.4297],[-95.955,23.3918],[-95.965,23.3821],[-96.025,23.3779],[-96.135,23.3792],[-96.1995,23.3712],[-96.2185,23.3538],[-96.2313,23.3314],[-96.238,23.3038],[-96.2485,23.2873],[-96.2628,23.2819],[-96.2855,23.2911],[-96.3164,23.3149],[-96.339,23.3681],[-96.3533,23.4507],[-96.3565,23.5058]]]}},{"type":"Feature","properties":{"c":"#fd8d3c","v0":30.0,"v1":40.0},"geometry":{"type":"Polygon","coordinates":[[[-96.1268,23.2056],[-96.0889,23.2205],[-96.066,23.2205],[-96.058,23.2056],[-96.063,23.1861],[-96.081,23.1618],[-96.0995,23.1526],[-96.1185,23.1585],[-96.1325,23.1706],[-96.1413,23.189],[-96.1268,23.2056]]]}},{"type":"Feature","properties":{"c":"#fc4e2a","v0":40.0,"v1":50.0},"geometry":{"type":"Polygon","coordinates":[[[-114.1424,40.0236],[-114.0808,40.087],[-114.025,40.1186],[-113.975,40.1183],[-113.885,40.136],[-113.755,40.1716],[-113.6799,40.1859],[-113.6597,40.179],[-113.6489,40.1641],[-113.6476,40.1411],[-113.6877,40.0795],[-113.7692,39.9792],[-113.825,39.9278],[-113.855,39.9256],[-113.915,39.9449],[-114.005,39.9859],[-114.075,39.9968],[-114.125,39.9777],[-114.1558,39.9741],[-114.1674,39.986],[-114.1424,40.0236]],[[-114.1315,40.0213],[-114.0772,40.0802],[-114.025,40.1098],[-113.975,40.1102],[-113.885,40.1281],[-113.755,40.1635],[-113.6805,40.176],[-113.6616,40.1655],[-113.6849,40.1105],[-113.7503,40.011],[-113.7948,39.9536],[-113.8183,39.9383],[-113.84,39.931],[-113.86,39.9316],[-113.915,39.9526],[-114.005,39.9939],[-114.07,40.0069],[-114.11,39.9918],[-114.1372,39.9862],[-114.1515,39.99],[-114.1315,40.0213]]]}},{"type":"Feature","properties":{"c":"#fc4e2a","v0":40.0,"v1":50.0},"geometry":{"type":"Polygon","coordinates":[[[-86.0371,29.8617],[-86.019,29.885],[-85.985,29.9041],[-85.935,29.919],[-85.87,29.9044],[-85.79,29.8601],[-85.74,29.8376],[-85.72,29.8367],[-85.65,29.8629],[-85.53,29.9161],[-85.4543,29.9412],[-85.4228,29.9382],[-85.4128,29.9201],[-85.4243,29.8868],[-85.47,29.8571],[-85.55,29.831],[-85.625,29.8211],[-85.695,29.8275],[-85.765,29.8231],[-85.835,29.8079],[-85.9,29.8003],[-85.96,29.8003],[-86.0011,29.8041],[-86.0232,29.8116],[-86.0373,29.824],[-86.0432,29.8414],[-86.0371,29.8617]]]}},{"type":"Feature","properties":{"c":"#fc4e2a","v0":40.0,"v1":50.0},"geometry":{"type":"Polygon","coordinates":[[[-96.3565,23.5058],[-96.3485,23.5333],[-96.3309,23.5539],[-96.3036,23.5677],[-96.25,23.563],[-96.17,23.5396],[-96.1,23.534],[-96.04,23.5462],[-96.003,23.5464],[-95.9889,23.5346],[-95.9739,23.4957],[-95.958,23.4297],[-95.955,23.3918],[-95.965,23.3821],[-96.025,23.3779],[-96.135,23.3792],[-96.1995,23.3712],[-96.2185,23.3538],[-96.2313,23.3314],[-96.238,23.3038],[-96.2485,23.2873],[-96.2628,23.2819],[-96.2855,23.2911],[-96.3164,23.3149],[-96.339,23.3681],[-96.3533,23.4507],[-96.3565,23.5058]]]}},{"type":"Feature","properties":{"c":"#e31a1c","v0":50.0,"v1":60.0},"geometry":{"type":"Polygon","coordinates":[[[-114.1315,40.0213],[-114.0772,40.0802],[-114.025,40.1098],[-113.975,40.1102],[-113.885,40.1281],[-113.755,40.1635],[-113.6805,40.176],[-113.6616,40.1655],[-113.6849,40.1105],[-113.7503,40.011],[-113.7948,39.9536],[-113.8183,39.9383],[-113.84,39.931],[-113.86,39.9316],[-113.915,39.9526],[-114.005,39.9939],[-114.07,40.0069],[-114.11,39.9918],[-114.1372,39.9862],[-114.1515,39.99],[-114.1315,40.0213]],[[-114.0822,40.0551],[-114.0474,40.0895],[-114.01,40.1057],[-113.97,40.1036],[-113.935,40.1096],[-113.905,40.1238],[-113.865,40.1322],[-113.815,40.1347],[-113.765,40.145],[-113.715,40.1631],[-113.6836,40.1691],[-113.6707,40.1632],[-113.6957,40.1119],[-113.7586,40.0152],[-113.8,39.9598],[-113.82,39.9459],[-113.84,39.9393],[-113.86,39.9399],[-113.9274,39.9647],[-114.0422,40.0135],[-114.0822,40.0551]]]}},{"type":"Feature","properties":{"c":"#bd0026","v0":60.0,"v1":75.0},"geometry":{"type":"Polygon","coordinates":[[[-114.0822,40.0551],[-114.0474,40.0895],[-114.01,40.1057],[-113.97,40.1036],[-113.935,40.1096],[-113.905,40.1238],[-113.865,40.1322],[-113.815,40.1347],[-113.765,40.145],[-113.715,40.1631],[-113.6836,40.1691],[-113.6707,40.1632],[-113.6957,40.1119],[-113.7586,40.0152],[-113.8,39.9598],[-113.82,39.9459],[-113.84,39.9393],[-113.86,39.9399],[-113.9274,39.9647],[-114.0422,40.0135],[-114.0822,40.0551]],[[-114.0543,40.0622],[-114.0381,40.0804],[-114.01,40.0889],[-113.97,40.0878],[-113.93,40.0953],[-113.89,40.1115],[-113.8244,40.1259],[-113.7332,40.1386],[-113.7232,40.0976],[-113.7944,40.0027],[-113.84,39.9556],[-113.86,39.9563],[-113.9181,39.9808],[-114.0143,40.029],[-114.0543,40.0622]]]}},{"type":"Feature","properties":{"c":"#800026","v0":75.0,"v1":90.0},"geometry":{"type":"Polygon","coordinates":[[[-114.0543,40.0622],[-114.0381,40.0804],[-114.01,40.0889],[-113.97,40.0878],[-113.93,40.0953],[-113.89,40.1115],[-113.8244,40.1259],[-113.7332,40.1386],[-113.7232,40.0976],[-113.7944,40.0027],[-113.84,39.9556],[-113.86,39.9563],[-113.9181,39.9808],[-114.0143,40.029],[-114.0543,40.0622]]]}}]}