{"type":"FeatureCollection","features":[{"type":"Feature","properties":{"c":"#ffffb2","v0":5.0,"v1":10.0},"geometry":{"type":"Polygon","coordinates":[[[-92.8016,40.3535],[-92.7939,40.3736],[-92.739,40.4307],[-92.637,40.5248],[-92.552,40.5842],[-92.484,40.6092],[-92.395,40.6518],[-92.285,40.7121],[-92.2088,40.7716],[-92.1663,40.8304],[-92.1313,40.8957],[-92.1038,40.9675],[-92.055,41.0059],[-91.985,41.011],[-91.905,41.0268],[-91.815,41.0533],[-91.7334,41.0903],[-91.6601,41.1379],[-91.6177,41.2181],[-91.6062,41.3308],[-91.6516,41.4171],[-91.7541,41.4771],[-91.8058,41.522],[-91.8066,41.552],[-91.7978,41.5844],[-91.7793,41.6193],[-91.75,41.6417],[-91.71,41.6515],[-91.655,41.6535],[-91.585,41.6478],[-91.53,41.6507],[-91.49,41.662],[-91.46,41.666],[-91.44,41.6627],[-91.4208,41.6487],[-91.4023,41.6241],[-91.3908,41.5931],[-91.3863,41.5557],[-91.3967,41.5183],[-91.422,41.4808],[-91.4235,41.4566],[-91.4012,41.4455],[-91.3817,41.4455],[-91.3652,41.4566],[-91.3528,41.4808],[-91.3444,41.5183],[-91.3277,41.5442],[-91.3026,41.5585],[-91.2718,41.566],[-91.2353,41.5666],[-91.1953,41.5493],[-91.1518,41.5141],[-91.12,41.4944],[-91.1,41.4904],[-91.075,41.5056],[-91.045,41.5401],[-91.0,41.566],[-90.94,41.5835],[-90.88,41.617],[-90.82,41.6665],[-90.765,41.6932],[-90.715,41.6971],[-90.6735,41.6922],[-90.6404,41.6785],[-90.6205,41.6529],[-90.6137,41.6155],[-90.6195,41.5744],[-90.6378,41.5295],[-90.6957,41.4696],[-90.7933,41.3946],[-90.8408,41.3308],[-90.8383,41.2782],[-90.8553,41.2381],[-90.8918,41.2105],[-90.9217,41.1954],[-90.9452,41.193],[-90.9752,41.2115],[-91.0117,41.2511],[-91.06,41.2796],[-91.12,41.2973],[-91.19,41.2972],[-91.27,41.2795],[-91.33,41.2708],[-91.37,41.2713],[-91.3972,41.2666],[-91.4117,41.2568],[-91.4118,41.2218],[-91.3975,41.1616],[-91.3928,41.1164],[-91.3976,41.0863],[-91.4125,41.0678],[-91.4375,41.061],[-91.47,41.0638],[-91.51,41.0765],[-91.5387,41.0761],[-91.5561,41.0628],[-91.5612,41.0222],[-91.5541,40.9542],[-91.5593,40.9013],[-91.5768,40.8635],[-91.5867,40.8141],[-91.5889,40.7531],[-91.6053,40.7039],[-91.6359,40.6664],[-91.6568,40.6059],[-91.668,40.5223],[-91.6901,40.4615],[-91.7232,40.4234],[-91.7249,40.3891],[-91.6954,40.3587],[-91.6879,40.323],[-91.7026,40.2822],[-91.72,40.2575],[-91.74,40.2491],[-91.7593,40.2467],[-91.7779,40.2502],[-91.8106,40.2748],[-91.8575,40.3206],[-91.9133,40.3587],[-91.978,40.3891],[-92.0079,40.4234],[-92.0031,40.4615],[-91.9515,40.5223],[-91.8532,40.6059],[-91.8105,40.6612],[-91.8235,40.6884],[-91.85,40.706],[-91.89,40.714],[-91.925,40.7163],[-91.955,40.7127],[-91.9809,40.7027],[-92.0028,40.6862],[-92.0157,40.6514],[-92.0198,40.5983],[-92.0317,40.5603],[-92.0517,40.5375],[-92.1487,40.4956],[-92.3229,40.4346],[-92.4108,40.3737],[-92.4124,40.3128],[-92.4274,40.2656],[-92.4558,40.232],[-92.5,40.2114],[-92.56,40.2036],[-92.6095,40.2052],[-92.6484,40.216],[-92.7023,40.2519],[-92.7711,40.3129],[-92.8016,40.3535]]]}},{"type":"Feature","properties":{"c":"#ffffb2","v0":5.0,"v1":10.0},"geometry":{"type":"Polygon","coordinates":[[[-97.8012,38.6809],[-97.7989,38.7199],[-97.7908,38.747],[-97.7769,38.7623],[-97.71,38.7681],[-97.59,38.7644],[-97.4817,38.7918],[-97.385,38.8504],[-97.3207,38.8952],[-97.2887,38.9264],[-97.2658,38.9575],[-97.252,38.9886],[-97.2455,39.0197],[-97.2462,39.0507],[-97.2588,39.0857],[-97.2831,39.1245],[-97.3239,39.1498],[-97.3813,39.1618],[-97.4173,39.1734],[-97.4318,39.1847],[-97.4369,39.2098],[-97.4327,39.2485],[-97.4462,39.2834],[-97.4774,39.3143],[-97.5094,39.3762],[-97.5423,39.4689],[-97.555,39.5306],[-97.5476,39.5615],[-97.5104,39.592],[-97.4435,39.6223],[-97.3969,39.6339],[-97.3706,39.6267],[-97.353,39.6116],[-97.3441,39.5884],[-97.3434,39.5538],[-97.351,39.5075],[-97.3457,39.4573],[-97.3277,39.4032],[-97.3208,39.3375],[-97.3251,39.2601],[-97.2873,39.1981],[-97.2075,39.1516],[-97.1573,39.109],[-97.1366,39.0702],[-97.1172,39.0456],[-97.0991,39.0354],[-97.08,39.034],[-97.06,39.0413],[-97.0458,39.0542],[-97.0374,39.0726],[-97.0546,39.1361],[-97.0974,39.2446],[-97.112,39.3182],[-97.0986,39.3569],[-97.0714,39.3951],[-97.0305,39.4329],[-97.0,39.455],[-96.98,39.4613],[-96.96,39.4608],[-96.94,39.4536],[-96.92,39.4381],[-96.9,39.4144],[-96.865,39.3952],[-96.815,39.3805],[-96.7829,39.3623],[-96.7686,39.3406],[-96.7628,39.3182],[-96.7653,39.295],[-96.7925,39.2663],[-96.8442,39.2323],[-96.8726,39.2051],[-96.8779,39.185],[-96.8703,39.1594],[-96.8499,39.1284],[-96.8391,39.0934],[-96.8379,39.0546],[-96.8137,39.0236],[-96.7665,39.0002],[-96.7144,38.9497],[-96.6575,38.8719],[-96.6143,38.785],[-96.5848,38.6891],[-96.5779,38.6383],[-96.5937,38.6328],[-96.6237,38.6388],[-96.6679,38.6562],[-96.715,38.6663],[-96.765,38.6694],[-96.8398,38.6919],[-96.9395,38.734],[-97.0119,38.7901],[-97.0568,38.8602],[-97.0869,38.8978],[-97.1023,38.9029],[-97.1262,38.864],[-97.1587,38.781],[-97.1728,38.7043],[-97.1686,38.634],[-97.1795,38.5832],[-97.2053,38.5519],[-97.2362,38.5261],[-97.2721,38.5059],[-97.41,38.4811],[-97.65,38.4517],[-97.7775,38.4462],[-97.7925,38.4645],[-97.8006,38.5206],[-97.8018,38.6145],[-97.8012,38.6809]]]}},{"type":"Feature","properties":{"c":"#ffffb2","v0":5.0,"v1":10.0},"geometry":{"type":"Polygon","coordinates":[[[-97.4019,38.2502],[-97.3912,38.3365],[-97.3719,38.3972],[-97.344,38.4321],[-97.32,38.4513],[-97.3,38.4547],[-97.265,38.4453],[-97.215,38.423],[-97.16,38.4151],[-97.1,38.4214],[-97.05,38.4201],[-97.01,38.4113],[-96.9703,38.3844],[-96.9308,38.3394],[-96.8918,38.3051],[-96.8534,38.2816],[-96.825,38.2463],[-96.8064,38.1991],[-96.8054,38.1659],[-96.8218,38.1467],[-96.85,38.1343],[-96.89,38.1287],[-96.94,38.1408],[-97.0,38.1707],[-97.055,38.1618],[-97.105,38.114],[-97.15,38.0853],[-97.19,38.0757],[-97.25,38.0881],[-97.33,38.1224],[-97.3793,38.1564],[-97.3979,38.1901],[-97.4019,38.2502]],[[-97.3862,38.2463],[-97.3783,38.3248],[-97.3632,38.3797],[-97.3411,38.411],[-97.32,38.4298],[-97.3,38.4362],[-97.265,38.4292],[-97.215,38.4089],[-97.16,38.4019],[-97.1,38.4081],[-97.05,38.4059],[-97.01,38.3953],[-96.975,38.3706],[-96.945,38.3318],[-96.91,38.3003],[-96.87,38.2761],[-96.8415,38.2419],[-96.8246,38.1977],[-96.8246,38.1682],[-96.8415,38.1534],[-96.865,38.1445],[-96.895,38.1415],[-96.94,38.1553],[-97.0,38.186],[-97.055,38.178],[-97.105,38.1312],[-97.15,38.1021],[-97.19,38.0908],[-97.25,38.1037],[-97.33,38.1405],[-97.375,38.1709],[-97.3851,38.195],[-97.3862,38.2463]]]}},{"type":"Feature","properties":{"c":"#ffffb2","v0":5.0,"v1":10.0},"geometry":{"type":"Polygon","coordinates":[[[-99.6932,37.8091],[-99.6795,37.8643],[-99.652,37.9016],[-99.6107,37.9209],[-99.575,37.9287],[-99.545,37.9251],[-99.505,37.9076],[-99.455,37.8763],[-99.41,37.8561],[-99.37,37.8473],[-99.343,37.8315],[-99.329,37.8086],[-99.329,37.7858],[-99.343,37.763],[-99.375,37.7482],[-99.425,37.7414],[-99.495,37.7206],[-99.585,37.686],[-99.6449,37.677],[-99.6747,37.6939],[-99.6922,37.7221],[-99.6974,37.7616],[-99.6932,37.8091]]]}},{"type":"Feature","properties":{"c":"#ffffb2","v0":5.0,"v1":10.0},"geometry":{"type":"Polygon","coordinates":[[[-98.1527,37.4765],[-98.1472,37.5003],[-98.1358,37.519],[-98.1186,37.5326],[-98.06,37.5528],[-97.96,37.5795],[-97.895,37.5899],[-97.865,37.584],[-97.8415,37.5678],[-97.8246,37.5413],[-97.8295,37.4884],[-97.8562,37.409],[-97.8797,37.3621],[-97.8999,37.3479],[-97.955,37.345],[-98.045,37.3535],[-98.1022,37.3685],[-98.1267,37.3902],[-98.1431,37.4169],[-98.1513,37.4487],[-98.1527,37.4765]]]}},{"type":"Feature","properties":{"c":"#ffffb2","v0":5.0,"v1":10.0},"geometry":{"type":"Polygon","coordinates":[[[-97.8202,37.2988],[-97.8134,37.3169],[-97.8,37.3277],[-97.78,37.3314],[-97.7583,37.3264],[-97.7349,37.3125],[-97.7198,37.2937],[-97.7129,37.2698],[-97.7146,37.2518],[-97.7249,37.2397],[-97.74,37.2331],[-97.76,37.2321],[-97.7834,37.2461],[-97.8102,37.2752],[-97.8202,37.2988]]]}},{"type":"Feature","properties":{"c":"#ffffb2","v0":5.0,"v1":10.0},"geometry":{"type":"Polygon","coordinates":[[[-100.6935,36.5381],[-100.6865,36.5702],[-100.6597,36.6136],[-100.6132,36.6682],[-100.5194,36.7323],[-100.3781,36.806],[-100.3143,36.8708],[-100.328,36.9268],[-100.3236,36.9691],[-100.3012,36.9978],[-100.2635,37.0098],[-100.2106,37.0051],[-100.1564,36.9668],[-100.1011,36.8948],[-100.0449,36.8468],[-99.9878,36.8228],[-99.9591,36.7948],[-99.9588,36.7628],[-99.9678,36.7307],[-99.9861,36.6986],[-100.0239,36.6789],[-100.0813,36.6715],[-100.135,36.6489],[-100.185,36.6109],[-100.238,36.5865],[-100.2941,36.5757],[-100.3354,36.5501],[-100.362,36.51],[-100.3774,36.4617],[-100.3817,36.4054],[-100.4054,36.3592],[-100.4485,36.3232],[-100.485,36.3024],[-100.515,36.297],[-100.5415,36.2989],[-100.5645,36.3082],[-100.5971,36.341],[-100.6391,36.3973],[-100.6693,36.4497],[-100.6878,36.4979],[-100.6935,36.5381]],[[-100.6811,36.5341],[-100.6777,36.5582],[-100.6533,36.5983],[-100.6081,36.6545],[-100.5109,36.7227],[-100.3616,36.8028],[-100.2954,36.8708],[-100.3123,36.9268],[-100.3081,36.9676],[-100.2827,36.9933],[-100.25,37.0028],[-100.21,36.9959],[-100.165,36.9582],[-100.115,36.8898],[-100.0618,36.8444],[-100.0055,36.822],[-99.9775,36.7908],[-99.9779,36.7507],[-99.986,36.7199],[-100.002,36.6984],[-100.035,36.6873],[-100.085,36.6865],[-100.135,36.666],[-100.185,36.6257],[-100.24,36.6001],[-100.3,36.5891],[-100.3453,36.5602],[-100.3759,36.5133],[-100.3934,36.4617],[-100.3977,36.4054],[-100.4224,36.3605],[-100.4675,36.3271],[-100.5,36.3092],[-100.52,36.307],[-100.5405,36.3116],[-100.5614,36.3231],[-100.5899,36.3531],[-100.6261,36.4014],[-100.6539,36.4497],[-100.6732,36.4979],[-100.6811,36.5341]]]}},{"type":"Feature","properties":{"c":"#ffffb2","v0":5.0,"v1":10.0},"geometry":{"type":"Polygon","coordinates":[[[-107.2287,36.4235],[-107.2162,36.4517],[-107.1723,36.4718],[-107.097,36.4839],[-107.056,36.526],[-107.0492,36.5983],[-107.0318,36.643],[-107.0039,36.6601],[-106.9767,36.6681],[-106.95,36.6671],[-106.9172,36.6505],[-106.8783,36.6184],[-106.8633,36.5783],[-106.8721,36.5301],[-106.873,36.4979],[-106.8658,36.4818],[-106.8141,36.4711],[-106.718,36.4657],[-106.6334,36.4497],[-106.5603,36.4228],[-106.4653,36.3565],[-106.3484,36.2505],[-106.24,36.1767],[-106.14,36.1351],[-106.0817,36.0993],[-106.065,36.0694],[-106.0617,36.0343],[-106.0719,35.9938],[-106.0902,35.9662],[-106.1167,35.9513],[-106.145,35.9453],[-106.175,35.9479],[-106.1983,35.9675],[-106.215,36.0039],[-106.24,36.0397],[-106.2733,36.0747],[-106.31,36.0926],[-106.35,36.0932],[-106.39,36.1133],[-106.43,36.1528],[-106.48,36.1715],[-106.54,36.1692],[-106.59,36.1766],[-106.63,36.1936],[-106.67,36.195],[-106.71,36.1807],[-106.76,36.1741],[-106.82,36.175],[-106.875,36.143],[-106.925,36.0779],[-106.99,36.0461],[-107.07,36.0474],[-107.1322,36.086],[-107.1767,36.1619],[-107.1937,36.216],[-107.1833,36.2483],[-107.1561,36.2813],[-107.112,36.3151],[-107.095,36.3375],[-107.105,36.3485],[-107.135,36.3579],[-107.185,36.3658],[-107.2162,36.3796],[-107.2287,36.3995],[-107.2287,36.4235]]]}},{"type":"Feature","properties":{"c":"#ffffb2","v0":5.0,"v1":10.0},"geometry":{"type":"Polygon","coordinates":[[[-108.2529,35.7101],[-108.2468,35.7345],[-108.2353,35.7535],[-108.2184,35.7672],[-108.1688,35.7834],[-108.0865,35.8022],[-108.0464,35.8318],[-108.0483,35.8723],[-108.0759,35.9331],[-108.129,36.014],[-108.1492,36.0706],[-108.1364,36.1028],[-108.0971,36.119],[-108.0313,36.1191],[-107.9463,36.1448],[-107.8421,36.196],[-107.755,36.2199],[-107.685,36.2164],[-107.58,36.2277],[-107.44,36.2536],[-107.3534,36.258],[-107.3201,36.2408],[-107.3014,36.212],[-107.2973,36.1716],[-107.325,36.0989],[-107.3845,35.9938],[-107.4382,35.9235],[-107.4861,35.8881],[-107.5291,35.8476],[-107.5672,35.8019],[-107.6304,35.7466],[-107.7188,35.6817],[-107.7847,35.6193],[-107.8282,35.5594],[-107.88,35.5173],[-107.94,35.493],[-108.0,35.4842],[-108.06,35.4911],[-108.1043,35.521],[-108.133,35.5739],[-108.1674,35.6126],[-108.2077,35.637],[-108.2349,35.6614],[-108.249,35.6857],[-108.2529,35.7101]],[[-108.234,35.7134],[-108.218,35.7444],[-108.17,35.7678],[-108.09,35.7837],[-108.0445,35.7966],[-108.0334,35.8066],[-108.0284,35.8288],[-108.0295,35.8633],[-108.0578,35.9241],[-108.1134,36.011],[-108.1334,36.0691],[-108.1178,36.0983],[-108.085,36.1106],[-108.035,36.1059],[-107.98,36.1145],[-107.92,36.1364],[-107.865,36.1631],[-107.815,36.1946],[-107.76,36.2081],[-107.7,36.2038],[-107.595,36.2151],[-107.445,36.242],[-107.3576,36.2497],[-107.3329,36.238],[-107.3161,36.216],[-107.3071,36.1837],[-107.3314,36.1151],[-107.3889,36.01],[-107.4644,35.9129],[-107.5579,35.8237],[-107.646,35.7493],[-107.7287,35.6896],[-107.79,35.6307],[-107.83,35.5725],[-107.875,35.5315],[-107.925,35.5079],[-107.98,35.4966],[-108.04,35.4978],[-108.0802,35.5077],[-108.1005,35.5261],[-108.1157,35.5516],[-108.1257,35.5841],[-108.1547,35.6167],[-108.2027,35.6492],[-108.2305,35.6736],[-108.2382,35.6898],[-108.234,35.7134]]]}},{"type":"Feature","properties":{"c":"#ffffb2","v0":5.0,"v1":10.0},"geometry":{"type":"Polygon","coordinates":[[[-79.6342,29.6158],[-79.6047,29.6684],[-79.55,29.7013],[-79.47,29.7146],[-79.4251,29.7404],[-79.4152,29.7788],[-79.4002,29.807],[-79.3801,29.8251],[-79.33,29.8483],[-79.25,29.8764],[-79.1911,29.8761],[-79.1533,29.8471],[-79.132,29.8153],[-79.1273,29.7806],[-79.1918,29.7025],[-79.3254,29.5808],[-79.4036,29.4894],[-79.4263,29.4285],[-79.4508,29.3856],[-79.4769,29.3609],[-79.5,29.348],[-79.52,29.3471],[-79.5413,29.3551],[-79.5639,29.3721],[-79.5936,29.4328],[-79.6305,29.5373],[-79.6342,29.6158]],[[-79.6123,29.6126],[-79.5841,29.6588],[-79.5348,29.6849],[-79.4645,29.6908],[-79.4129,29.7242],[-79.3801,29.785],[-79.3303,29.8284],[-79.2634,29.8544],[-79.2124,29.8588],[-79.1773,29.8414],[-79.158,29.8153],[-79.1546,29.7806],[-79.2196,29.7025],[-79.3531,29.5808],[-79.4279,29.4938],[-79.4442,29.4415],[-79.4617,29.4046],[-79.4806,29.3831],[-79.5,29.3715],[-79.52,29.3696],[-79.5378,29.376],[-79.5533,29.3907],[-79.5774,29.4459],[-79.61,29.5416],[-79.6123,29.6126]]]}},{"type":"Feature","properties":{"c":"#ffffb2","v0":5.0,"v1":10.0},"geometry":{"type":"Polygon","coordinates":[[[-96.6465,29.1057],[-96.6318,29.1493],[-96.6059,29.1814],[-96.5686,29.202],[-96.53,29.2123],[-96.49,29.2123],[-96.4469,29.1976],[-96.4008,29.1683],[-96.3646,29.1362],[-96.3384,29.1013],[-96.3233,29.0663],[-96.3195,29.0314],[-96.3239,28.9701],[-96.3366,28.8826],[-96.3547,28.8225],[-96.3782,28.7899],[-96.41,28.7711],[-96.45,28.7659],[-96.4864,28.7735],[-96.5192,28.7937],[-96.5564,28.8432],[-96.5981,28.922],[-96.6277,28.992],[-96.6451,29.0532],[-96.6465,29.1057]],[[-96.6334,29.1048],[-96.6178,29.1467],[-96.595,29.1758],[-96.565,29.1923],[-96.53,29.2005],[-96.49,29.2005],[-96.451,29.1888],[-96.413,29.1654],[-96.3803,29.1362],[-96.3528,29.1013],[-96.3371,29.0707],[-96.3333,29.0445],[-96.3377,28.9833],[-96.3502,28.887],[-96.3659,28.8257],[-96.3849,28.7994],[-96.4133,28.7835],[-96.4511,28.778],[-96.4859,28.7868],[-96.5177,28.8098],[-96.5605,28.887],[-96.6143,29.0182],[-96.6334,29.1048]]]}},{"type":"Feature","properties":{"c":"#ffffb2","v0":5.0,"v1":10.0},"geometry":{"type":"Polygon","coordinates":[[[-78.4633,28.29],[-78.4411,28.3166],[-78.4,28.3372],[-78.34,28.3515],[-78.285,28.3727],[-78.235,28.4007],[-78.18,28.42],[-78.12,28.4306],[-78.0717,28.4313],[-78.035,28.4221],[-78.0235,28.4043],[-78.0372,28.3779],[-78.0659,28.3559],[-78.1097,28.3383],[-78.1712,28.3235],[-78.2504,28.3116],[-78.325,28.292],[-78.395,28.2645],[-78.4411,28.2572],[-78.4633,28.2702],[-78.4633,28.29]]]}},{"type":"Feature","properties":{"c":"#ffffb2","v0":5.0,"v1":10.0},"geometry":{"type":"Polygon","coordinates":[[[-100.2945,27.1122],[-100.2828,27.1567],[-100.2803,27.2101],[-100.287,27.2723],[-100.2853,27.3101],[-100.2751,27.3234],[-100.25,27.3362],[-100.21,27.3485],[-100.165,27.3491],[-100.115,27.338],[-100.075,27.3108],[-100.045,27.2674],[-99.995,27.2413],[-99.925,27.2327],[-99.873,27.2071],[-99.839,27.1646],[-99.8317,27.1078],[-99.8511,27.0365],[-99.8781,26.9886],[-99.9127,26.964],[-99.975,26.9606],[-100.065,26.9784],[-100.145,26.9874],[-100.215,26.9876],[-100.2587,26.9954],[-100.2761,27.0109],[-100.2887,27.0365],[-100.2965,27.0721],[-100.2945,27.1122]],[[-100.2794,27.1122],[-100.2658,27.1567],[-100.2652,27.1967],[-100.2776,27.2323],[-100.2819,27.2634],[-100.2779,27.2901],[-100.2494,27.3141],[-100.1965,27.3353],[-100.1518,27.3398],[-100.1153,27.3274],[-100.0816,27.299],[-100.0506,27.2546],[-99.9989,27.2277],[-99.9263,27.2185],[-99.8765,27.1962],[-99.8495,27.161],[-99.8437,27.1122],[-99.859,27.0499],[-99.8825,27.0054],[-99.9142,26.9789],[-99.96,26.9678],[-100.02,26.9723],[-100.065,26.9814],[-100.095,26.9953],[-100.14,26.9998],[-100.2,26.9951],[-100.2423,27.0037],[-100.2669,27.0256],[-100.281,27.0499],[-100.2844,27.0766],[-100.2794,27.1122]]]}},{"type":"Feature","properties":{"c":"#ffffb2","v0":5.0,"v1":10.0},"geometry":{"type":"Polygon","coordinates":[[[-80.0669,24.9829],[-80.0642,25.0101],[-80.0496,25.0357],[-80.0232,25.0596],[-79.9688,25.0732],[-79.8865,25.0765],[-79.8315,25.0846],[-79.8038,25.0975],[-79.7658,25.1383],[-79.7175,25.2068],[-79.6829,25.2727],[-79.6622,25.336],[-79.6214,25.3764],[-79.5605,25.3939],[-79.5285,25.4346],[-79.5256,25.4983],[-79.5106,25.5498],[-79.4835,25.5892],[-79.44,25.62],[-79.38,25.6423],[-79.3269,25.6452],[-79.2807,25.6286],[-79.2542,25.5933],[-79.2475,25.5392],[-79.232,25.485],[-79.2077,25.4308],[-79.1975,25.3857],[-79.2014,25.3495],[-79.22,25.3146],[-79.2533,25.2809],[-79.2969,25.2583],[-79.3507,25.2468],[-79.3844,25.2139],[-79.398,25.1596],[-79.4611,25.0874],[-79.5737,24.9973],[-79.645,24.9308],[-79.675,24.888],[-79.755,24.857],[-79.885,24.8377],[-79.9757,24.8452],[-80.027,24.8796],[-80.0566,24.9149],[-80.0644,24.9512],[-80.0669,24.9829]],[[-80.056,24.9829],[-80.0511,25.0101],[-80.039,25.0325],[-80.0197,25.05],[-79.965,25.0621],[-79.875,25.0687],[-79.8181,25.078],[-79.7944,25.0901],[-79.7568,25.1324],[-79.7053,25.2048],[-79.673,25.2682],[-79.6598,25.3224],[-79.6424,25.3565],[-79.6208,25.3705],[-79.5896,25.3795],[-79.5488,25.3836],[-79.5239,25.4218],[-79.515,25.494],[-79.4954,25.5504],[-79.4651,25.591],[-79.425,25.6192],[-79.375,25.6353],[-79.33,25.6364],[-79.29,25.6228],[-79.2654,25.5855],[-79.2561,25.5246],[-79.2397,25.467],[-79.2163,25.4128],[-79.2075,25.3721],[-79.2133,25.345],[-79.2347,25.315],[-79.2716,25.2822],[-79.315,25.2611],[-79.365,25.2519],[-79.3975,25.2185],[-79.4125,25.1611],[-79.4725,25.0915],[-79.5775,25.0097],[-79.645,24.9469],[-79.675,24.9033],[-79.705,24.8748],[-79.735,24.8617],[-79.8,24.8518],[-79.9,24.8453],[-79.9723,24.8557],[-80.0169,24.8831],[-80.044,24.9149],[-80.0536,24.9512],[-80.056,24.9829]]]}},{"type":"Feature","properties":{"c":"#ffffb2","v0":5.0,"v1":10.0},"geometry":{"type":"Polygon","coordinates":[[[-82.2103,24.7637],[-82.1968,24.788],[-82.17,24.8125],[-82.13,24.8372],[-82.09,24.8838],[-82.05,24.9521],[-82.0094,24.9956],[-81.9681,25.0143],[-81.9381,25.0539],[-81.9194,25.1143],[-81.885,25.1472],[-81.835,25.1526],[-81.7716,25.1315],[-81.6949,25.0838],[-81.6536,25.0328],[-81.6477,24.9784],[-81.666,24.9172],[-81.7087,24.8492],[-81.76,24.8155],[-81.82,24.8162],[-81.8678,24.7958],[-81.9033,24.7542],[-81.9383,24.7266],[-81.9728,24.713],[-82.03,24.7017],[-82.11,24.6928],[-82.1632,24.6951],[-82.1897,24.7085],[-82.2065,24.7243],[-82.2135,24.7425],[-82.2103,24.7637]],[[-82.1695,24.7743],[-82.1176,24.8197],[-82.0739,24.8741],[-82.0384,24.9376],[-81.9963,24.9784],[-81.9474,24.9965],[-81.9221,25.0283],[-81.9204,25.0736],[-81.9122,25.1058],[-81.8974,25.1249],[-81.87,25.1348],[-81.83,25.1355],[-81.7744,25.1123],[-81.7032,25.0653],[-81.6657,25.0237],[-81.6619,24.9875],[-81.6775,24.9375],[-81.7125,24.8739],[-81.765,24.8397],[-81.835,24.835],[-81.895,24.8066],[-81.945,24.7546],[-81.995,24.7292],[-82.045,24.7304],[-82.09,24.7251],[-82.13,24.7133],[-82.1614,24.7184],[-82.1841,24.7405],[-82.1695,24.7743]]]}},{"type":"Feature","properties":{"c":"#ffffb2","v0":5.0,"v1":10.0},"geometry":{"type":"Polygon","coordinates":[[[-85.0507,24.763],[-85.0369,24.8222],[-85.01,24.8512],[-84.97,24.8501],[-84.905,24.8749],[-84.815,24.9256],[-84.755,24.9495],[-84.725,24.9465],[-84.65,24.9124],[-84.53,24.8472],[-84.455,24.7943],[-84.425,24.7537],[-84.4081,24.7016],[-84.4043,24.638],[-84.4154,24.547],[-84.4413,24.4287],[-84.4683,24.3476],[-84.4961,24.3036],[-84.535,24.2744],[-84.585,24.26],[-84.635,24.26],[-84.685,24.2744],[-84.7268,24.3218],[-84.7605,24.4022],[-84.7783,24.4743],[-84.7802,24.538],[-84.8083,24.571],[-84.8628,24.5734],[-84.925,24.589],[-84.995,24.6178],[-85.0369,24.6575],[-85.0507,24.7081],[-85.0507,24.763]],[[-85.0384,24.7561],[-85.0292,24.8015],[-85.0059,24.8261],[-84.9686,24.83],[-84.905,24.8587],[-84.815,24.9123],[-84.755,24.9367],[-84.725,24.9321],[-84.65,24.8966],[-84.53,24.8302],[-84.4583,24.7811],[-84.435,24.7493],[-84.4217,24.7016],[-84.4183,24.638],[-84.428,24.5516],[-84.4508,24.4424],[-84.4752,24.365],[-84.501,24.3194],[-84.5329,24.289],[-84.571,24.2738],[-84.615,24.2704],[-84.665,24.2787],[-84.702,24.3],[-84.726,24.3342],[-84.7442,24.3741],[-84.7567,24.4196],[-84.7619,24.4788],[-84.7599,24.5516],[-84.7867,24.587],[-84.8422,24.585],[-84.905,24.5994],[-84.975,24.63],[-85.0183,24.6673],[-85.0348,24.7114],[-85.0384,24.7561]]]}},{"type":"Feature","properties":{"c":"#ffffb2","v0":5.0,"v1":10.0},"geometry":{"type":"Polygon","coordinates":[[[-80.7153,24.723],[-80.6984,24.7748],[-80.68,24.804],[-80.66,24.8106],[-80.615,24.81],[-80.545,24.8021],[-80.4936,24.7865],[-80.4608,24.7632],[-80.4408,24.7116],[-80.4336,24.6317],[-80.41,24.5991],[-80.37,24.6138],[-80.336,24.6128],[-80.3079,24.5963],[-80.304,24.5425],[-80.3243,24.4515],[-80.3533,24.3929],[-80.3911,24.3667],[-80.4231,24.3302],[-80.4493,24.2835],[-80.4743,24.2516],[-80.4981,24.2344],[-80.53,24.2283],[-80.57,24.2332],[-80.6044,24.2509],[-80.6333,24.2814],[-80.6479,24.324],[-80.6481,24.3786],[-80.6666,24.4333],[-80.7033,24.4879],[-80.7222,24.5607],[-80.7233,24.6516],[-80.7153,24.723]],[[-80.7075,24.7152],[-80.7033,24.7516],[-80.6933,24.7766],[-80.6778,24.7903],[-80.625,24.7929],[-80.535,24.7843],[-80.4807,24.7683],[-80.4622,24.745],[-80.4522,24.697],[-80.4507,24.6243],[-80.445,24.5842],[-80.435,24.577],[-80.41,24.5818],[-80.37,24.5988],[-80.3377,24.5979],[-80.3132,24.5791],[-80.3102,24.5334],[-80.3287,24.4606],[-80.3563,24.4105],[-80.3931,24.3832],[-80.4361,24.3369],[-80.4854,24.2715],[-80.525,24.2388],[-80.555,24.2388],[-80.5859,24.2532],[-80.6178,24.2822],[-80.6342,24.324],[-80.6353,24.3786],[-80.6538,24.4333],[-80.6897,24.4879],[-80.7082,24.5607],[-80.7092,24.6516],[-80.7075,24.7152]]]}},{"type":"Feature","properties":{"c":"#ffffb2","v0":5.0,"v1":10.0},"geometry":{"type":"Polygon","coordinates":[[[-81.0989,24.406],[-81.0857,24.4424],[-81.0668,24.4711],[-81.0423,24.4921],[-81.01,24.505],[-80.97,24.5098],[-80.9336,24.5038],[-80.9007,24.4871],[-80.8707,24.4468],[-80.8436,24.3828],[-80.81,24.34],[-80.77,24.3187],[-80.7415,24.296],[-80.7245,24.2721],[-80.7052,24.21],[-80.6837,24.1096],[-80.6872,24.0351],[-80.7157,23.9865],[-80.76,23.9559],[-80.82,23.9433],[-80.8838,23.9585],[-80.9514,24.0014],[-81.0086,24.0686],[-81.0553,24.1598],[-81.0854,24.2511],[-81.0988,24.3422],[-81.0989,24.406]],[[-81.0892,24.4014],[-81.0812,24.4287],[-81.0654,24.4545],[-81.0418,24.4786],[-81.01,24.4934],[-80.97,24.4989],[-80.9375,24.496],[-80.9125,24.4845],[-80.8825,24.442],[-80.8475,24.3682],[-80.8112,24.3227],[-80.7736,24.3053],[-80.7485,24.2875],[-80.7361,24.2693],[-80.7181,24.2146],[-80.6945,24.1233],[-80.6945,24.0522],[-80.7182,24.0013],[-80.755,23.9681],[-80.805,23.9527],[-80.8649,23.9645],[-80.9347,24.0034],[-80.9936,24.0686],[-81.0417,24.1598],[-81.0726,24.2511],[-81.0863,24.3422],[-81.0892,24.4014]]]}},{"type":"Feature","properties":{"c":"#ffffb2","v0":5.0,"v1":10.0},"geometry":{"type":"Polygon","coordinates":[[[-84.1459,24.0732],[-84.1353,24.1008],[-84.1,24.1419],[-84.04,24.1965],[-83.99,24.2256],[-83.95,24.229],[-83.915,24.2199],[-83.8849,24.1981],[-83.8677,24.169],[-83.8634,24.1325],[-83.8748,24.0914],[-83.9017,24.0457],[-83.9489,24.0208],[-84.0163,24.0168],[-84.07,24.0193],[-84.11,24.0286],[-84.1353,24.0397],[-84.1459,24.0529],[-84.1459,24.0732]]]}},{"type":"Feature","properties":{"c":"#fed976","v0":10.0,"v1":20.0},"geometry":{"type":"Polygon","coordinates":[[[-97.3862,38.2463],[-97.3783,38.3248],[-97.3632,38.3797],[-97.3411,38.411],[-97.32,38.4298],[-97.3,38.4362],[-97.265,38.4292],[-97.215,38.4089],[-97.16,38.4019],[-97.1,38.4081],[-97.05,38.4059],[-97.01,38.3953],[-96.975,38.3706],[-96.945,38.3318],[-96.91,38.3003],[-96.87,38.2761],[-96.8415,38.2419],[-96.8246,38.1977],[-96.8246,38.1682],[-96.8415,38.1534],[-96.865,38.1445],[-96.895,38.1415],[-96.94,38.1553],[-97.0,38.186],[-97.055,38.178],[-97.105,38.1312],[-97.15,38.1021],[-97.19,38.0908],[-97.25,38.1037],[-97.33,38.1405],[-97.375,38.1709],[-97.3851,38.195],[-97.3862,38.2463]],[[-97.3579,38.2463],[-97.3489,38.3248],[-97.3309,38.3766],[-97.3036,38.4019],[-97.265,38.405],[-97.215,38.3861],[-97.1476,38.3774],[-97.0628,38.3789],[-97.0028,38.3588],[-96.9676,38.3172],[-96.9315,38.2858],[-96.8944,38.2647],[-96.8685,38.2384],[-96.8538,38.207],[-96.8524,38.1849],[-96.8641,38.1722],[-96.88,38.1654],[-96.9,38.1646],[-96.93,38.1775],[-96.97,38.204],[-97.005,38.2186],[-97.035,38.2212],[-97.0731,38.199],[-97.1192,38.1519],[-97.1592,38.1235],[-97.1931,38.1138],[-97.225,38.1197],[-97.255,38.1412],[-97.29,38.1578],[-97.33,38.1694],[-97.3531,38.1831],[-97.3592,38.199],[-97.3579,38.2463]]]}},{"type":"Feature","properties":{"c":"#fed976","v0":10.0,"v1":20.0},"geometry":{"type":"Polygon","coordinates":[[[-100.6811,36.5341],[-100.6777,36.5582],[-100.6533,36.5983],[-100.6081,36.6545],[-100.5109,36.7227],[-100.3616,36.8028],[-100.2954,36.8708],[-100.3123,36.9268],[-100.3081,36.9676],[-100.2827,36.9933],[-100.25,37.0028],[-100.21,36.9959],[-100.165,36.9582],[-100.115,36.8898],[-100.0618,36.8444],[-100.0055,36.822],[-99.9775,36.7908],[-99.9779,36.7507],[-99.986,36.7199],[-100.002,36.6984],[-100.035,36.6873],[-100.085,36.6865],[-100.135,36.666],[-100.185,36.6257],[-100.24,36.6001],[-100.3,36.5891],[-100.3453,36.5602],[-100.3759,36.5133],[-100.3934,36.4617],[-100.3977,36.4054],[-100.4224,36.3605],[-100.4675,36.3271],[-100.5,36.3092],[-100.52,36.307],[-100.5405,36.3116],[-100.5614,36.3231],[-100.5899,36.3531],[-100.6261,36.4014],[-100.6539,36.4497],[-100.6732,36.4979],[-100.6811,36.5341]],[[-100.6611,36.5341],[-100.6568,36.5582],[-100.6335,36.5959],[-100.5912,36.6473],[-100.495,36.713],[-100.345,36.7928],[-100.2676,36.8393],[-100.2627,36.8523],[-100.2708,36.8788],[-100.2918,36.9188],[-100.2943,36.9512],[-100.2781,36.976],[-100.2503,36.984],[-100.2109,36.9752],[-100.1692,36.9388],[-100.125,36.8748],[-100.0749,36.8308],[-100.0187,36.8068],[-99.9927,36.7788],[-99.9967,36.7467],[-100.0058,36.7227],[-100.02,36.7066],[-100.0379,36.6981],[-100.0593,36.6971],[-100.08,36.7024],[-100.1,36.714],[-100.135,36.6959],[-100.185,36.6482],[-100.245,36.6159],[-100.315,36.5991],[-100.3653,36.5655],[-100.3959,36.5151],[-100.4114,36.4657],[-100.4117,36.4175],[-100.4314,36.3772],[-100.4705,36.3449],[-100.505,36.3301],[-100.535,36.3327],[-100.5681,36.3569],[-100.6044,36.4027],[-100.6327,36.4497],[-100.653,36.4979],[-100.6611,36.5341]]]}},{"type":"Feature","properties":{"c":"#fed976","v0":10.0,"v1":20.0},"geometry":{"type":"Polygon","coordinates":[[[-108.234,35.7134],[-108.218,35.7444],[-108.17,35.7678],[-108.09,35.7837],[-108.0445,35.7966],[-108.0334,35.8066],[-108.0284,35.8288],[-108.0295,35.8633],[-108.0578,35.9241],[-108.1134,36.011],[-108.1334,36.0691],[-108.1178,36.0983],[-108.085,36.1106],[-108.035,36.1059],[-107.98,36.1145],[-107.92,36.1364],[-107.865,36.1631],[-107.815,36.1946],[-107.76,36.2081],[-107.7,36.2038],[-107.595,36.2151],[-107.445,36.242],[-107.3576,36.2497],[-107.3329,36.238],[-107.3161,36.216],[-107.3071,36.1837],[-107.3314,36.1151],[-107.3889,36.01],[-107.4644,35.9129],[-107.5579,35.8237],[-107.646,35.7493],[-107.7287,35.6896],[-107.79,35.6307],[-107.83,35.5725],[-107.875,35.5315],[-107.925,35.5079],[-107.98,35.4966],[-108.04,35.4978],[-108.0802,35.5077],[-108.1005,35.5261],[-108.1157,35.5516],[-108.1257,35.5841],[-108.1547,35.6167],[-108.2027,35.6492],[-108.2305,35.6736],[-108.2382,35.6898],[-108.234,35.7134]],[[-108.2144,35.7114],[-108.1981,35.7385],[-108.15,35.7587],[-108.07,35.7722],[-108.025,35.7855],[-108.015,35.7987],[-108.0115,35.8271],[-108.0144,35.8708],[-108.0419,35.9331],[-108.0941,36.014],[-108.1177,36.0634],[-108.1126,36.0814],[-108.08,36.0911],[-108.02,36.0927],[-107.965,36.102],[-107.915,36.119],[-107.865,36.1443],[-107.815,36.178],[-107.755,36.1932],[-107.685,36.19],[-107.58,36.2011],[-107.44,36.2263],[-107.3601,36.2332],[-107.3404,36.2217],[-107.3286,36.2039],[-107.3247,36.1797],[-107.352,36.1151],[-107.4104,36.01],[-107.4622,35.9409],[-107.5074,35.9078],[-107.5502,35.8673],[-107.5905,35.8193],[-107.6551,35.7629],[-107.7439,35.6979],[-107.8087,35.6368],[-107.8496,35.5794],[-107.895,35.54],[-107.945,35.5185],[-107.995,35.5101],[-108.045,35.5146],[-108.0826,35.5418],[-108.1079,35.5917],[-108.1461,35.637],[-108.1971,35.6776],[-108.2144,35.7114]]]}},{"type":"Feature","properties":{"c":"#fed976","v0":10.0,"v1":20.0},"geometry":{"type":"Polygon","coordinates":[[[-79.6123,29.6126],[-79.5841,29.6588],[-79.5348,29.6849],[-79.4645,29.6908],[-79.4129,29.7242],[-79.3801,29.785],[-79.3303,29.8284],[-79.2634,29.8544],[-79.2124,29.8588],[-79.1773,29.8414],[-79.158,29.8153],[-79.1546,29.7806],[-79.2196,29.7025],[-79.3531,29.5808],[-79.4279,29.4938],[-79.4442,29.4415],[-79.4617,29.4046],[-79.4806,29.3831],[-79.5,29.3715],[-79.52,29.3696],[-79.5378,29.376],[-79.5533,29.3907],[-79.5774,29.4459],[-79.61,29.5416],[-79.6123,29.6126]]]}},{"type":"Feature","properties":{"c":"#fed976","v0":10.0,"v1":20.0},"geometry":{"type":"Polygon","coordinates":[[[-96.6334,29.1048],[-96.6178,29.1467],[-96.595,29.1758],[-96.565,29.1923],[-96.53,29.2005],[-96.49,29.2005],[-96.451,29.1888],[-96.413,29.1654],[-96.3803,29.1362],[-96.3528,29.1013],[-96.3371,29.0707],[-96.3333,29.0445],[-96.3377,28.9833],[-96.3502,28.887],[-96.3659,28.8257],[-96.3849,28.7994],[-96.4133,28.7835],[-96.4511,28.778],[-96.4859,28.7868],[-96.5177,28.8098],[-96.5605,28.887],[-96.6143,29.0182],[-96.6334,29.1048]],[[-96.6151,29.104],[-96.5984,29.1445],[-96.57,29.171],[-96.53,29.1836],[-96.49,29.184],[-96.45,29.1723],[-96.4121,29.1458],[-96.3763,29.1045],[-96.3613,29.027],[-96.3671,28.9132],[-96.38,28.841],[-96.4,28.8102],[-96.425,28.794],[-96.455,28.7923],[-96.4809,28.7989],[-96.5026,28.8138],[-96.541,28.887],[-96.596,29.0182],[-96.6151,29.104]]]}},{"type":"Feature","properties":{"c":"#fed976","v0":10.0,"v1":20.0},"geometry":{"type":"Polygon","coordinates":[[[-100.2794,27.1122],[-100.2658,27.1567],[-100.2652,27.1967],[-100.2776,27.2323],[-100.2819,27.2634],[-100.2779,27.2901],[-100.2494,27.3141],[-100.1965,27.3353],[-100.1518,27.3398],[-100.1153,27.3274],[-100.0816,27.299],[-100.0506,27.2546],[-99.9989,27.2277],[-99.9263,27.2185],[-99.8765,27.1962],[-99.8495,27.161],[-99.8437,27.1122],[-99.859,27.0499],[-99.8825,27.0054],[-99.9142,26.9789],[-99.96,26.9678],[-100.02,26.9723],[-100.065,26.9814],[-100.095,26.9953],[-100.14,26.9998],[-100.2,26.9951],[-100.2423,27.0037],[-100.2669,27.0256],[-100.281,27.0499],[-100.2844,27.0766],[-100.2794,27.1122]],[[-100.2591,27.1122],[-100.2405,27.1567],[-100.2392,27.2056],[-100.2552,27.259],[-100.2399,27.2966],[-100.1933,27.3183],[-100.155,27.3243],[-100.125,27.3144],[-100.095,27.2865],[-100.065,27.2406],[-100.015,27.2146],[-99.945,27.2085],[-99.8961,27.19],[-99.8684,27.1589],[-99.8603,27.1167],[-99.8718,27.0632],[-99.8907,27.0231],[-99.9169,26.9963],[-99.955,26.9839],[-100.005,26.986],[-100.05,26.9955],[-100.09,27.0125],[-100.14,27.0185],[-100.2,27.0134],[-100.2372,27.0173],[-100.2516,27.0301],[-100.2612,27.0499],[-100.266,27.0766],[-100.2591,27.1122]]]}},{"type":"Feature","properties":{"c":"#fed976","v0":10.0,"v1":20.0},"geometry":{"type":"Polygon","coordinates":[[[-80.056,24.9829],[-80.0511,25.0101],[-80.039,25.0325],[-80.0197,25.05],[-79.965,25.0621],[-79.875,25.0687],[-79.8181,25.078],[-79.7944,25.0901],[-79.7568,25.1324],[-79.7053,25.2048],[-79.673,25.2682],[-79.6598,25.3224],[-79.6424,25.3565],[-79.6208,25.3705],[-79.5896,25.3795],[-79.5488,25.3836],[-79.5239,25.4218],[-79.515,25.494],[-79.4954,25.5504],[-79.4651,25.591],[-79.425,25.6192],[-79.375,25.6353],[-79.33,25.6364],[-79.29,25.6228],[-79.2654,25.5855],[-79.2561,25.5246],[-79.2397,25.467],[-79.2163,25.4128],[-79.2075,25.3721],[-79.2133,25.345],[-79.2347,25.315],[-79.2716,25.2822],[-79.315,25.2611],[-79.365,25.2519],[-79.3975,25.2185],[-79.4125,25.1611],[-79.4725,25.0915],[-79.5775,25.0097],[-79.645,24.9469],[-79.675,24.9033],[-79.705,24.8748],[-79.735,24.8617],[-79.8,24.8518],[-79.9,24.8453],[-79.9723,24.8557],[-80.0169,24.8831],[-80.044,24.9149],[-80.0536,24.9512],[-80.056,24.9829]],[[-80.0356,24.9881],[-80.0185,25.0257],[-79.965,25.0479],[-79.875,25.0547],[-79.815,25.0659],[-79.785,25.0816],[-79.7448,25.1228],[-79.6945,25.1896],[-79.6604,25.2546],[-79.6424,25.3179],[-79.6022,25.3586],[-79.5396,25.3766],[-79.5056,25.4218],[-79.5,25.494],[-79.4854,25.5461],[-79.4618,25.578],[-79.425,25.6032],[-79.375,25.6216],[-79.3315,25.6236],[-79.2946,25.6094],[-79.2746,25.5784],[-79.2715,25.5306],[-79.2571,25.4764],[-79.2314,25.4159],[-79.2221,25.3721],[-79.2293,25.345],[-79.2472,25.3188],[-79.2757,25.2935],[-79.3175,25.2754],[-79.3724,25.2645],[-79.4056,25.232],[-79.4171,25.1777],[-79.4795,25.1053],[-79.5928,25.0147],[-79.6646,24.9477],[-79.6949,24.9043],[-79.77,24.8762],[-79.89,24.8633],[-79.9674,24.8669],[-80.0023,24.8868],[-80.0259,24.9149],[-80.0381,24.9512],[-80.0356,24.9881]]]}},{"type":"Feature","properties":{"c":"#fed976","v0":10.0,"v1":20.0},"geometry":{"type":"Polygon","coordinates":[[[-82.1695,24.7743],[-82.1176,24.8197],[-82.0739,24.8741],[-82.0384,24.9376],[-81.9963,24.9784],[-81.9474,24.9965],[-81.9221,25.0283],[-81.9204,25.0736],[-81.9122,25.1058],[-81.8974,25.1249],[-81.87,25.1348],[-81.83,25.1355],[-81.7744,25.1123],[-81.7032,25.0653],[-81.6657,25.0237],[-81.6619,24.9875],[-81.6775,24.9375],[-81.7125,24.8739],[-81.765,24.8397],[-81.835,24.835],[-81.895,24.8066],[-81.945,24.7546],[-81.995,24.7292],[-82.045,24.7304],[-82.09,24.7251],[-82.13,24.7133],[-82.1614,24.7184],[-82.1841,24.7405],[-82.1695,24.7743]],[[-82.0434,24.8287],[-81.9972,24.9104],[-81.948,24.9475],[-81.896,24.9401],[-81.86,24.9407],[-81.84,24.9493],[-81.8282,24.962],[-81.8245,24.979],[-81.8352,25.0056],[-81.8602,25.0418],[-81.8706,25.069],[-81.8663,25.0871],[-81.8543,25.0962],[-81.8345,25.0962],[-81.7962,25.0781],[-81.7394,25.0418],[-81.7101,25.0101],[-81.7082,24.9829],[-81.723,24.9469],[-81.7543,24.902],[-81.805,24.8783],[-81.875,24.8757],[-81.9276,24.8483],[-81.9628,24.7959],[-82.0019,24.7743],[-82.0449,24.7833],[-82.0434,24.8287]]]}},{"type":"Feature","properties":{"c":"#fed976","v0":10.0,"v1":20.0},"geometry":{"type":"Polygon","coordinates":[[[-85.0384,24.7561],[-85.0292,24.8015],[-85.0059,24.8261],[-84.9686,24.83],[-84.905,24.8587],[-84.815,24.9123],[-84.755,24.9367],[-84.725,24.9321],[-84.65,24.8966],[-84.53,24.8302],[-84.4583,24.7811],[-84.435,24.7493],[-84.4217,24.7016],[-84.4183,24.638],[-84.428,24.5516],[-84.4508,24.4424],[-84.4752,24.365],[-84.501,24.3194],[-84.5329,24.289],[-84.571,24.2738],[-84.615,24.2704],[-84.665,24.2787],[-84.702,24.3],[-84.726,24.3342],[-84.7442,24.3741],[-84.7567,24.4196],[-84.7619,24.4788],[-84.7599,24.5516],[-84.7867,24.587],[-84.8422,24.585],[-84.905,24.5994],[-84.975,24.63],[-85.0183,24.6673],[-85.0348,24.7114],[-85.0384,24.7561]],[[-85.0191,24.747],[-85.0128,24.7743],[-84.9447,24.8216],[-84.8149,24.889],[-84.6846,24.889],[-84.5537,24.8216],[-84.4758,24.7697],[-84.4508,24.7334],[-84.4377,24.688],[-84.4365,24.6334],[-84.4475,24.5516],[-84.4708,24.4424],[-84.4944,24.3675],[-84.5181,24.3269],[-84.56,24.3016],[-84.62,24.2913],[-84.6648,24.2979],[-84.6944,24.3214],[-84.7206,24.3741],[-84.7435,24.456],[-84.7427,24.5289],[-84.7182,24.5925],[-84.707,24.6366],[-84.709,24.6611],[-84.725,24.6607],[-84.755,24.6352],[-84.795,24.6175],[-84.845,24.6074],[-84.9038,24.6215],[-84.9714,24.6598],[-85.0095,24.6925],[-85.018,24.7198],[-85.0191,24.747]]]}},{"type":"Feature","properties":{"c":"#fed976","v0":10.0,"v1":20.0},"geometry":{"type":"Polygon","coordinates":[[[-80.7075,24.7152],[-80.7033,24.7516],[-80.6933,24.7766],[-80.6778,24.7903],[-80.625,24.7929],[-80.535,24.7843],[-80.4807,24.7683],[-80.4622,24.745],[-80.4522,24.697],[-80.4507,24.6243],[-80.445,24.5842],[-80.435,24.577],[-80.41,24.5818],[-80.37,24.5988],[-80.3377,24.5979],[-80.3132,24.5791],[-80.3102,24.5334],[-80.3287,24.4606],[-80.3563,24.4105],[-80.3931,24.3832],[-80.4361,24.3369],[-80.4854,24.2715],[-80.525,24.2388],[-80.555,24.2388],[-80.5859,24.2532],[-80.6178,24.2822],[-80.6342,24.324],[-80.6353,24.3786],[-80.6538,24.4333],[-80.6897,24.4879],[-80.7082,24.5607],[-80.7092,24.6516],[-80.7075,24.7152]],[[-80.6887,24.7173],[-80.6762,24.7578],[-80.63,24.7759],[-80.55,24.7717],[-80.5,24.7605],[-80.4801,24.7424],[-80.4684,24.6925],[-80.4649,24.6107],[-80.4498,24.567],[-80.4233,24.5615],[-80.395,24.5662],[-80.365,24.5812],[-80.3431,24.5839],[-80.3293,24.5745],[-80.3311,24.5334],[-80.3486,24.4606],[-80.3755,24.4119],[-80.4118,24.3873],[-80.4433,24.3509],[-80.47,24.3026],[-80.495,24.271],[-80.5183,24.2562],[-80.545,24.2541],[-80.575,24.2646],[-80.5983,24.2811],[-80.6149,24.3036],[-80.6236,24.3422],[-80.6244,24.3969],[-80.6415,24.4469],[-80.6748,24.4925],[-80.6923,24.5607],[-80.694,24.6516],[-80.6887,24.7173]]]}},{"type":"Feature","properties":{"c":"#fed976","v0":10.0,"v1":20.0},"geometry":{"type":"Polygon","coordinates":[[[-81.0892,24.4014],[-81.0812,24.4287],[-81.0654,24.4545],[-81.0418,24.4786],[-81.01,24.4934],[-80.97,24.4989],[-80.9375,24.496],[-80.9125,24.4845],[-80.8825,24.442],[-80.8475,24.3682],[-80.8112,24.3227],[-80.7736,24.3053],[-80.7485,24.2875],[-80.7361,24.2693],[-80.7181,24.2146],[-80.6945,24.1233],[-80.6945,24.0522],[-80.7182,24.0013],[-80.755,23.9681],[-80.805,23.9527],[-80.8649,23.9645],[-80.9347,24.0034],[-80.9936,24.0686],[-81.0417,24.1598],[-81.0726,24.2511],[-81.0863,24.3422],[-81.0892,24.4014]],[[-81.0751,24.4014],[-81.0658,24.4287],[-81.0484,24.453],[-81.0228,24.4743],[-80.995,24.4859],[-80.965,24.4878],[-80.9379,24.4818],[-80.9136,24.4677],[-80.8846,24.4242],[-80.8508,24.3513],[-80.8113,24.3012],[-80.7661,24.2738],[-80.7318,24.2146],[-80.7084,24.1233],[-80.7101,24.0527],[-80.7367,24.0028],[-80.775,23.9738],[-80.825,23.9657],[-80.8796,23.9815],[-80.9387,24.0213],[-80.9907,24.0868],[-81.0357,24.1781],[-81.0636,24.2647],[-81.0743,24.3468],[-81.0751,24.4014]]]}},{"type":"Feature","properties":{"c":"#feb24c","v0":20.0,"v1":30.0},"geometry":{"type":"Polygon","coordinates":[[[-97.3579,38.2463],[-97.3489,38.3248],[-97.3309,38.3766],[-97.3036,38.4019],[-97.265,38.405],[-97.215,38.3861],[-97.1476,38.3774],[-97.0628,38.3789],[-97.0028,38.3588],[-96.9676,38.3172],[-96.9315,38.2858],[-96.8944,38.2647],[-96.8685,38.2384],[-96.8538,38.207],[-96.8524,38.1849],[-96.8641,38.1722],[-96.88,38.1654],[-96.9,38.1646],[-96.93,38.1775],[-96.97,38.204],[-97.005,38.2186],[-97.035,38.2212],[-97.0731,38.199],[-97.1192,38.1519],[-97.1592,38.1235],[-97.1931,38.1138],[-97.225,38.1197],[-97.255,38.1412],[-97.29,38.1578],[-97.33,38.1694],[-97.3531,38.1831],[-97.3592,38.199],[-97.3579,38.2463]]]}},{"type":"Feature","properties":{"c":"#feb24c","v0":20.0,"v1":30.0},"geometry":{"type":"Polygon","coordinates":[[[-100.6611,36.5341],[-100.6568,36.5582],[-100.6335,36.5959],[-100.5912,36.6473],[-100.495,36.713],[-100.345,36.7928],[-100.2676,36.8393],[-100.2627,36.8523],[-100.2708,36.8788],[-100.2918,36.9188],[-100.2943,36.9512],[-100.2781,36.976],[-100.2503,36.984],[-100.2109,36.9752],[-100.1692,36.9388],[-100.125,36.8748],[-100.0749,36.8308],[-100.0187,36.8068],[-99.9927,36.7788],[-99.9967,36.7467],[-100.0058,36.7227],[-100.02,36.7066],[-100.0379,36.6981],[-100.0593,36.6971],[-100.08,36.7024],[-100.1,36.714],[-100.135,36.6959],[-100.185,36.6482],[-100.245,36.6159],[-100.315,36.5991],[-100.3653,36.5655],[-100.3959,36.5151],[-100.4114,36.4657],[-100.4117,36.4175],[-100.4314,36.3772],[-100.4705,36.3449],[-100.505,36.3301],[-100.535,36.3327],[-100.5681,36.3569],[-100.6044,36.4027],[-100.6327,36.4497],[-100.653,36.4979],[-100.6611,36.5341]],[[-100.6428,36.5341],[-100.6373,36.5582],[-100.6142,36.5943],[-100.5733,36.6425],[-100.4774,36.7066],[-100.3263,36.7868],[-100.248,36.8348],[-100.2424,36.8508],[-100.2507,36.8788],[-100.2729,36.9188],[-100.2802,36.9468],[-100.2723,36.9628],[-100.2538,36.9692],[-100.2246,36.9662],[-100.185,36.9301],[-100.135,36.8611],[-100.0861,36.8186],[-100.0384,36.8027],[-100.0184,36.7751],[-100.0261,36.7357],[-100.04,36.7157],[-100.06,36.7152],[-100.085,36.7258],[-100.115,36.7476],[-100.1388,36.7396],[-100.1564,36.7016],[-100.1764,36.6726],[-100.1988,36.6526],[-100.2483,36.6325],[-100.3248,36.6124],[-100.3784,36.5783],[-100.4091,36.5301],[-100.4258,36.4784],[-100.4286,36.4232],[-100.445,36.3833],[-100.475,36.3587],[-100.501,36.3461],[-100.5231,36.3454],[-100.5531,36.3681],[-100.591,36.4144],[-100.6189,36.4586],[-100.6366,36.5009],[-100.6428,36.5341]]]}},{"type":"Feature","properties":{"c":"#feb24c","v0":20.0,"v1":30.0},"geometry":{"type":"Polygon","coordinates":[[[-108.2144,35.7114],[-108.1981,35.7385],[-108.15,35.7587],[-108.07,35.7722],[-108.025,35.7855],[-108.015,35.7987],[-108.0115,35.8271],[-108.0144,35.8708],[-108.0419,35.9331],[-108.0941,36.014],[-108.1177,36.0634],[-108.1126,36.0814],[-108.08,36.0911],[-108.02,36.0927],[-107.965,36.102],[-107.915,36.119],[-107.865,36.1443],[-107.815,36.178],[-107.755,36.1932],[-107.685,36.19],[-107.58,36.2011],[-107.44,36.2263],[-107.3601,36.2332],[-107.3404,36.2217],[-107.3286,36.2039],[-107.3247,36.1797],[-107.352,36.1151],[-107.4104,36.01],[-107.4622,35.9409],[-107.5074,35.9078],[-107.5502,35.8673],[-107.5905,35.8193],[-107.6551,35.7629],[-107.7439,35.6979],[-107.8087,35.6368],[-107.8496,35.5794],[-107.895,35.54],[-107.945,35.5185],[-107.995,35.5101],[-108.045,35.5146],[-108.0826,35.5418],[-108.1079,35.5917],[-108.1461,35.637],[-108.1971,35.6776],[-108.2144,35.7114]],[[-108.2015,35.7072],[-108.1938,35.7259],[-108.15,35.7422],[-108.07,35.7562],[-108.0214,35.7712],[-108.0041,35.7873],[-107.9963,35.8197],[-107.9979,35.8683],[-108.0238,35.9331],[-108.0741,36.014],[-108.0969,36.0603],[-108.0923,36.072],[-108.07,36.0771],[-108.03,36.0757],[-107.98,36.0842],[-107.92,36.1026],[-107.865,36.1292],[-107.815,36.164],[-107.76,36.1793],[-107.7,36.1752],[-107.6,36.1855],[-107.46,36.2103],[-107.38,36.2206],[-107.36,36.2164],[-107.3477,36.2027],[-107.3431,36.1793],[-107.3681,36.1179],[-107.4227,36.0183],[-107.495,35.9257],[-107.585,35.8402],[-107.6704,35.7685],[-107.7511,35.7106],[-107.8111,35.653],[-107.8504,35.5956],[-107.895,35.5555],[-107.945,35.5327],[-107.99,35.5219],[-108.03,35.5232],[-108.065,35.5498],[-108.095,35.6016],[-108.1338,35.6451],[-108.1815,35.6803],[-108.2015,35.7072]]]}},{"type":"Feature","properties":{"c":"#feb24c","v0":20.0,"v1":30.0},"geometry":{"type":"Polygon","coordinates":[[[-96.6151,29.104],[-96.5984,29.1445],[-96.57,29.171],[-96.53,29.1836],[-96.49,29.184],[-96.45,29.1723],[-96.4121,29.1458],[-96.3763,29.1045],[-96.3613,29.027],[-96.3671,28.9132],[-96.38,28.841],[-96.4,28.8102],[-96.425,28.794],[-96.455,28.7923],[-96.4809,28.7989],[-96.5026,28.8138],[-96.541,28.887],[-96.596,29.0182],[-96.6151,29.104]],[[-96.6028,29.1013],[-96.5895,29.1362],[-96.5646,29.1599],[-96.5282,29.1723],[-96.491,29.1723],[-96.453,29.1599],[-96.4191,29.1362],[-96.3894,29.1013],[-96.3717,29.062],[-96.3658,29.0182],[-96.3746,28.9499],[-96.3982,28.857],[-96.425,28.809],[-96.455,28.806],[-96.48,28.8129],[-96.5,28.8297],[-96.5349,28.8996],[-96.5846,29.0225],[-96.6028,29.1013]]]}},{"type":"Feature","properties":{"c":"#feb24c","v0":20.0,"v1":30.0},"geometry":{"type":"Polygon","coordinates":[[[-100.2591,27.1122],[-100.2405,27.1567],[-100.2392,27.2056],[-100.2552,27.259],[-100.2399,27.2966],[-100.1933,27.3183],[-100.155,27.3243],[-100.125,27.3144],[-100.095,27.2865],[-100.065,27.2406],[-100.015,27.2146],[-99.945,27.2085],[-99.8961,27.19],[-99.8684,27.1589],[-99.8603,27.1167],[-99.8718,27.0632],[-99.8907,27.0231],[-99.9169,26.9963],[-99.955,26.9839],[-100.005,26.986],[-100.05,26.9955],[-100.09,27.0125],[-100.14,27.0185],[-100.2,27.0134],[-100.2372,27.0173],[-100.2516,27.0301],[-100.2612,27.0499],[-100.266,27.0766],[-100.2591,27.1122]],[[-100.2415,27.1122],[-100.2167,27.1567],[-100.2156,27.1967],[-100.2382,27.2323],[-100.2484,27.259],[-100.2463,27.2768],[-100.2265,27.2929],[-100.1888,27.3075],[-100.155,27.3077],[-100.125,27.2936],[-100.1,27.2674],[-100.08,27.2289],[-100.0348,27.2065],[-99.9643,27.2],[-99.9142,27.1834],[-99.8846,27.1567],[-99.8759,27.1167],[-99.888,27.0632],[-99.908,27.0262],[-99.936,27.0055],[-99.97,26.9965],[-100.01,26.9992],[-100.05,27.0096],[-100.09,27.0276],[-100.135,27.0322],[-100.185,27.0235],[-100.2174,27.0235],[-100.2323,27.0322],[-100.2432,27.0499],[-100.2503,27.0766],[-100.2415,27.1122]]]}},{"type":"Feature","properties":{"c":"#feb24c","v0":20.0,"v1":30.0},"geometry":{"type":"Polygon","coordinates":[[[-80.0356,24.9881],[-80.0185,25.0257],[-79.965,25.0479],[-79.875,25.0547],[-79.815,25.0659],[-79.785,25.0816],[-79.7448,25.1228],[-79.6945,25.1896],[-79.6604,25.2546],[-79.6424,25.3179],[-79.6022,25.3586],[-79.5396,25.3766],[-79.5056,25.4218],[-79.5,25.494],[-79.4854,25.5461],[-79.4618,25.578],[-79.425,25.6032],[-79.375,25.6216],[-79.3315,25.6236],[-79.2946,25.6094],[-79.2746,25.5784],[-79.2715,25.5306],[-79.2571,25.4764],[-79.2314,25.4159],[-79.2221,25.3721],[-79.2293,25.345],[-79.2472,25.3188],[-79.2757,25.2935],[-79.3175,25.2754],[-79.3724,25.2645],[-79.4056,25.232],[-79.4171,25.1777],[-79.4795,25.1053],[-79.5928,25.0147],[-79.6646,24.9477],[-79.6949,24.9043],[-79.77,24.8762],[-79.89,24.8633],[-79.9674,24.8669],[-80.0023,24.8868],[-80.0259,24.9149],[-80.0381,24.9512],[-80.0356,24.9881]],[[-80.0304,24.9829],[-80.0233,25.0101],[-80.0123,25.0281],[-79.9974,25.0368],[-79.95,25.0432],[-79.87,25.0473],[-79.815,25.0559],[-79.785,25.0691],[-79.7412,25.1125],[-79.6837,25.1861],[-79.6503,25.2501],[-79.641,25.3043],[-79.6098,25.3379],[-79.5566,25.3508],[-79.5215,25.3643],[-79.5045,25.3786],[-79.4948,25.4173],[-79.4923,25.4805],[-79.4808,25.5292],[-79.4603,25.5633],[-79.425,25.5904],[-79.375,25.6106],[-79.335,25.6161],[-79.3051,25.6069],[-79.2867,25.5753],[-79.2798,25.5211],[-79.2647,25.467],[-79.2413,25.4128],[-79.2334,25.3721],[-79.2409,25.345],[-79.256,25.3215],[-79.2787,25.3015],[-79.32,25.2848],[-79.38,25.2713],[-79.4166,25.236],[-79.4297,25.179],[-79.4897,25.1087],[-79.5966,25.025],[-79.6643,24.9616],[-79.693,24.9184],[-79.723,24.8914],[-79.7543,24.8808],[-79.815,24.8735],[-79.905,24.8698],[-79.968,24.8797],[-80.004,24.9032],[-80.025,24.9285],[-80.031,24.9557],[-80.0304,24.9829]]]}},{"type":"Feature","properties":{"c":"#feb24c","v0":20.0,"v1":30.0},"geometry":{"type":"Polygon","coordinates":[[[-82.0434,24.8287],[-81.9972,24.9104],[-81.948,24.9475],[-81.896,24.9401],[-81.86,24.9407],[-81.84,24.9493],[-81.8282,24.962],[-81.8245,24.979],[-81.8352,25.0056],[-81.8602,25.0418],[-81.8706,25.069],[-81.8663,25.0871],[-81.8543,25.0962],[-81.8345,25.0962],[-81.7962,25.0781],[-81.7394,25.0418],[-81.7101,25.0101],[-81.7082,24.9829],[-81.723,24.9469],[-81.7543,24.902],[-81.805,24.8783],[-81.875,24.8757],[-81.9276,24.8483],[-81.9628,24.7959],[-82.0019,24.7743],[-82.0449,24.7833],[-82.0434,24.8287]]]}},{"type":"Feature","properties":{"c":"#feb24c","v0":20.0,"v1":30.0},"geometry":{"type":"Polygon","coordinates":[[[-85.0191,24.747],[-85.0128,24.7743],[-84.9447,24.8216],[-84.8149,24.889],[-84.6846,24.889],[-84.5537,24.8216],[-84.4758,24.7697],[-84.4508,24.7334],[-84.4377,24.688],[-84.4365,24.6334],[-84.4475,24.5516],[-84.4708,24.4424],[-84.4944,24.3675],[-84.5181,24.3269],[-84.56,24.3016],[-84.62,24.2913],[-84.6648,24.2979],[-84.6944,24.3214],[-84.7206,24.3741],[-84.7435,24.456],[-84.7427,24.5289],[-84.7182,24.5925],[-84.707,24.6366],[-84.709,24.6611],[-84.725,24.6607],[-84.755,24.6352],[-84.795,24.6175],[-84.845,24.6074],[-84.9038,24.6215],[-84.9714,24.6598],[-85.0095,24.6925],[-85.018,24.7198],[-85.0191,24.747]],[[-84.9758,24.7561],[-84.9257,24.8015],[-84.863,24.8446],[-84.7877,24.8853],[-84.685,24.8712],[-84.555,24.8022],[-84.4816,24.7546],[-84.4648,24.7283],[-84.4555,24.688],[-84.4538,24.6334],[-84.4649,24.5516],[-84.489,24.4424],[-84.5122,24.3695],[-84.5347,24.3331],[-84.572,24.3119],[-84.624,24.306],[-84.6622,24.3151],[-84.6867,24.3392],[-84.7084,24.3923],[-84.7272,24.4743],[-84.7224,24.547],[-84.6937,24.6107],[-84.6834,24.6562],[-84.6914,24.6834],[-84.7041,24.7002],[-84.7214,24.7064],[-84.7411,24.6928],[-84.7632,24.6593],[-84.7982,24.6367],[-84.8461,24.6249],[-84.9,24.6385],[-84.96,24.6774],[-84.9927,24.706],[-84.9982,24.7243],[-84.9758,24.7561]]]}},{"type":"Feature","properties":{"c":"#feb24c","v0":20.0,"v1":30.0},"geometry":{"type":"Polygon","coordinates":[[[-80.6887,24.7173],[-80.6762,24.7578],[-80.63,24.7759],[-80.55,24.7717],[-80.5,24.7605],[-80.4801,24.7424],[-80.4684,24.6925],[-80.4649,24.6107],[-80.4498,24.567],[-80.4233,24.5615],[-80.395,24.5662],[-80.365,24.5812],[-80.3431,24.5839],[-80.3293,24.5745],[-80.3311,24.5334],[-80.3486,24.4606],[-80.3755,24.4119],[-80.4118,24.3873],[-80.4433,24.3509],[-80.47,24.3026],[-80.495,24.271],[-80.5183,24.2562],[-80.545,24.2541],[-80.575,24.2646],[-80.5983,24.2811],[-80.6149,24.3036],[-80.6236,24.3422],[-80.6244,24.3969],[-80.6415,24.4469],[-80.6748,24.4925],[-80.6923,24.5607],[-80.694,24.6516],[-80.6887,24.7173]],[[-80.6804,24.7107],[-80.677,24.7379],[-80.6689,24.7566],[-80.6563,24.7668],[-80.615,24.7682],[-80.545,24.7607],[-80.5023,24.7465],[-80.487,24.7257],[-80.477,24.6751],[-80.4723,24.5948],[-80.455,24.552],[-80.425,24.5467],[-80.395,24.5506],[-80.365,24.5635],[-80.3473,24.5653],[-80.3419,24.5562],[-80.3469,24.5211],[-80.3623,24.4601],[-80.3862,24.4191],[-80.4187,24.3982],[-80.4474,24.365],[-80.4722,24.3194],[-80.4959,24.288],[-80.5186,24.2708],[-80.54,24.2642],[-80.56,24.2683],[-80.5797,24.2814],[-80.5992,24.3037],[-80.6094,24.3422],[-80.6105,24.3969],[-80.6279,24.4469],[-80.6616,24.4925],[-80.6794,24.5607],[-80.6812,24.6516],[-80.6804,24.7107]]]}},{"type":"Feature","properties":{"c":"#feb24c","v0":20.0,"v1":30.0},"geometry":{"type":"Polygon","coordinates":[[[-81.0751,24.4014],[-81.0658,24.4287],[-81.0484,24.453],[-81.0228,24.4743],[-80.995,24.4859],[-80.965,24.4878],[-80.9379,24.4818],[-80.9136,24.4677],[-80.8846,24.4242],[-80.8508,24.3513],[-80.8113,24.3012],[-80.7661,24.2738],[-80.7318,24.2146],[-80.7084,24.1233],[-80.7101,24.0527],[-80.7367,24.0028],[-80.775,23.9738],[-80.825,23.9657],[-80.8796,23.9815],[-80.9387,24.0213],[-80.9907,24.0868],[-81.0357,24.1781],[-81.0636,24.2647],[-81.0743,24.3468],[-81.0751,24.4014]],[[-81.0539,24.4094],[-81.0246,24.4527],[-80.995,24.4753],[-80.965,24.4773],[-80.94,24.4724],[-80.92,24.4604],[-80.8947,24.4195],[-80.8641,24.3498],[-80.8254,24.3012],[-80.7787,24.2738],[-80.7434,24.2146],[-80.7192,24.1233],[-80.7179,24.0558],[-80.7393,24.0119],[-80.775,23.9855],[-80.825,23.9765],[-80.8765,23.9893],[-80.9296,24.0239],[-80.9788,24.0868],[-81.0242,24.1781],[-81.0523,24.2647],[-81.0631,24.3468],[-81.0539,24.4094]]]}},{"type":"Feature","properties":{"c":"#fd8d3c","v0":30.0,"v1":40.0},"geometry":{"type":"Polygon","coordinates":[[[-100.6428,36.5341],[-100.6373,36.5582],[-100.6142,36.5943],[-100.5733,36.6425],[-100.4774,36.7066],[-100.3263,36.7868],[-100.248,36.8348],[-100.2424,36.8508],[-100.2507,36.8788],[-100.2729,36.9188],[-100.2802,36.9468],[-100.2723,36.9628],[-100.2538,36.9692],[-100.2246,36.9662],[-100.185,36.9301],[-100.135,36.8611],[-100.0861,36.8186],[-100.0384,36.8027],[-100.0184,36.7751],[-100.0261,36.7357],[-100.04,36.7157],[-100.06,36.7152],[-100.085,36.7258],[-100.115,36.7476],[-100.1388,36.7396],[-100.1564,36.7016],[-100.1764,36.6726],[-100.1988,36.6526],[-100.2483,36.6325],[-100.3248,36.6124],[-100.3784,36.5783],[-100.4091,36.5301],[-100.4258,36.4784],[-100.4286,36.4232],[-100.445,36.3833],[-100.475,36.3587],[-100.501,36.3461],[-100.5231,36.3454],[-100.5531,36.3681],[-100.591,36.4144],[-100.6189,36.4586],[-100.6366,36.5009],[-100.6428,36.5341]],[[-100.6178,36.5327],[-100.6126,36.5542],[-100.5917,36.5863],[-100.5551,36.6291],[-100.4574,36.6946],[-100.2985,36.7828],[-100.2179,36.8388],[-100.2155,36.8628],[-100.2248,36.8908],[-100.2458,36.9228],[-100.2497,36.9412],[-100.2366,36.946],[-100.2044,36.91],[-100.1533,36.8332],[-100.1374,36.7868],[-100.1569,36.7708],[-100.1737,36.7427],[-100.1879,36.7026],[-100.2088,36.6734],[-100.2363,36.6551],[-100.27,36.6456],[-100.31,36.6449],[-100.3428,36.6381],[-100.3684,36.625],[-100.3983,36.5903],[-100.4325,36.5341],[-100.4494,36.4818],[-100.4491,36.4336],[-100.4592,36.4002],[-100.4797,36.3818],[-100.495,36.371],[-100.505,36.3679],[-100.5254,36.3811],[-100.5563,36.4107],[-100.5839,36.4497],[-100.6083,36.4979],[-100.6178,36.5327]],[[-100.0667,36.7788],[-100.0495,36.7788],[-100.0432,36.7695],[-100.0477,36.7509],[-100.0563,36.7509],[-100.069,36.7695],[-100.0667,36.7788]]]}},{"type":"Feature","properties":{"c":"#fd8d3c","v0":30.0,"v1":40.0},"geometry":{"type":"Polygon","coordinates":[[[-108.2015,35.7072],[-108.1938,35.7259],[-108.15,35.7422],[-108.07,35.7562],[-108.0214,35.7712],[-108.0041,35.7873],[-107.9963,35.8197],[-107.9979,35.8683],[-108.0238,35.9331],[-108.0741,36.014],[-108.0969,36.0603],[-108.0923,36.072],[-108.07,36.0771],[-108.03,36.0757],[-107.98,36.0842],[-107.92,36.1026],[-107.865,36.1292],[-107.815,36.164],[-107.76,36.1793],[-107.7,36.1752],[-107.6,36.1855],[-107.46,36.2103],[-107.38,36.2206],[-107.36,36.2164],[-107.3477,36.2027],[-107.3431,36.1793],[-107.3681,36.1179],[-107.4227,36.0183],[-107.495,35.9257],[-107.585,35.8402],[-107.6704,35.7685],[-107.7511,35.7106],[-107.8111,35.653],[-107.8504,35.5956],[-107.895,35.5555],[-107.945,35.5327],[-107.99,35.5219],[-108.03,35.5232],[-108.065,35.5498],[-108.095,35.6016],[-108.1338,35.6451],[-108.1815,35.6803],[-108.2015,35.7072]],[[-108.1802,35.7048],[-108.1734,35.7186],[-108.13,35.7319],[-108.05,35.7447],[-108.0026,35.7581],[-107.9878,35.7721],[-107.9799,35.8075],[-107.9789,35.8642],[-107.9973,35.9331],[-108.0354,36.014],[-108.0083,36.0657],[-107.9161,36.0882],[-107.8473,36.1165],[-107.8019,36.1505],[-107.7469,36.1653],[-107.6823,36.1608],[-107.5789,36.1689],[-107.4366,36.1895],[-107.3648,36.1918],[-107.3634,36.1757],[-107.3891,36.1191],[-107.4419,36.0221],[-107.4905,35.9574],[-107.535,35.925],[-107.5778,35.8845],[-107.6189,35.8359],[-107.6839,35.7791],[-107.7727,35.7142],[-107.8353,35.655],[-107.8718,35.6017],[-107.91,35.5656],[-107.95,35.5467],[-107.9854,35.5368],[-108.0161,35.5358],[-108.0383,35.5394],[-108.052,35.5475],[-108.0668,35.5719],[-108.0828,35.6126],[-108.1139,35.6492],[-108.1603,35.6817],[-108.1802,35.7048]]]}},{"type":"Feature","properties":{"c":"#fd8d3c","v0":30.0,"v1":40.0},"geometry":{"type":"Polygon","coordinates":[[[-96.6028,29.1013],[-96.5895,29.1362],[-96.5646,29.1599],[-96.5282,29.1723],[-96.491,29.1723],[-96.453,29.1599],[-96.4191,29.1362],[-96.3894,29.1013],[-96.3717,29.062],[-96.3658,29.0182],[-96.3746,28.9499],[-96.3982,28.857],[-96.425,28.809],[-96.455,28.806],[-96.48,28.8129],[-96.5,28.8297],[-96.5349,28.8996],[-96.5846,29.0225],[-96.6028,29.1013]],[[-96.5892,29.0997],[-96.5764,29.1316],[-96.555,29.1522],[-96.525,29.1617],[-96.495,29.1624],[-96.465,29.1541],[-96.435,29.1332],[-96.405,29.0996],[-96.3859,29.07],[-96.3778,29.0442],[-96.3789,28.992],[-96.3892,28.9132],[-96.4032,28.8591],[-96.4211,28.8295],[-96.4462,28.8207],[-96.4785,28.8328],[-96.5199,28.9001],[-96.5704,29.0226],[-96.5892,29.0997]]]}},{"type":"Feature","properties":{"c":"#fd8d3c","v0":30.0,"v1":40.0},"geometry":{"type":"Polygon","coordinates":[[[-100.2415,27.1122],[-100.2167,27.1567],[-100.2156,27.1967],[-100.2382,27.2323],[-100.2484,27.259],[-100.2463,27.2768],[-100.2265,27.2929],[-100.1888,27.3075],[-100.155,27.3077],[-100.125,27.2936],[-100.1,27.2674],[-100.08,27.2289],[-100.0348,27.2065],[-99.9643,27.2],[-99.9142,27.1834],[-99.8846,27.1567],[-99.8759,27.1167],[-99.888,27.0632],[-99.908,27.0262],[-99.936,27.0055],[-99.97,26.9965],[-100.01,26.9992],[-100.05,27.0096],[-100.09,27.0276],[-100.135,27.0322],[-100.185,27.0235],[-100.2174,27.0235],[-100.2323,27.0322],[-100.2432,27.0499],[-100.2503,27.0766],[-100.2415,27.1122]],[[-100.235,27.0996],[-100.2317,27.119],[-100.2168,27.1412],[-100.1905,27.1664],[-100.1908,27.1967],[-100.2176,27.2323],[-100.2283,27.259],[-100.2229,27.2768],[-100.2126,27.2883],[-100.1975,27.2934],[-100.1751,27.2934],[-100.1452,27.2883],[-100.1152,27.2613],[-100.0851,27.2124],[-100.035,27.1863],[-99.965,27.183],[-99.9194,27.1718],[-99.8981,27.1529],[-99.8931,27.1177],[-99.9044,27.0663],[-99.92,27.0334],[-99.94,27.0189],[-99.97,27.0128],[-100.01,27.0151],[-100.05,27.0255],[-100.09,27.0442],[-100.135,27.049],[-100.185,27.04],[-100.2167,27.0492],[-100.23,27.0764],[-100.235,27.0996]]]}},{"type":"Feature","properties":{"c":"#fd8d3c","v0":30.0,"v1":40.0},"geometry":{"type":"Polygon","coordinates":[[[-80.0304,24.9829],[-80.0233,25.0101],[-80.0123,25.0281],[-79.9974,25.0368],[-79.95,25.0432],[-79.87,25.0473],[-79.815,25.0559],[-79.785,25.0691],[-79.7412,25.1125],[-79.6837,25.1861],[-79.6503,25.2501],[-79.641,25.3043],[-79.6098,25.3379],[-79.5566,25.3508],[-79.5215,25.3643],[-79.5045,25.3786],[-79.4948,25.4173],[-79.4923,25.4805],[-79.4808,25.5292],[-79.4603,25.5633],[-79.425,25.5904],[-79.375,25.6106],[-79.335,25.6161],[-79.3051,25.6069],[-79.2867,25.5753],[-79.2798,25.5211],[-79.2647,25.467],[-79.2413,25.4128],[-79.2334,25.3721],[-79.2409,25.345],[-79.256,25.3215],[-79.2787,25.3015],[-79.32,25.2848],[-79.38,25.2713],[-79.4166,25.236],[-79.4297,25.179],[-79.4897,25.1087],[-79.5966,25.025],[-79.6643,24.9616],[-79.693,24.9184],[-79.723,24.8914],[-79.7543,24.8808],[-79.815,24.8735],[-79.905,24.8698],[-79.968,24.8797],[-80.004,24.9032],[-80.025,24.9285],[-80.031,24.9557],[-80.0304,24.9829]],[[-80.0163,24.9852],[-79.9988,25.0168],[-79.95,25.0346],[-79.87,25.0387],[-79.815,25.0469],[-79.785,25.0593],[-79.7383,25.1049],[-79.6749,25.1836],[-79.6383,25.2501],[-79.6286,25.3043],[-79.5989,25.336],[-79.5492,25.345],[-79.5145,25.3586],[-79.4948,25.3766],[-79.4843,25.4173],[-79.483,25.4805],[-79.4747,25.5256],[-79.4594,25.5527],[-79.4313,25.5772],[-79.3904,25.5991],[-79.3536,25.6081],[-79.3208,25.6042],[-79.2893,25.5392],[-79.259,25.4128],[-79.2588,25.336],[-79.2886,25.3088],[-79.3302,25.2905],[-79.3834,25.281],[-79.4196,25.2449],[-79.4389,25.182],[-79.501,25.1098],[-79.6059,25.0283],[-79.6712,24.9671],[-79.6971,24.9263],[-79.72,24.9008],[-79.74,24.8908],[-79.795,24.8827],[-79.885,24.8766],[-79.95,24.8836],[-79.99,24.9038],[-80.0138,24.9278],[-80.0213,24.9555],[-80.0163,24.9852]]]}},{"type":"Feature","properties":{"c":"#fd8d3c","v0":30.0,"v1":40.0},"geometry":{"type":"Polygon","coordinates":[[[-84.9758,24.7561],[-84.9257,24.8015],[-84.863,24.8446],[-84.7877,24.8853],[-84.685,24.8712],[-84.555,24.8022],[-84.4816,24.7546],[-84.4648,24.7283],[-84.4555,24.688],[-84.4538,24.6334],[-84.4649,24.5516],[-84.489,24.4424],[-84.5122,24.3695],[-84.5347,24.3331],[-84.572,24.3119],[-84.624,24.306],[-84.6622,24.3151],[-84.6867,24.3392],[-84.7084,24.3923],[-84.7272,24.4743],[-84.7224,24.547],[-84.6937,24.6107],[-84.6834,24.6562],[-84.6914,24.6834],[-84.7041,24.7002],[-84.7214,24.7064],[-84.7411,24.6928],[-84.7632,24.6593],[-84.7982,24.6367],[-84.8461,24.6249],[-84.9,24.6385],[-84.96,24.6774],[-84.9927,24.706],[-84.9982,24.7243],[-84.9758,24.7561]],[[-84.9432,24.7379],[-84.9082,24.7833],[-84.8555,24.8253],[-84.7852,24.8639],[-84.6888,24.8503],[-84.5665,24.7845],[-84.498,24.7379],[-84.4835,24.7107],[-84.4761,24.6743],[-84.4759,24.6289],[-84.4867,24.5561],[-84.5085,24.456],[-84.5295,24.3878],[-84.5497,24.3513],[-84.5824,24.3315],[-84.6275,24.3282],[-84.6578,24.3373],[-84.6733,24.3588],[-84.6892,24.406],[-84.7052,24.4788],[-84.6986,24.5516],[-84.6692,24.6243],[-84.6634,24.6784],[-84.6811,24.7138],[-84.704,24.732],[-84.732,24.7329],[-84.757,24.7148],[-84.779,24.6777],[-84.805,24.6542],[-84.835,24.6445],[-84.8648,24.6449],[-84.8944,24.6554],[-84.9221,24.6743],[-84.9478,24.7016],[-84.9432,24.7379]]]}},{"type":"Feature","properties":{"c":"#fd8d3c","v0":30.0,"v1":40.0},"geometry":{"type":"Polygon","coordinates":[[[-80.6804,24.7107],[-80.677,24.7379],[-80.6689,24.7566],[-80.6563,24.7668],[-80.615,24.7682],[-80.545,24.7607],[-80.5023,24.7465],[-80.487,24.7257],[-80.477,24.6751],[-80.4723,24.5948],[-80.455,24.552],[-80.425,24.5467],[-80.395,24.5506],[-80.365,24.5635],[-80.3473,24.5653],[-80.3419,24.5562],[-80.3469,24.5211],[-80.3623,24.4601],[-80.3862,24.4191],[-80.4187,24.3982],[-80.4474,24.365],[-80.4722,24.3194],[-80.4959,24.288],[-80.5186,24.2708],[-80.54,24.2642],[-80.56,24.2683],[-80.5797,24.2814],[-80.5992,24.3037],[-80.6094,24.3422],[-80.6105,24.3969],[-80.6279,24.4469],[-80.6616,24.4925],[-80.6794,24.5607],[-80.6812,24.6516],[-80.6804,24.7107]],[[-80.6653,24.7121],[-80.6551,24.7421],[-80.615,24.7535],[-80.545,24.7462],[-80.5045,24.6948],[-80.4936,24.5994],[-80.4586,24.547],[-80.3995,24.538],[-80.3717,24.5107],[-80.3753,24.4651],[-80.3964,24.4287],[-80.435,24.4014],[-80.4732,24.3596],[-80.5111,24.3033],[-80.5463,24.285],[-80.5788,24.3049],[-80.5958,24.3422],[-80.5971,24.3969],[-80.6147,24.4469],[-80.6485,24.4925],[-80.6666,24.5607],[-80.6691,24.6516],[-80.6653,24.7121]]]}},{"type":"Feature","properties":{"c":"#fd8d3c","v0":30.0,"v1":40.0},"geometry":{"type":"Polygon","coordinates":[[[-81.0539,24.4094],[-81.0246,24.4527],[-80.995,24.4753],[-80.965,24.4773],[-80.94,24.4724],[-80.92,24.4604],[-80.8947,24.4195],[-80.8641,24.3498],[-80.8254,24.3012],[-80.7787,24.2738],[-80.7434,24.2146],[-80.7192,24.1233],[-80.7179,24.0558],[-80.7393,24.0119],[-80.775,23.9855],[-80.825,23.9765],[-80.8765,23.9893],[-80.9296,24.0239],[-80.9788,24.0868],[-81.0242,24.1781],[-81.0523,24.2647],[-81.0631,24.3468],[-81.0539,24.4094]],[[-81.0495,24.406],[-81.0285,24.4424],[-81.001,24.463],[-80.967,24.4678],[-80.94,24.4625],[-80.92,24.4472],[-80.895,24.4051],[-80.865,24.3361],[-80.8289,24.2912],[-80.7868,24.2705],[-80.7533,24.2146],[-80.7284,24.1233],[-80.7198,24.064],[-80.7274,24.0366],[-80.7409,24.014],[-80.7603,23.9963],[-80.79,23.9857],[-80.83,23.9822],[-80.8774,24.0002],[-80.9321,24.0397],[-80.9791,24.1005],[-81.0184,24.1826],[-81.0435,24.2647],[-81.0544,24.3468],[-81.0495,24.406]]]}},{"type":"Feature","properties":{"c":"#fc4e2a","v0":40.0,"v1":50.0},"geometry":{"type":"Polygon","coordinates":[[[-100.6178,36.5327],[-100.6126,36.5542],[-100.5917,36.5863],[-100.5551,36.6291],[-100.4574,36.6946],[-100.2985,36.7828],[-100.2179,36.8388],[-100.2155,36.8628],[-100.2248,36.8908],[-100.2458,36.9228],[-100.2497,36.9412],[-100.2366,36.946],[-100.2044,36.91],[-100.1533,36.8332],[-100.1374,36.7868],[-100.1569,36.7708],[-100.1737,36.7427],[-100.1879,36.7026],[-100.2088,36.6734],[-100.2363,36.6551],[-100.27,36.6456],[-100.31,36.6449],[-100.3428,36.6381],[-100.3684,36.625],[-100.3983,36.5903],[-100.4325,36.5341],[-100.4494,36.4818],[-100.4491,36.4336],[-100.4592,36.4002],[-100.4797,36.3818],[-100.495,36.371],[-100.505,36.3679],[-100.5254,36.3811],[-100.5563,36.4107],[-100.5839,36.4497],[-100.6083,36.4979],[-100.6178,36.5327]]]}},{"type":"Feature","properties":{"c":"#fc4e2a","v0":40.0,"v1":50.0},"geometry":{"type":"Polygon","coordinates":[[[-100.0667,36.7788],[-100.0495,36.7788],[-100.0432,36.7695],[-100.0477,36.7509],[-100.0563,36.7509],[-100.069,36.7695],[-100.0667,36.7788]]]}},{"type":"Feature","properties":{"c":"#fc4e2a","v0":40.0,"v1":50.0},"geometry":{"type":"Polygon","coordinates":[[[-108.1802,35.7048],[-108.1734,35.7186],[-108.13,35.7319],[-108.05,35.7447],[-108.0026,35.7581],[-107.9878,35.7721],[-107.9799,35.8075],[-107.9789,35.8642],[-107.9973,35.9331],[-108.0354,36.014],[-108.0083,36.0657],[-107.9161,36.0882],[-107.8473,36.1165],[-107.8019,36.1505],[-107.7469,36.1653],[-107.6823,36.1608],[-107.5789,36.1689],[-107.4366,36.1895],[-107.3648,36.1918],[-107.3634,36.1757],[-107.3891,36.1191],[-107.4419,36.0221],[-107.4905,35.9574],[-107.535,35.925],[-107.5778,35.8845],[-107.6189,35.8359],[-107.6839,35.7791],[-107.7727,35.7142],[-107.8353,35.655],[-107.8718,35.6017],[-107.91,35.5656],[-107.95,35.5467],[-107.9854,35.5368],[-108.0161,35.5358],[-108.0383,35.5394],[-108.052,35.5475],[-108.0668,35.5719],[-108.0828,35.6126],[-108.1139,35.6492],[-108.1603,35.6817],[-108.1802,35.7048]]]}},{"type":"Feature","properties":{"c":"#fc4e2a","v0":40.0,"v1":50.0},"geometry":{"type":"Polygon","coordinates":[[[-96.5892,29.0997],[-96.5764,29.1316],[-96.555,29.1522],[-96.525,29.1617],[-96.495,29.1624],[-96.465,29.1541],[-96.435,29.1332],[-96.405,29.0996],[-96.3859,29.07],[-96.3778,29.0442],[-96.3789,28.992],[-96.3892,28.9132],[-96.4032,28.8591],[-96.4211,28.8295],[-96.4462,28.8207],[-96.4785,28.8328],[-96.5199,28.9001],[-96.5704,29.0226],[-96.5892,29.0997]],[[-96.5728,29.0969],[-96.5627,29.1231],[-96.5458,29.1403],[-96.5219,29.1485],[-96.4969,29.1485],[-96.4707,29.1403],[-96.4431,29.1188],[-96.414,29.0838],[-96.3971,29.0527],[-96.3924,29.0255],[-96.4,28.9674],[-96.42,28.8783],[-96.44,28.8344],[-96.46,28.8358],[-96.475,28.8428],[-96.485,28.8554],[-96.512,28.9172],[-96.5559,29.0283],[-96.5728,29.0969]]]}},{"type":"Feature","properties":{"c":"#fc4e2a","v0":40.0,"v1":50.0},"geometry":{"type":"Polygon","coordinates":[[[-100.235,27.0996],[-100.2317,27.119],[-100.2168,27.1412],[-100.1905,27.1664],[-100.1908,27.1967],[-100.2176,27.2323],[-100.2283,27.259],[-100.2229,27.2768],[-100.2126,27.2883],[-100.1975,27.2934],[-100.1751,27.2934],[-100.1452,27.2883],[-100.1152,27.2613],[-100.0851,27.2124],[-100.035,27.1863],[-99.965,27.183],[-99.9194,27.1718],[-99.8981,27.1529],[-99.8931,27.1177],[-99.9044,27.0663],[-99.92,27.0334],[-99.94,27.0189],[-99.97,27.0128],[-100.01,27.0151],[-100.05,27.0255],[-100.09,27.0442],[-100.135,27.049],[-100.185,27.04],[-100.2167,27.0492],[-100.23,27.0764],[-100.235,27.0996]],[[-100.1786,27.2546],[-100.1723,27.2634],[-100.1641,27.259],[-100.154,27.2412],[-100.1572,27.2368],[-100.1736,27.2457],[-100.1786,27.2546]],[[-100.1857,27.1131],[-100.1486,27.1593],[-100.115,27.1751],[-100.085,27.1605],[-100.04,27.1536],[-99.98,27.1546],[-99.9422,27.1477],[-99.9265,27.1329],[-99.9215,27.112],[-99.9272,27.0847],[-99.94,27.0632],[-99.96,27.0475],[-100.005,27.0511],[-100.075,27.0742],[-100.13,27.081],[-100.17,27.0717],[-100.1936,27.0727],[-100.2007,27.0842],[-100.1857,27.1131]]]}},{"type":"Feature","properties":{"c":"#fc4e2a","v0":40.0,"v1":50.0},"geometry":{"type":"Polygon","coordinates":[[[-80.0163,24.9852],[-79.9988,25.0168],[-79.95,25.0346],[-79.87,25.0387],[-79.815,25.0469],[-79.785,25.0593],[-79.7383,25.1049],[-79.6749,25.1836],[-79.6383,25.2501],[-79.6286,25.3043],[-79.5989,25.336],[-79.5492,25.345],[-79.5145,25.3586],[-79.4948,25.3766],[-79.4843,25.4173],[-79.483,25.4805],[-79.4747,25.5256],[-79.4594,25.5527],[-79.4313,25.5772],[-79.3904,25.5991],[-79.3536,25.6081],[-79.3208,25.6042],[-79.2893,25.5392],[-79.259,25.4128],[-79.2588,25.336],[-79.2886,25.3088],[-79.3302,25.2905],[-79.3834,25.281],[-79.4196,25.2449],[-79.4389,25.182],[-79.501,25.1098],[-79.6059,25.0283],[-79.6712,24.9671],[-79.6971,24.9263],[-79.72,24.9008],[-79.74,24.8908],[-79.795,24.8827],[-79.885,24.8766],[-79.95,24.8836],[-79.99,24.9038],[-80.0138,24.9278],[-80.0213,24.9555],[-80.0163,24.9852]],[[-80.0102,24.983],[-79.9967,25.0103],[-79.95,25.0263],[-79.87,25.0309],[-79.81,25.043],[-79.77,25.0626],[-79.7207,25.1101],[-79.6621,25.1853],[-79.6313,25.2455],[-79.6284,25.2908],[-79.6177,25.3196],[-79.5992,25.3319],[-79.57,25.3401],[-79.53,25.344],[-79.5013,25.3558],[-79.4838,25.3757],[-79.4748,25.4173],[-79.4743,25.4805],[-79.468,25.523],[-79.456,25.5449],[-79.43,25.5674],[-79.39,25.5905],[-79.355,25.6004],[-79.325,25.5971],[-79.2958,25.534],[-79.2675,25.411],[-79.2675,25.3374],[-79.2958,25.3132],[-79.3381,25.2952],[-79.3944,25.2832],[-79.4294,25.2484],[-79.4431,25.1907],[-79.505,25.1184],[-79.615,25.0313],[-79.6806,24.9695],[-79.7017,24.9331],[-79.7217,24.9096],[-79.7406,24.8989],[-79.795,24.8908],[-79.885,24.8853],[-79.9474,24.8906],[-79.9821,24.9068],[-80.0038,24.9285],[-80.0126,24.9557],[-80.0102,24.983]]]}},{"type":"Feature","properties":{"c":"#fc4e2a","v0":40.0,"v1":50.0},"geometry":{"type":"Polygon","coordinates":[[[-84.9432,24.7379],[-84.9082,24.7833],[-84.8555,24.8253],[-84.7852,24.8639],[-84.6888,24.8503],[-84.5665,24.7845],[-84.498,24.7379],[-84.4835,24.7107],[-84.4761,24.6743],[-84.4759,24.6289],[-84.4867,24.5561],[-84.5085,24.456],[-84.5295,24.3878],[-84.5497,24.3513],[-84.5824,24.3315],[-84.6275,24.3282],[-84.6578,24.3373],[-84.6733,24.3588],[-84.6892,24.406],[-84.7052,24.4788],[-84.6986,24.5516],[-84.6692,24.6243],[-84.6634,24.6784],[-84.6811,24.7138],[-84.704,24.732],[-84.732,24.7329],[-84.757,24.7148],[-84.779,24.6777],[-84.805,24.6542],[-84.835,24.6445],[-84.8648,24.6449],[-84.8944,24.6554],[-84.9221,24.6743],[-84.9478,24.7016],[-84.9432,24.7379]]]}},{"type":"Feature","properties":{"c":"#fc4e2a","v0":40.0,"v1":50.0},"geometry":{"type":"Polygon","coordinates":[[[-80.6653,24.7121],[-80.6551,24.7421],[-80.615,24.7535],[-80.545,24.7462],[-80.5045,24.6948],[-80.4936,24.5994],[-80.4586,24.547],[-80.3995,24.538],[-80.3717,24.5107],[-80.3753,24.4651],[-80.3964,24.4287],[-80.435,24.4014],[-80.4732,24.3596],[-80.5111,24.3033],[-80.5463,24.285],[-80.5788,24.3049],[-80.5958,24.3422],[-80.5971,24.3969],[-80.6147,24.4469],[-80.6485,24.4925],[-80.6666,24.5607],[-80.6691,24.6516],[-80.6653,24.7121]],[[-80.6493,24.7091],[-80.6364,24.733],[-80.6035,24.7421],[-80.5506,24.7363],[-80.5193,24.7243],[-80.5095,24.7061],[-80.5053,24.6607],[-80.5069,24.588],[-80.4773,24.538],[-80.4167,24.5107],[-80.3883,24.4834],[-80.3922,24.456],[-80.4131,24.4295],[-80.451,24.4039],[-80.485,24.3661],[-80.515,24.3162],[-80.542,24.2971],[-80.566,24.309],[-80.5792,24.3422],[-80.5814,24.3969],[-80.5996,24.4469],[-80.6337,24.4925],[-80.652,24.5607],[-80.6545,24.6516],[-80.6493,24.7091]]]}},{"type":"Feature","properties":{"c":"#fc4e2a","v0":40.0,"v1":50.0},"geometry":{"type":"Polygon","coordinates":[[[-81.0495,24.406],[-81.0285,24.4424],[-81.001,24.463],[-80.967,24.4678],[-80.94,24.4625],[-80.92,24.4472],[-80.895,24.4051],[-80.865,24.3361],[-80.8289,24.2912],[-80.7868,24.2705],[-80.7533,24.2146],[-80.7284,24.1233],[-80.7198,24.064],[-80.7274,24.0366],[-80.7409,24.014],[-80.7603,23.9963],[-80.79,23.9857],[-80.83,23.9822],[-80.8774,24.0002],[-80.9321,24.0397],[-80.9791,24.1005],[-81.0184,24.1826],[-81.0435,24.2647],[-81.0544,24.3468],[-81.0495,24.406]],[[-81.041,24.4049],[-81.0203,24.4391],[-80.9942,24.4573],[-80.9627,24.4595],[-80.9245,24.4196],[-80.8797,24.3376],[-80.8372,24.2875],[-80.7973,24.2693],[-80.764,24.2146],[-80.7374,24.1233],[-80.7356,24.0574],[-80.7585,24.0167],[-80.79,23.9945],[-80.83,23.9909],[-80.8749,24.0066],[-80.9248,24.0418],[-80.9698,24.1012],[-81.0099,24.1848],[-81.0353,24.2669],[-81.046,24.3475],[-81.041,24.4049]]]}},{"type":"Feature","properties":{"c":"#e31a1c","v0":50.0,"v1":60.0},"geometry":{"type":"Polygon","coordinates":[[[-96.5728,29.0969],[-96.5627,29.1231],[-96.5458,29.1403],[-96.5219,29.1485],[-96.4969,29.1485],[-96.4707,29.1403],[-96.4431,29.1188],[-96.414,29.0838],[-96.3971,29.0527],[-96.3924,29.0255],[-96.4,28.9674],[-96.42,28.8783],[-96.44,28.8344],[-96.46,28.8358],[-96.475,28.8428],[-96.485,28.8554],[-96.512,28.9172],[-96.5559,29.0283],[-96.5728,29.0969]]]}},{"type":"Feature","properties":{"c":"#e31a1c","v0":50.0,"v1":60.0},"geometry":{"type":"Polygon","coordinates":[[[-100.1786,27.2546],[-100.1723,27.2634],[-100.1641,27.259],[-100.154,27.2412],[-100.1572,27.2368],[-100.1736,27.2457],[-100.1786,27.2546]]]}},{"type":"Feature","properties":{"c":"#e31a1c","v0":50.0,"v1":60.0},"geometry":{"type":"Polygon","coordinates":[[[-100.1857,27.1131],[-100.1486,27.1593],[-100.115,27.1751],[-100.085,27.1605],[-100.04,27.1536],[-99.98,27.1546],[-99.9422,27.1477],[-99.9265,27.1329],[-99.9215,27.112],[-99.9272,27.0847],[-99.94,27.0632],[-99.96,27.0475],[-100.005,27.0511],[-100.075,27.0742],[-100.13,27.081],[-100.17,27.0717],[-100.1936,27.0727],[-100.2007,27.0842],[-100.1857,27.1131]]]}},{"type":"Feature","properties":{"c":"#e31a1c","v0":50.0,"v1":60.0},"geometry":{"type":"Polygon","coordinates":[[[-80.0102,24.983],[-79.9967,25.0103],[-79.95,25.0263],[-79.87,25.0309],[-79.81,25.043],[-79.77,25.0626],[-79.7207,25.1101],[-79.6621,25.1853],[-79.6313,25.2455],[-79.6284,25.2908],[-79.6177,25.3196],[-79.5992,25.3319],[-79.57,25.3401],[-79.53,25.344],[-79.5013,25.3558],[-79.4838,25.3757],[-79.4748,25.4173],[-79.4743,25.4805],[-79.468,25.523],[-79.456,25.5449],[-79.43,25.5674],[-79.39,25.5905],[-79.355,25.6004],[-79.325,25.5971],[-79.2958,25.534],[-79.2675,25.411],[-79.2675,25.3374],[-79.2958,25.3132],[-79.3381,25.2952],[-79.3944,25.2832],[-79.4294,25.2484],[-79.4431,25.1907],[-79.505,25.1184],[-79.615,25.0313],[-79.6806,24.9695],[-79.7017,24.9331],[-79.7217,24.9096],[-79.7406,24.8989],[-79.795,24.8908],[-79.885,24.8853],[-79.9474,24.8906],[-79.9821,24.9068],[-80.0038,24.9285],[-80.0126,24.9557],[-80.0102,24.983]],[[-79.9989,24.9822],[-79.9796,25.0079],[-79.935,25.022],[-79.865,25.0245],[-79.81,25.0346],[-79.77,25.0523],[-79.7325,25.0881],[-79.6975,25.1418],[-79.6675,25.1777],[-79.6424,25.1958],[-79.6264,25.232],[-79.6196,25.2862],[-79.5896,25.3189],[-79.5365,25.3301],[-79.5014,25.3437],[-79.4843,25.3596],[-79.4682,25.4128],[-79.4531,25.5031],[-79.4267,25.5596],[-79.3889,25.5824],[-79.3551,25.5914],[-79.3253,25.5867],[-79.2986,25.5256],[-79.2749,25.4083],[-79.2748,25.3396],[-79.2983,25.3196],[-79.34,25.3029],[-79.4,25.2893],[-79.4365,25.254],[-79.4494,25.1971],[-79.5094,25.1265],[-79.6165,25.0422],[-79.6836,24.9788],[-79.7108,24.9362],[-79.7758,24.909],[-79.8786,24.8971],[-79.945,24.8978],[-79.975,24.9109],[-79.9946,24.9304],[-80.0039,24.9564],[-79.9989,24.9822]]]}},{"type":"Feature","properties":{"c":"#e31a1c","v0":50.0,"v1":60.0},"geometry":{"type":"Polygon","coordinates":[[[-80.6493,24.7091],[-80.6364,24.733],[-80.6035,24.7421],[-80.5506,24.7363],[-80.5193,24.7243],[-80.5095,24.7061],[-80.5053,24.6607],[-80.5069,24.588],[-80.4773,24.538],[-80.4167,24.5107],[-80.3883,24.4834],[-80.3922,24.456],[-80.4131,24.4295],[-80.451,24.4039],[-80.485,24.3661],[-80.515,24.3162],[-80.542,24.2971],[-80.566,24.309],[-80.5792,24.3422],[-80.5814,24.3969],[-80.5996,24.4469],[-80.6337,24.4925],[-80.652,24.5607],[-80.6545,24.6516],[-80.6493,24.7091]],[[-80.6268,24.7028],[-80.6156,24.7144],[-80.59,24.7156],[-80.55,24.7066],[-80.5293,24.6599],[-80.5278,24.5756],[-80.4979,24.5198],[-80.4396,24.4925],[-80.43,24.4606],[-80.4691,24.4242],[-80.499,24.3849],[-80.5197,24.3427],[-80.5364,24.3245],[-80.5493,24.3302],[-80.558,24.3604],[-80.5624,24.4151],[-80.5809,24.4645],[-80.6136,24.5086],[-80.6306,24.5723],[-80.6318,24.6555],[-80.6268,24.7028]]]}},{"type":"Feature","properties":{"c":"#e31a1c","v0":50.0,"v1":60.0},"geometry":{"type":"Polygon","coordinates":[[[-81.041,24.4049],[-81.0203,24.4391],[-80.9942,24.4573],[-80.9627,24.4595],[-80.9245,24.4196],[-80.8797,24.3376],[-80.8372,24.2875],[-80.7973,24.2693],[-80.764,24.2146],[-80.7374,24.1233],[-80.7356,24.0574],[-80.7585,24.0167],[-80.79,23.9945],[-80.83,23.9909],[-80.8749,24.0066],[-80.9248,24.0418],[-80.9698,24.1012],[-81.0099,24.1848],[-81.0353,24.2669],[-81.046,24.3475],[-81.041,24.4049]],[[-81.0341,24.4025],[-81.018,24.432],[-80.995,24.4482],[-80.965,24.4512],[-80.9295,24.4137],[-80.8886,24.3357],[-80.8453,24.283],[-80.7996,24.2556],[-80.7658,24.2009],[-80.7437,24.1188],[-80.7424,24.0594],[-80.7618,24.0229],[-80.7911,24.0029],[-80.8304,23.9994],[-80.875,24.017],[-80.925,24.0555],[-80.9689,24.1166],[-81.0066,24.2002],[-81.0297,24.2784],[-81.038,24.3513],[-81.0341,24.4025]]]}},{"type":"Feature","properties":{"c":"#bd0026","v0":60.0,"v1":75.0},"geometry":{"type":"Polygon","coordinates":[[[-79.9989,24.9822],[-79.9796,25.0079],[-79.935,25.022],[-79.865,25.0245],[-79.81,25.0346],[-79.77,25.0523],[-79.7325,25.0881],[-79.6975,25.1418],[-79.6675,25.1777],[-79.6424,25.1958],[-79.6264,25.232],[-79.6196,25.2862],[-79.5896,25.3189],[-79.5365,25.3301],[-79.5014,25.3437],[-79.4843,25.3596],[-79.4682,25.4128],[-79.4531,25.5031],[-79.4267,25.5596],[-79.3889,25.5824],[-79.3551,25.5914],[-79.3253,25.5867],[-79.2986,25.5256],[-79.2749,25.4083],[-79.2748,25.3396],[-79.2983,25.3196],[-79.34,25.3029],[-79.4,25.2893],[-79.4365,25.254],[-79.4494,25.1971],[-79.5094,25.1265],[-79.6165,25.0422],[-79.6836,24.9788],[-79.7108,24.9362],[-79.7758,24.909],[-79.8786,24.8971],[-79.945,24.8978],[-79.975,24.9109],[-79.9946,24.9304],[-80.0039,24.9564],[-79.9989,24.9822]],[[-79.9876,24.9786],[-79.9759,24.9972],[-79.93,25.0087],[-79.85,25.013],[-79.7903,25.0263],[-79.751,25.0488],[-79.716,25.084],[-79.6853,25.1321],[-79.6551,25.1683],[-79.6252,25.1927],[-79.61,25.2275],[-79.6094,25.2727],[-79.6043,25.3],[-79.5948,25.3095],[-79.57,25.3152],[-79.53,25.3173],[-79.4966,25.3307],[-79.4699,25.3553],[-79.4558,25.3992],[-79.4542,25.4624],[-79.4475,25.5068],[-79.4358,25.5323],[-79.415,25.5537],[-79.385,25.571],[-79.36,25.5789],[-79.34,25.5776],[-79.315,25.5292],[-79.2849,25.4335],[-79.2727,25.3766],[-79.2783,25.3586],[-79.3205,25.336],[-79.3991,25.3088],[-79.4463,25.2656],[-79.4621,25.2063],[-79.5239,25.1339],[-79.6317,25.0484],[-79.6967,24.9866],[-79.7189,24.9485],[-79.78,24.9238],[-79.88,24.9124],[-79.9434,24.9133],[-79.9701,24.9265],[-79.986,24.9421],[-79.9909,24.9603],[-79.9876,24.9786]]]}},{"type":"Feature","properties":{"c":"#bd0026","v0":60.0,"v1":75.0},"geometry":{"type":"Polygon","coordinates":[[[-80.6268,24.7028],[-80.6156,24.7144],[-80.59,24.7156],[-80.55,24.7066],[-80.5293,24.6599],[-80.5278,24.5756],[-80.4979,24.5198],[-80.4396,24.4925],[-80.43,24.4606],[-80.4691,24.4242],[-80.499,24.3849],[-80.5197,24.3427],[-80.5364,24.3245],[-80.5493,24.3302],[-80.558,24.3604],[-80.5624,24.4151],[-80.5809,24.4645],[-80.6136,24.5086],[-80.6306,24.5723],[-80.6318,24.6555],[-80.6268,24.7028]]]}},{"type":"Feature","properties":{"c":"#bd0026","v0":60.0,"v1":75.0},"geometry":{"type":"Polygon","coordinates":[[[-81.0341,24.4025],[-81.018,24.432],[-80.995,24.4482],[-80.965,24.4512],[-80.9295,24.4137],[-80.8886,24.3357],[-80.8453,24.283],[-80.7996,24.2556],[-80.7658,24.2009],[-80.7437,24.1188],[-80.7424,24.0594],[-80.7618,24.0229],[-80.7911,24.0029],[-80.8304,23.9994],[-80.875,24.017],[-80.925,24.0555],[-80.9689,24.1166],[-81.0066,24.2002],[-81.0297,24.2784],[-81.038,24.3513],[-81.0341,24.4025]],[[-81.0178,24.401],[-80.9993,24.4274],[-80.98,24.4394],[-80.96,24.437],[-80.9312,24.3965],[-80.8936,24.3178],[-80.8536,24.267],[-80.8112,24.2443],[-80.7794,24.1941],[-80.7581,24.1165],[-80.7581,24.0611],[-80.7794,24.028],[-80.805,24.012],[-80.835,24.0129],[-80.8711,24.0295],[-80.9134,24.0616],[-80.9537,24.1188],[-80.9919,24.2009],[-81.015,24.2784],[-81.0231,24.3513],[-81.0178,24.401]]]}},{"type":"Feature","properties":{"c":"#800026","v0":75.0,"v1":90.0},"geometry":{"type":"Polygon","coordinates":[[[-79.9876,24.9786],[-79.9759,24.9972],[-79.93,25.0087],[-79.85,25.013],[-79.7903,25.0263],[-79.751,25.0488],[-79.716,25.084],[-79.6853,25.1321],[-79.6551,25.1683],[-79.6252,25.1927],[-79.61,25.2275],[-79.6094,25.2727],[-79.6043,25.3],[-79.5948,25.3095],[-79.57,25.3152],[-79.53,25.3173],[-79.4966,25.3307],[-79.4699,25.3553],[-79.4558,25.3992],[-79.4542,25.4624],[-79.4475,25.5068],[-79.4358,25.5323],[-79.415,25.5537],[-79.385,25.571],[-79.36,25.5789],[-79.34,25.5776],[-79.315,25.5292],[-79.2849,25.4335],[-79.2727,25.3766],[-79.2783,25.3586],[-79.3205,25.336],[-79.3991,25.3088],[-79.4463,25.2656],[-79.4621,25.2063],[-79.5239,25.1339],[-79.6317,25.0484],[-79.6967,24.9866],[-79.7189,24.9485],[-79.78,24.9238],[-79.88,24.9124],[-79.9434,24.9133],[-79.9701,24.9265],[-79.986,24.9421],[-79.9909,24.9603],[-79.9876,24.9786]],[[-79.4292,25.3902],[-79.4222,25.4715],[-79.403,25.5211],[-79.3714,25.5392],[-79.3426,25.5031],[-79.3165,25.4128],[-79.3101,25.3625],[-79.3234,25.3524],[-79.355,25.3444],[-79.405,25.3386],[-79.4307,25.3391],[-79.432,25.3461],[-79.4292,25.3902]],[[-79.9194,24.9756],[-79.8331,24.988],[-79.775,25.0011],[-79.745,25.0149],[-79.7284,25.0178],[-79.7253,25.0097],[-79.7303,24.9913],[-79.7434,24.9626],[-79.76,24.9449],[-79.78,24.9382],[-79.825,24.9343],[-79.895,24.933],[-79.9381,24.9416],[-79.9544,24.9601],[-79.9194,24.9756]],[[-79.683,25.0651],[-79.661,25.1117],[-79.6337,25.1479],[-79.6012,25.1738],[-79.584,25.2094],[-79.582,25.2546],[-79.5583,25.2781],[-79.5128,25.2798],[-79.4925,25.2572],[-79.4975,25.2102],[-79.5485,25.1505],[-79.6455,25.0781],[-79.683,25.0651]]]}},{"type":"Feature","properties":{"c":"#800026","v0":75.0,"v1":90.0},"geometry":{"type":"Polygon","coordinates":[[[-81.0178,24.401],[-80.9993,24.4274],[-80.98,24.4394],[-80.96,24.437],[-80.9312,24.3965],[-80.8936,24.3178],[-80.8536,24.267],[-80.8112,24.2443],[-80.7794,24.1941],[-80.7581,24.1165],[-80.7581,24.0611],[-80.7794,24.028],[-80.805,24.012],[-80.835,24.0129],[-80.8711,24.0295],[-80.9134,24.0616],[-80.9537,24.1188],[-80.9919,24.2009],[-81.015,24.2784],[-81.0231,24.3513],[-81.0178,24.401]],[[-80.9951,24.3927],[-80.9917,24.4026],[-80.9832,24.4072],[-80.9695,24.4064],[-80.9463,24.3695],[-80.9135,24.2966],[-80.876,24.2465],[-80.8339,24.2191],[-80.8036,24.1735],[-80.7852,24.1096],[-80.7795,24.0685],[-80.7865,24.0502],[-80.805,24.041],[-80.835,24.0409],[-80.865,24.0528],[-80.895,24.0766],[-80.929,24.1315],[-80.9671,24.2173],[-80.9888,24.2921],[-80.9941,24.3559],[-80.9951,24.3927]]]}},{"type":"Feature","properties":{"c":"#800026","v0":90.0,"v1":null},"geometry":{"type":"Polygon","coordinates":[[[-79.4292,25.3902],[-79.4222,25.4715],[-79.403,25.5211],[-79.3714,25.5392],[-79.3426,25.5031],[-79.3165,25.4128],[-79.3101,25.3625],[-79.3234,25.3524],[-79.355,25.3444],[-79.405,25.3386],[-79.4307,25.3391],[-79.432,25.3461],[-79.4292,25.3902]]]}},{"type":"Feature","properties":{"c":"#800026","v0":90.0,"v1":null},"geometry":{"type":"Polygon","coordinates":[[[-79.683,25.0651],[-79.661,25.1117],[-79.6337,25.1479],[-79.6012,25.1738],[-79.584,25.2094],[-79.582,25.2546],[-79.5583,25.2781],[-79.5128,25.2798],[-79.4925,25.2572],[-79.4975,25.2102],[-79.5485,25.1505],[-79.6455,25.0781],[-79.683,25.0651]]]}},{"type":"Feature","properties":{"c":"#800026","v0":90.0,"v1":null},"geometry":{"type":"Polygon","coordinates":[[[-79.9194,24.9756],[-79.8331,24.988],[-79.775,25.0011],[-79.745,25.0149],[-79.7284,25.0178],[-79.7253,25.0097],[-79.7303,24.9913],[-79.7434,24.9626],[-79.76,24.9449],[-79.78,24.9382],[-79.825,24.9343],[-79.895,24.933],[-79.9381,24.9416],[-79.9544,24.9601],[-79.9194,24.9756]]]}},{"type":"Feature","properties":{"c":"#800026","v0":90.0,"v1":null},"geometry":{"type":"Polygon","coordinates":[[[-80.9951,24.3927],[-80.9917,24.4026],[-80.9832,24.4072],[-80.9695,24.4064],[-80.9463,24.3695],[-80.9135,24.2966],[-80.876,24.2465],[-80.8339,24.2191],[-80.8036,24.1735],[-80.7852,24.1096],[-80.7795,24.0685],[-80.7865,24.0502],[-80.805,24.041],[-80.835,24.0409],[-80.865,24.0528],[-80.895,24.0766],[-80.929,24.1315],[-80.9671,24.2173],[-80.9888,24.2921],[-80.9941,24.3559],[-80.9951,24.3927]]]}}]}