{"type":"FeatureCollection","features":[{"type":"Feature","properties":{"c":"#ffffb2","v0":5.0,"v1":10.0},"geometry":{"type":"Polygon","coordinates":[[[-71.9894,46.3811],[-71.9631,46.4013],[-71.9,46.4179],[-71.8,46.4308],[-71.73,46.4372],[-71.69,46.437],[-71.64,46.4278],[-71.58,46.4095],[-71.525,46.4152],[-71.475,46.445],[-71.43,46.4603],[-71.39,46.461],[-71.35,46.4691],[-71.31,46.4845],[-71.2767,46.4861],[-71.25,46.4737],[-71.2327,46.4503],[-71.225,46.4158],[-71.1952,46.3917],[-71.1433,46.3779],[-71.1118,46.3606],[-71.1005,46.3399],[-71.1029,46.3158],[-71.1187,46.2881],[-71.1375,46.2686],[-71.1592,46.2571],[-71.205,46.2572],[-71.275,46.2689],[-71.345,46.2653],[-71.415,46.2464],[-71.4642,46.2116],[-71.4927,46.1611],[-71.5227,46.1329],[-71.5542,46.127],[-71.58,46.1266],[-71.6,46.1318],[-71.62,46.1447],[-71.64,46.1653],[-71.675,46.1711],[-71.725,46.162],[-71.765,46.1619],[-71.795,46.1709],[-71.82,46.1952],[-71.84,46.2349],[-71.8795,46.2666],[-71.9384,46.2902],[-71.9766,46.3192],[-71.9939,46.3537],[-71.9894,46.3811]],[[-71.9528,46.3779],[-71.9231,46.3917],[-71.8587,46.4032],[-71.7596,46.4125],[-71.665,46.4073],[-71.575,46.3877],[-71.51,46.3919],[-71.47,46.4199],[-71.43,46.4344],[-71.39,46.4354],[-71.35,46.444],[-71.31,46.46],[-71.2842,46.4645],[-71.2725,46.4573],[-71.2625,46.4365],[-71.2542,46.4019],[-71.2244,46.3777],[-71.1731,46.364],[-71.1425,46.3503],[-71.1326,46.3365],[-71.1382,46.3163],[-71.1594,46.2899],[-71.205,46.282],[-71.275,46.2929],[-71.35,46.2876],[-71.43,46.2663],[-71.4826,46.2326],[-71.5079,46.1866],[-71.5329,46.1595],[-71.5576,46.1514],[-71.59,46.1616],[-71.63,46.1899],[-71.67,46.1985],[-71.71,46.1877],[-71.7433,46.1845],[-71.77,46.189],[-71.7945,46.2121],[-71.8169,46.2536],[-71.8566,46.2847],[-71.9137,46.3054],[-71.9487,46.3296],[-71.9613,46.3572],[-71.9528,46.3779]]]}},{"type":"Feature","properties":{"c":"#ffffb2","v0":5.0,"v1":10.0},"geometry":{"type":"Polygon","coordinates":[[[-80.9137,45.143],[-80.901,45.1712],[-80.8735,45.1942],[-80.8312,45.2121],[-80.775,45.2476],[-80.705,45.3009],[-80.625,45.3265],[-80.535,45.3246],[-80.465,45.3325],[-80.415,45.3502],[-80.3711,45.3509],[-80.3333,45.3344],[-80.3172,45.3085],[-80.3228,45.2734],[-80.3717,45.2287],[-80.4639,45.1746],[-80.5391,45.1464],[-80.5974,45.1442],[-80.6724,45.1207],[-80.7641,45.0759],[-80.83,45.0599],[-80.87,45.0726],[-80.8975,45.0914],[-80.9125,45.1164],[-80.9137,45.143]],[[-80.8949,45.1395],[-80.8872,45.1606],[-80.86,45.1811],[-80.8133,45.2009],[-80.759,45.2361],[-80.6969,45.2868],[-80.6219,45.3111],[-80.534,45.3091],[-80.465,45.317],[-80.415,45.3347],[-80.375,45.3359],[-80.345,45.3206],[-80.3358,45.2987],[-80.3474,45.2701],[-80.3974,45.2313],[-80.4858,45.1824],[-80.555,45.1591],[-80.605,45.1615],[-80.675,45.1402],[-80.765,45.0951],[-80.825,45.0763],[-80.855,45.0836],[-80.8772,45.0976],[-80.8915,45.1185],[-80.8949,45.1395]]]}},{"type":"Feature","properties":{"c":"#ffffb2","v0":5.0,"v1":10.0},"geometry":{"type":"Polygon","coordinates":[[[-106.2234,30.7346],[-106.2011,30.7765],[-106.165,30.8049],[-106.115,30.8198],[-106.08,30.8405],[-106.06,30.8671],[-106.04,30.8839],[-106.02,30.8908],[-105.99,30.8885],[-105.95,30.877],[-105.92,30.8567],[-105.9,30.8276],[-105.87,30.8241],[-105.83,30.8463],[-105.78,30.8576],[-105.72,30.8579],[-105.6706,30.8477],[-105.6319,30.8271],[-105.6058,30.8039],[-105.5923,30.7781],[-105.6017,30.7334],[-105.6339,30.6698],[-105.6813,30.6268],[-105.7439,30.6044],[-105.7703,30.5717],[-105.7603,30.5286],[-105.7677,30.4898],[-105.7925,30.4554],[-105.8412,30.4199],[-105.9137,30.3834],[-105.965,30.3677],[-105.995,30.3728],[-106.0249,30.3867],[-106.0548,30.4095],[-106.0786,30.4554],[-106.0962,30.5243],[-106.1282,30.5803],[-106.1745,30.6233],[-106.2069,30.662],[-106.2253,30.6964],[-106.2234,30.7346]],[[-106.2138,30.7308],[-106.1978,30.7652],[-106.1618,30.791],[-106.1058,30.8082],[-106.0708,30.8286],[-106.0569,30.8522],[-106.04,30.8686],[-106.02,30.8776],[-105.995,30.8793],[-105.965,30.8737],[-105.9418,30.8617],[-105.9254,30.8432],[-105.9179,30.8211],[-105.9192,30.7953],[-105.936,30.7695],[-105.9681,30.7437],[-105.9807,30.7244],[-105.9736,30.7114],[-105.965,30.7046],[-105.955,30.7041],[-105.925,30.7343],[-105.875,30.7952],[-105.835,30.8315],[-105.805,30.8432],[-105.76,30.8469],[-105.7,30.8427],[-105.6521,30.8217],[-105.6162,30.7841],[-105.6136,30.7351],[-105.6443,30.6749],[-105.6942,30.6319],[-105.7635,30.6061],[-105.7904,30.576],[-105.7749,30.5415],[-105.7764,30.5071],[-105.7949,30.4726],[-105.8406,30.4356],[-105.9135,30.396],[-105.9764,30.3874],[-106.0291,30.4097],[-106.0627,30.4338],[-106.0772,30.4597],[-106.0855,30.4941],[-106.0877,30.5372],[-106.1157,30.5846],[-106.1697,30.6362],[-106.2029,30.6749],[-106.2155,30.7007],[-106.2138,30.7308]]]}},{"type":"Feature","properties":{"c":"#ffffb2","v0":5.0,"v1":10.0},"geometry":{"type":"Polygon","coordinates":[[[-81.056,29.674],[-81.0387,29.704],[-81.0,29.7252],[-80.94,29.7378],[-80.875,29.7427],[-80.805,29.7398],[-80.7508,29.7229],[-80.7123,29.6919],[-80.6934,29.6677],[-80.6941,29.6503],[-80.7104,29.6329],[-80.7426,29.6156],[-80.7712,29.5895],[-80.7963,29.5547],[-80.7999,29.5199],[-80.7819,29.4851],[-80.7751,29.4328],[-80.7794,29.3631],[-80.7986,29.3087],[-80.8329,29.2695],[-80.875,29.2524],[-80.925,29.2574],[-80.9648,29.2814],[-80.9944,29.3242],[-81.0051,29.3544],[-80.997,29.3718],[-80.9581,29.4067],[-80.8884,29.4589],[-80.8977,29.5152],[-80.9859,29.5755],[-81.0387,29.619],[-81.056,29.6457],[-81.056,29.674]],[[-81.026,29.6681],[-81.0153,29.6863],[-80.985,29.7007],[-80.935,29.7113],[-80.88,29.716],[-80.82,29.7148],[-80.7758,29.7048],[-80.7475,29.6859],[-80.7675,29.6424],[-80.8358,29.5745],[-80.9,29.5581],[-80.96,29.5935],[-81.0003,29.6232],[-81.021,29.6471],[-81.026,29.6681]],[[-80.9431,29.368],[-80.881,29.4126],[-80.8421,29.4343],[-80.8263,29.4333],[-80.8177,29.4067],[-80.8165,29.3544],[-80.8244,29.3169],[-80.8415,29.2941],[-80.87,29.2826],[-80.91,29.2822],[-80.941,29.298],[-80.9631,29.3298],[-80.9431,29.368]]]}},{"type":"Feature","properties":{"c":"#ffffb2","v0":5.0,"v1":10.0},"geometry":{"type":"Polygon","coordinates":[[[-85.2058,29.0103],[-85.1819,29.0383],[-85.145,29.0591],[-85.095,29.0728],[-85.05,29.0926],[-85.01,29.1185],[-84.955,29.1266],[-84.885,29.1171],[-84.8369,29.1358],[-84.8107,29.1827],[-84.7807,29.2142],[-84.7469,29.2304],[-84.71,29.2357],[-84.67,29.2299],[-84.6358,29.213],[-84.6074,29.1851],[-84.5957,29.1537],[-84.6007,29.1188],[-84.6326,29.0838],[-84.6914,29.0488],[-84.7135,29.0095],[-84.6991,28.9658],[-84.7014,28.934],[-84.7205,28.9141],[-84.755,28.9113],[-84.805,28.9256],[-84.8658,28.918],[-84.9373,28.8886],[-84.9973,28.8703],[-85.0458,28.8631],[-85.096,28.8763],[-85.1479,28.9097],[-85.1848,28.9439],[-85.2068,28.9789],[-85.2058,29.0103]]]}},{"type":"Feature","properties":{"c":"#ffffb2","v0":5.0,"v1":10.0},"geometry":{"type":"Polygon","coordinates":[[[-85.4172,29.0226],[-85.4115,29.0401],[-85.394,29.0542],[-85.3647,29.0649],[-85.335,29.0664],[-85.305,29.0585],[-85.2844,29.0444],[-85.2731,29.0241],[-85.2731,29.005],[-85.2844,28.9872],[-85.305,28.9738],[-85.335,28.965],[-85.3675,28.9739],[-85.4026,29.0005],[-85.4172,29.0226]]]}},{"type":"Feature","properties":{"c":"#ffffb2","v0":5.0,"v1":10.0},"geometry":{"type":"Polygon","coordinates":[[[-87.5386,28.5713],[-87.5307,28.5976],[-87.5047,28.624],[-87.4604,28.6503],[-87.4294,28.6985],[-87.4116,28.7687],[-87.3946,28.8151],[-87.3782,28.8378],[-87.3,28.8881],[-87.16,28.966],[-87.07,29.0047],[-87.03,29.0042],[-86.9993,28.9977],[-86.9778,28.9851],[-86.9596,28.9614],[-86.9446,28.9264],[-86.9511,28.8738],[-86.9791,28.8038],[-87.0723,28.7328],[-87.2308,28.6609],[-87.3119,28.6038],[-87.3157,28.5616],[-87.3257,28.5295],[-87.3419,28.5074],[-87.375,28.4921],[-87.425,28.4836],[-87.465,28.4862],[-87.495,28.5],[-87.5181,28.5196],[-87.5344,28.5453],[-87.5386,28.5713]],[[-87.5176,28.5713],[-87.5062,28.5976],[-87.4783,28.6196],[-87.4336,28.6371],[-87.4042,28.6854],[-87.3902,28.7643],[-87.3761,28.8125],[-87.3622,28.83],[-87.2889,28.8761],[-87.1563,28.9507],[-87.075,28.9888],[-87.045,28.9905],[-87.016,28.9838],[-86.9879,28.9689],[-86.9694,28.9483],[-86.9605,28.922],[-86.9696,28.8758],[-86.9965,28.8097],[-87.0937,28.7396],[-87.2612,28.6654],[-87.343,28.6064],[-87.3392,28.5625],[-87.3452,28.5317],[-87.361,28.5142],[-87.3891,28.5031],[-87.4297,28.4987],[-87.4683,28.5119],[-87.5049,28.5427],[-87.5176,28.5713]]]}},{"type":"Feature","properties":{"c":"#ffffb2","v0":5.0,"v1":10.0},"geometry":{"type":"Polygon","coordinates":[[[-80.3792,28.6766],[-80.3671,28.7029],[-80.3286,28.7292],[-80.2637,28.7556],[-80.206,28.7929],[-80.1553,28.8412],[-80.085,28.8777],[-79.995,28.9023],[-79.94,28.9095],[-79.92,28.8991],[-79.9198,28.8582],[-79.9395,28.7869],[-79.9845,28.7206],[-80.0548,28.6595],[-80.15,28.6172],[-80.27,28.5937],[-80.3415,28.5892],[-80.3644,28.6036],[-80.3782,28.624],[-80.3829,28.6503],[-80.3792,28.6766]],[[-80.3439,28.6722],[-80.3332,28.6898],[-80.2983,28.7096],[-80.2394,28.7316],[-80.185,28.7669],[-80.135,28.8152],[-80.08,28.8483],[-80.02,28.8662],[-79.98,28.8711],[-79.96,28.8632],[-79.9576,28.8366],[-79.9729,28.7913],[-80.0129,28.7408],[-80.0776,28.6851],[-80.16,28.6458],[-80.26,28.6229],[-80.3179,28.6157],[-80.3337,28.6241],[-80.3435,28.6371],[-80.3474,28.6547],[-80.3439,28.6722]]]}},{"type":"Feature","properties":{"c":"#ffffb2","v0":5.0,"v1":10.0},"geometry":{"type":"Polygon","coordinates":[[[-78.5137,28.6742],[-78.4979,28.6958],[-78.46,28.707],[-78.4,28.7076],[-78.355,28.7289],[-78.325,28.7708],[-78.2944,28.786],[-78.2633,28.7745],[-78.2466,28.7556],[-78.2442,28.7292],[-78.2555,28.6985],[-78.2807,28.6635],[-78.2963,28.624],[-78.3023,28.5801],[-78.3215,28.5378],[-78.3538,28.4971],[-78.4005,28.4751],[-78.4615,28.4718],[-78.4973,28.479],[-78.508,28.4966],[-78.5154,28.5449],[-78.5195,28.624],[-78.5137,28.6742]]]}},{"type":"Feature","properties":{"c":"#ffffb2","v0":5.0,"v1":10.0},"geometry":{"type":"Polygon","coordinates":[[[-83.0526,28.0518],[-83.0038,28.1312],[-82.99,28.1929],[-83.0112,28.237],[-83.0105,28.2854],[-82.9877,28.3383],[-82.9553,28.3823],[-82.9132,28.4175],[-82.8716,28.472],[-82.8305,28.5458],[-82.805,28.6054],[-82.795,28.6507],[-82.77,28.6724],[-82.73,28.6706],[-82.68,28.6522],[-82.62,28.6172],[-82.5843,28.5849],[-82.5729,28.5553],[-82.5695,28.5273],[-82.5741,28.501],[-82.5945,28.4702],[-82.6307,28.435],[-82.6257,28.3823],[-82.5796,28.3119],[-82.5567,28.2502],[-82.557,28.1973],[-82.5713,28.1488],[-82.5996,28.1047],[-82.595,28.0606],[-82.5573,28.0165],[-82.5426,27.9679],[-82.5507,27.9149],[-82.5762,27.8751],[-82.619,27.8486],[-82.6604,27.8132],[-82.7003,27.769],[-82.7377,27.7441],[-82.7726,27.7386],[-82.8005,27.7431],[-82.8215,27.7574],[-82.8305,27.7867],[-82.8272,27.8309],[-82.7981,27.8663],[-82.7429,27.8928],[-82.7114,27.9326],[-82.7036,27.9856],[-82.7372,27.9919],[-82.8124,27.9515],[-82.9,27.9449],[-83.0,27.972],[-83.0568,27.9922],[-83.0703,28.0054],[-83.0526,28.0518]],[[-83.0079,28.0634],[-82.956,28.1306],[-82.9023,28.1747],[-82.8469,28.1957],[-82.8183,28.2238],[-82.8166,28.259],[-82.8243,28.2844],[-82.8414,28.2999],[-82.875,28.295],[-82.925,28.2695],[-82.955,28.2558],[-82.965,28.2539],[-82.9709,28.2588],[-82.9727,28.2707],[-82.9661,28.2942],[-82.9511,28.3295],[-82.9225,28.3647],[-82.8803,28.3999],[-82.8345,28.4702],[-82.7851,28.5757],[-82.7528,28.6312],[-82.7376,28.6369],[-82.6998,28.6194],[-82.6393,28.5785],[-82.609,28.5449],[-82.6089,28.5186],[-82.625,28.4922],[-82.6572,28.4658],[-82.6773,28.4394],[-82.6852,28.4131],[-82.667,28.3735],[-82.6228,28.3207],[-82.5997,28.2634],[-82.5978,28.2017],[-82.6148,28.1488],[-82.6506,28.1047],[-82.7089,28.0544],[-82.7896,27.9978],[-82.8486,27.9713],[-82.8858,27.9749],[-82.9368,27.99],[-83.0015,28.0165],[-83.0079,28.0634]],[[-82.8912,28.2326],[-82.8739,28.2502],[-82.8646,28.2502],[-82.8635,28.2326],[-82.8721,28.2238],[-82.8906,28.2238],[-82.8912,28.2326]],[[-82.7884,27.8125],[-82.7761,27.8377],[-82.7496,27.8554],[-82.7087,27.8656],[-82.6752,27.9061],[-82.649,27.9768],[-82.6244,28.0099],[-82.6015,28.0055],[-82.5855,27.9923],[-82.5764,27.9702],[-82.5814,27.9432],[-82.6005,27.9113],[-82.625,27.8876],[-82.655,27.8722],[-82.69,27.8412],[-82.73,27.7944],[-82.76,27.7727],[-82.78,27.7758],[-82.7911,27.783],[-82.7934,27.7943],[-82.7884,27.8125]]]}},{"type":"Feature","properties":{"c":"#ffffb2","v0":5.0,"v1":10.0},"geometry":{"type":"Polygon","coordinates":[[[-78.3257,28.4541],[-78.2886,28.4569],[-78.2652,28.4481],[-78.2556,28.4277],[-78.2656,28.4077],[-78.2952,28.3881],[-78.3167,28.3837],[-78.33,28.3945],[-78.3385,28.4131],[-78.3423,28.4394],[-78.3257,28.4541]]]}},{"type":"Feature","properties":{"c":"#ffffb2","v0":5.0,"v1":10.0},"geometry":{"type":"Polygon","coordinates":[[[-87.5668,27.9179],[-87.5556,27.9416],[-87.5287,27.9592],[-87.4861,27.9709],[-87.4461,28.0056],[-87.4087,28.0633],[-87.335,28.1323],[-87.225,28.2126],[-87.145,28.254],[-87.095,28.2566],[-87.0416,28.2317],[-86.9848,28.1794],[-86.9519,28.1003],[-86.9431,27.9944],[-86.9454,27.9282],[-86.9589,27.9017],[-86.9767,27.8823],[-86.9989,27.8701],[-87.105,27.8724],[-87.295,27.8894],[-87.4,27.8859],[-87.42,27.8618],[-87.445,27.8453],[-87.475,27.8365],[-87.505,27.8401],[-87.535,27.8561],[-87.5556,27.8746],[-87.5668,27.8956],[-87.5668,27.9179]],[[-87.5519,27.9172],[-87.5373,27.9395],[-87.51,27.9536],[-87.47,27.9596],[-87.438,27.9882],[-87.4141,28.0394],[-87.3391,28.111],[-87.213,28.2028],[-87.125,28.245],[-87.075,28.2378],[-87.0278,28.2095],[-86.9833,28.1603],[-86.959,28.0871],[-86.9548,27.99],[-86.967,27.9251],[-86.9957,27.8924],[-87.105,27.8857],[-87.295,27.9048],[-87.4043,27.8991],[-87.4329,27.8684],[-87.4579,27.8507],[-87.4793,27.8459],[-87.5073,27.8592],[-87.5419,27.8904],[-87.5519,27.9172]]]}},{"type":"Feature","properties":{"c":"#ffffb2","v0":5.0,"v1":10.0},"geometry":{"type":"Polygon","coordinates":[[[-86.0942,27.9356],[-86.0781,27.9593],[-86.035,27.9789],[-85.965,27.9945],[-85.895,28.0214],[-85.825,28.0597],[-85.775,28.0793],[-85.745,28.0804],[-85.7206,28.0725],[-85.7018,28.0558],[-85.7118,28.0067],[-85.7506,27.9251],[-85.79,27.863],[-85.83,27.8203],[-85.865,27.7912],[-85.895,27.7758],[-85.9348,27.7716],[-85.9845,27.7787],[-86.0325,27.8177],[-86.079,27.8884],[-86.0942,27.9356]]]}},{"type":"Feature","properties":{"c":"#ffffb2","v0":5.0,"v1":10.0},"geometry":{"type":"Polygon","coordinates":[[[-79.9173,27.7152],[-79.8724,27.829],[-79.825,27.8971],[-79.775,27.9197],[-79.725,27.9276],[-79.675,27.9206],[-79.6369,27.9055],[-79.6107,27.8823],[-79.5933,27.8575],[-79.5847,27.8309],[-79.5928,27.7853],[-79.6176,27.7205],[-79.6017,27.6585],[-79.545,27.5993],[-79.5136,27.5476],[-79.5076,27.5032],[-79.511,27.4734],[-79.5237,27.4581],[-79.545,27.4468],[-79.575,27.4395],[-79.6157,27.4515],[-79.6672,27.483],[-79.7322,27.506],[-79.8107,27.5204],[-79.8646,27.5381],[-79.8939,27.5592],[-79.9163,27.5919],[-79.9319,27.6362],[-79.9173,27.7152]],[[-79.9066,27.7115],[-79.8679,27.8177],[-79.8239,27.8828],[-79.7746,27.907],[-79.73,27.9176],[-79.69,27.9147],[-79.6515,27.8937],[-79.6145,27.8548],[-79.6088,27.8044],[-79.6345,27.7425],[-79.6452,27.7026],[-79.6409,27.6849],[-79.612,27.6495],[-79.5585,27.5963],[-79.5286,27.5476],[-79.5222,27.5032],[-79.5267,27.4741],[-79.5422,27.4604],[-79.565,27.4529],[-79.595,27.4518],[-79.6345,27.4676],[-79.6835,27.5002],[-79.7435,27.5223],[-79.8145,27.534],[-79.861,27.5473],[-79.883,27.5622],[-79.902,27.5919],[-79.918,27.6362],[-79.9066,27.7115]]]}},{"type":"Feature","properties":{"c":"#ffffb2","v0":5.0,"v1":10.0},"geometry":{"type":"Polygon","coordinates":[[[-88.7496,27.724],[-88.7365,27.7492],[-88.705,27.7749],[-88.655,27.8012],[-88.58,27.8184],[-88.48,27.8266],[-88.41,27.8262],[-88.37,27.8174],[-88.3384,27.8008],[-88.3152,27.7767],[-88.302,27.7159],[-88.2988,27.6185],[-88.3054,27.5594],[-88.3218,27.5387],[-88.35,27.5227],[-88.39,27.5111],[-88.455,27.5055],[-88.545,27.5057],[-88.605,27.513],[-88.635,27.5274],[-88.6765,27.5788],[-88.7296,27.6673],[-88.7496,27.724]],[[-88.732,27.7231],[-88.7173,27.7463],[-88.685,27.7696],[-88.635,27.793],[-88.55,27.8046],[-88.43,27.8046],[-88.3577,27.7946],[-88.333,27.7746],[-88.3192,27.7159],[-88.3163,27.6185],[-88.3237,27.5611],[-88.3412,27.5439],[-88.375,27.5294],[-88.425,27.5174],[-88.49,27.5154],[-88.57,27.5233],[-88.6188,27.5335],[-88.6363,27.5458],[-88.6687,27.5919],[-88.7158,27.6716],[-88.732,27.7231]]]}},{"type":"Feature","properties":{"c":"#ffffb2","v0":5.0,"v1":10.0},"geometry":{"type":"Polygon","coordinates":[[[-83.4974,27.6007],[-83.486,27.6273],[-83.4677,27.6487],[-83.4426,27.6649],[-83.3727,27.6738],[-83.2582,27.6753],[-83.1582,27.7052],[-83.0727,27.7635],[-83.01,27.7897],[-82.97,27.784],[-82.9368,27.7548],[-82.9105,27.7023],[-82.8967,27.6539],[-82.8954,27.6096],[-82.901,27.5742],[-82.9134,27.5476],[-82.9572,27.5092],[-83.0324,27.4591],[-83.1,27.4257],[-83.16,27.4092],[-83.255,27.4272],[-83.385,27.4796],[-83.4633,27.5262],[-83.4898,27.567],[-83.4974,27.6007]],[[-83.4868,27.5963],[-83.482,27.614],[-83.4672,27.6325],[-83.4424,27.6516],[-83.37,27.6631],[-83.25,27.6671],[-83.16,27.6923],[-83.1,27.7385],[-83.055,27.7671],[-83.025,27.7779],[-82.9943,27.7786],[-82.9628,27.7693],[-82.9371,27.738],[-82.9172,27.6849],[-82.9073,27.6406],[-82.9075,27.6052],[-82.9148,27.5742],[-82.9292,27.5476],[-82.9748,27.5096],[-83.0516,27.4604],[-83.11,27.4307],[-83.15,27.4205],[-83.185,27.4164],[-83.215,27.4183],[-83.28,27.4411],[-83.38,27.4848],[-83.4448,27.5268],[-83.4744,27.5672],[-83.4868,27.5963]]]}},{"type":"Feature","properties":{"c":"#ffffb2","v0":5.0,"v1":10.0},"geometry":{"type":"Polygon","coordinates":[[[-84.5927,26.9608],[-84.5785,26.9875],[-84.5449,27.0187],[-84.4919,27.0543],[-84.4796,27.09],[-84.508,27.1256],[-84.5223,27.1879],[-84.5224,27.2768],[-84.5147,27.3345],[-84.4992,27.3612],[-84.4711,27.3849],[-84.4304,27.4058],[-84.4065,27.4236],[-84.3994,27.4382],[-84.4025,27.4588],[-84.4158,27.4855],[-84.4243,27.5295],[-84.4281,27.5908],[-84.446,27.6396],[-84.4779,27.6757],[-84.4852,27.7115],[-84.468,27.7469],[-84.442,27.7682],[-84.4073,27.7755],[-84.3582,27.7445],[-84.2945,27.6753],[-84.2545,27.5994],[-84.2382,27.5168],[-84.2121,27.4591],[-84.1764,27.4264],[-84.1264,27.3985],[-84.0621,27.3754],[-84.024,27.3532],[-84.012,27.3319],[-84.0145,27.299],[-84.0313,27.2546],[-84.0673,27.2209],[-84.1224,27.1981],[-84.1734,27.1847],[-84.2203,27.1809],[-84.2453,27.1659],[-84.2484,27.1398],[-84.22,27.134],[-84.16,27.1486],[-84.11,27.1519],[-84.07,27.144],[-84.0378,27.123],[-84.0134,27.0891],[-84.0003,27.0499],[-83.9984,27.0053],[-84.0049,26.9697],[-84.0197,26.9429],[-84.0428,26.9192],[-84.0743,26.8984],[-84.13,26.8984],[-84.21,26.9193],[-84.2606,26.8985],[-84.2818,26.8359],[-84.3118,26.7936],[-84.3506,26.7715],[-84.415,26.7845],[-84.505,26.8326],[-84.5625,26.8793],[-84.5874,26.9247],[-84.5927,26.9608]],[[-84.5725,26.9596],[-84.5575,26.9839],[-84.5155,27.0151],[-84.4466,27.0531],[-84.4331,27.0855],[-84.4749,27.1122],[-84.4982,27.1656],[-84.503,27.2457],[-84.5001,27.3034],[-84.4897,27.339],[-84.4553,27.3745],[-84.3971,27.41],[-84.3767,27.4455],[-84.3941,27.481],[-84.4041,27.5298],[-84.4064,27.5919],[-84.424,27.6406],[-84.4569,27.676],[-84.4679,27.707],[-84.4571,27.7336],[-84.4413,27.7511],[-84.4204,27.7595],[-84.4,27.7597],[-84.38,27.7518],[-84.3485,27.721],[-84.3054,27.6674],[-84.2745,27.5963],[-84.2559,27.5076],[-84.2253,27.4455],[-84.1829,27.41],[-84.1337,27.383],[-84.0779,27.3643],[-84.0441,27.3466],[-84.0324,27.3297],[-84.0374,27.2991],[-84.0591,27.255],[-84.117,27.2239],[-84.211,27.2058],[-84.261,27.1759],[-84.267,27.1342],[-84.26,27.1104],[-84.24,27.1043],[-84.205,27.1103],[-84.155,27.1283],[-84.115,27.1357],[-84.085,27.1326],[-84.0578,27.1163],[-84.0333,27.0869],[-84.02,27.0499],[-84.018,27.0053],[-84.0258,26.9697],[-84.0436,26.9429],[-84.0668,26.9229],[-84.0956,26.9095],[-84.145,26.9167],[-84.215,26.9444],[-84.263,26.9243],[-84.2891,26.8565],[-84.3191,26.8115],[-84.353,26.7894],[-84.41,26.7995],[-84.49,26.8417],[-84.5425,26.884],[-84.5675,26.9263],[-84.5725,26.9596]]]}},{"type":"Feature","properties":{"c":"#ffffb2","v0":5.0,"v1":10.0},"geometry":{"type":"Polygon","coordinates":[[[-83.4027,27.1523],[-83.3591,27.2056],[-83.3094,27.2546],[-83.2537,27.299],[-83.2019,27.3291],[-83.154,27.3447],[-83.105,27.3411],[-83.055,27.3182],[-83.02,27.2779],[-83.0,27.2204],[-82.955,27.187],[-82.885,27.1777],[-82.8406,27.1568],[-82.8217,27.1241],[-82.8219,27.0855],[-82.8411,27.041],[-82.8708,26.9964],[-82.9111,26.9519],[-82.9459,26.9223],[-82.9753,26.9077],[-83.005,26.9049],[-83.035,26.9139],[-83.07,26.9376],[-83.11,26.9762],[-83.195,27.0124],[-83.325,27.0464],[-83.3986,27.079],[-83.4159,27.11],[-83.4027,27.1523]],[[-83.343,27.1701],[-83.2475,27.259],[-83.1824,27.3086],[-83.1475,27.3188],[-83.111,27.3143],[-83.073,27.2952],[-83.043,27.2561],[-83.021,27.1971],[-82.975,27.1623],[-82.905,27.1519],[-82.8636,27.137],[-82.8508,27.1175],[-82.8508,27.0915],[-82.8636,27.0589],[-82.9,27.0145],[-82.96,26.9584],[-83.0024,26.9346],[-83.0272,26.9431],[-83.0572,26.9656],[-83.0924,27.0019],[-83.175,27.0372],[-83.305,27.0715],[-83.3752,27.0978],[-83.3855,27.1163],[-83.343,27.1701]]]}},{"type":"Feature","properties":{"c":"#ffffb2","v0":5.0,"v1":10.0},"geometry":{"type":"Polygon","coordinates":[[[-82.3797,26.9964],[-82.3722,27.0232],[-82.3588,27.0451],[-82.3396,27.0622],[-82.285,27.0785],[-82.195,27.0939],[-82.13,27.0953],[-82.09,27.0826],[-82.0469,27.053],[-82.0006,27.0064],[-81.9725,26.9608],[-81.9627,26.9162],[-81.9721,26.8404],[-82.0005,26.7332],[-82.0105,26.635],[-82.0021,26.5455],[-82.0036,26.4874],[-82.0149,26.4605],[-82.038,26.4304],[-82.0727,26.397],[-82.115,26.3817],[-82.165,26.3845],[-82.2097,26.4012],[-82.249,26.4318],[-82.2786,26.4918],[-82.2985,26.5813],[-82.2839,26.6645],[-82.2346,26.7413],[-82.209,26.7904],[-82.2069,26.8118],[-82.2119,26.8317],[-82.224,26.85],[-82.2637,26.8723],[-82.3311,26.8986],[-82.3695,26.9296],[-82.3788,26.9652],[-82.3797,26.9964]],[[-82.3595,27.0018],[-82.3398,27.0392],[-82.285,27.0657],[-82.195,27.0813],[-82.1337,27.0848],[-82.1011,27.0764],[-82.059,27.0454],[-82.0074,26.992],[-81.9799,26.9429],[-81.9763,26.8984],[-81.988,26.827],[-82.0148,26.7288],[-82.0242,26.635],[-82.016,26.5455],[-82.0314,26.4742],[-82.0705,26.421],[-82.115,26.3953],[-82.165,26.3973],[-82.2063,26.4104],[-82.2389,26.4349],[-82.2654,26.4918],[-82.2858,26.5813],[-82.2745,26.6577],[-82.2315,26.7209],[-82.2056,26.77],[-82.1969,26.805],[-82.2019,26.8347],[-82.2206,26.859],[-82.2591,26.8813],[-82.3172,26.9016],[-82.352,26.9296],[-82.3636,26.9652],[-82.3595,27.0018]]]}},{"type":"Feature","properties":{"c":"#ffffb2","v0":5.0,"v1":10.0},"geometry":{"type":"Polygon","coordinates":[[[-83.4047,26.973],[-83.3949,26.9885],[-83.38,26.9989],[-83.36,27.004],[-83.342,26.9918],[-83.326,26.9622],[-83.331,26.9403],[-83.357,26.926],[-83.3799,26.9305],[-83.3997,26.9536],[-83.4047,26.973]]]}},{"type":"Feature","properties":{"c":"#ffffb2","v0":5.0,"v1":10.0},"geometry":{"type":"Polygon","coordinates":[[[-85.3179,26.2664],[-85.2993,26.2993],[-85.26,26.3163],[-85.2,26.3175],[-85.1,26.2883],[-84.96,26.2287],[-84.8857,26.1892],[-84.877,26.1698],[-84.875,26.1332],[-84.8798,26.0794],[-84.8582,26.0255],[-84.8103,25.9715],[-84.7877,25.9266],[-84.7905,25.8906],[-84.8064,25.8614],[-84.8355,25.839],[-84.87,25.8305],[-84.91,25.8359],[-84.9389,25.8516],[-84.9567,25.8776],[-84.9628,25.9221],[-84.9573,25.985],[-85.0394,26.0614],[-85.209,26.1512],[-85.3022,26.2095],[-85.3189,26.2365],[-85.3179,26.2664]],[[-85.2932,26.2561],[-85.2911,26.2686],[-85.28,26.279],[-85.26,26.2874],[-85.2122,26.2857],[-85.1367,26.2738],[-85.0533,26.2454],[-84.962,26.2006],[-84.917,26.1512],[-84.9183,26.0973],[-84.9268,26.0662],[-84.9423,26.0578],[-84.967,26.0578],[-85.0011,26.0662],[-85.0811,26.1071],[-85.207,26.1805],[-85.2761,26.2254],[-85.2882,26.2417],[-85.2932,26.2561]],[[-84.9244,25.9446],[-84.9015,25.9806],[-84.8763,25.9896],[-84.849,25.9716],[-84.8291,25.949],[-84.8169,25.9221],[-84.8164,25.8996],[-84.8277,25.8816],[-84.8476,25.8677],[-84.8759,25.858],[-84.9,25.8611],[-84.92,25.8768],[-84.9315,25.8952],[-84.9344,25.9161],[-84.9244,25.9446]]]}},{"type":"Feature","properties":{"c":"#ffffb2","v0":5.0,"v1":10.0},"geometry":{"type":"Polygon","coordinates":[[[-96.1524,23.437],[-96.1418,23.5103],[-96.1194,23.5883],[-96.0851,23.6707],[-96.0485,23.7163],[-96.0095,23.7251],[-95.9779,23.7251],[-95.9537,23.7163],[-95.9337,23.6969],[-95.9179,23.6667],[-95.87,23.655],[-95.79,23.6618],[-95.7357,23.6586],[-95.7071,23.6453],[-95.695,23.6249],[-95.6995,23.5974],[-95.7238,23.577],[-95.7679,23.5636],[-95.81,23.5591],[-95.85,23.5633],[-95.885,23.5786],[-95.915,23.6052],[-95.9353,23.6097],[-95.9458,23.5924],[-95.9462,23.5608],[-95.9364,23.5149],[-95.9437,23.4737],[-95.9681,23.437],[-96.0077,23.4006],[-96.0626,23.3647],[-96.103,23.3509],[-96.129,23.3593],[-96.1459,23.3727],[-96.1538,23.3911],[-96.1524,23.437]]]}},{"type":"Feature","properties":{"c":"#ffffb2","v0":5.0,"v1":10.0},"geometry":{"type":"Polygon","coordinates":[[[-97.1172,23.2855],[-97.1015,23.313],[-97.0753,23.3314],[-97.0386,23.3406],[-97.0127,23.3597],[-96.9976,23.3886],[-96.955,23.4069],[-96.885,23.4145],[-96.79,23.3962],[-96.67,23.352],[-96.59,23.3129],[-96.55,23.2788],[-96.527,23.2505],[-96.521,23.2279],[-96.526,23.204],[-96.542,23.179],[-96.58,23.1548],[-96.64,23.1313],[-96.69,23.098],[-96.73,23.0549],[-96.765,23.0303],[-96.795,23.0243],[-96.865,23.0392],[-96.975,23.0749],[-97.051,23.1237],[-97.0929,23.1856],[-97.1166,23.2303],[-97.1223,23.2579],[-97.1172,23.2855]],[[-97.0849,23.2625],[-97.079,23.2809],[-97.0545,23.2964],[-97.0115,23.3091],[-96.98,23.3315],[-96.96,23.3634],[-96.93,23.381],[-96.89,23.3842],[-96.8132,23.3665],[-96.6997,23.3278],[-96.6247,23.2945],[-96.5882,23.2666],[-96.5669,23.2436],[-96.5607,23.2256],[-96.5907,23.1994],[-96.6569,23.165],[-96.71,23.1266],[-96.75,23.0843],[-96.78,23.0616],[-96.8,23.0585],[-96.86,23.073],[-96.96,23.1052],[-97.0295,23.1543],[-97.0684,23.2203],[-97.0849,23.2625]]]}},{"type":"Feature","properties":{"c":"#fed976","v0":10.0,"v1":20.0},"geometry":{"type":"Polygon","coordinates":[[[-71.9528,46.3779],[-71.9231,46.3917],[-71.8587,46.4032],[-71.7596,46.4125],[-71.665,46.4073],[-71.575,46.3877],[-71.51,46.3919],[-71.47,46.4199],[-71.43,46.4344],[-71.39,46.4354],[-71.35,46.444],[-71.31,46.46],[-71.2842,46.4645],[-71.2725,46.4573],[-71.2625,46.4365],[-71.2542,46.4019],[-71.2244,46.3777],[-71.1731,46.364],[-71.1425,46.3503],[-71.1326,46.3365],[-71.1382,46.3163],[-71.1594,46.2899],[-71.205,46.282],[-71.275,46.2929],[-71.35,46.2876],[-71.43,46.2663],[-71.4826,46.2326],[-71.5079,46.1866],[-71.5329,46.1595],[-71.5576,46.1514],[-71.59,46.1616],[-71.63,46.1899],[-71.67,46.1985],[-71.71,46.1877],[-71.7433,46.1845],[-71.77,46.189],[-71.7945,46.2121],[-71.8169,46.2536],[-71.8566,46.2847],[-71.9137,46.3054],[-71.9487,46.3296],[-71.9613,46.3572],[-71.9528,46.3779]]]}},{"type":"Feature","properties":{"c":"#fed976","v0":10.0,"v1":20.0},"geometry":{"type":"Polygon","coordinates":[[[-80.8949,45.1395],[-80.8872,45.1606],[-80.86,45.1811],[-80.8133,45.2009],[-80.759,45.2361],[-80.6969,45.2868],[-80.6219,45.3111],[-80.534,45.3091],[-80.465,45.317],[-80.415,45.3347],[-80.375,45.3359],[-80.345,45.3206],[-80.3358,45.2987],[-80.3474,45.2701],[-80.3974,45.2313],[-80.4858,45.1824],[-80.555,45.1591],[-80.605,45.1615],[-80.675,45.1402],[-80.765,45.0951],[-80.825,45.0763],[-80.855,45.0836],[-80.8772,45.0976],[-80.8915,45.1185],[-80.8949,45.1395]]]}},{"type":"Feature","properties":{"c":"#fed976","v0":10.0,"v1":20.0},"geometry":{"type":"Polygon","coordinates":[[[-106.2138,30.7308],[-106.1978,30.7652],[-106.1618,30.791],[-106.1058,30.8082],[-106.0708,30.8286],[-106.0569,30.8522],[-106.04,30.8686],[-106.02,30.8776],[-105.995,30.8793],[-105.965,30.8737],[-105.9418,30.8617],[-105.9254,30.8432],[-105.9179,30.8211],[-105.9192,30.7953],[-105.936,30.7695],[-105.9681,30.7437],[-105.9807,30.7244],[-105.9736,30.7114],[-105.965,30.7046],[-105.955,30.7041],[-105.925,30.7343],[-105.875,30.7952],[-105.835,30.8315],[-105.805,30.8432],[-105.76,30.8469],[-105.7,30.8427],[-105.6521,30.8217],[-105.6162,30.7841],[-105.6136,30.7351],[-105.6443,30.6749],[-105.6942,30.6319],[-105.7635,30.6061],[-105.7904,30.576],[-105.7749,30.5415],[-105.7764,30.5071],[-105.7949,30.4726],[-105.8406,30.4356],[-105.9135,30.396],[-105.9764,30.3874],[-106.0291,30.4097],[-106.0627,30.4338],[-106.0772,30.4597],[-106.0855,30.4941],[-106.0877,30.5372],[-106.1157,30.5846],[-106.1697,30.6362],[-106.2029,30.6749],[-106.2155,30.7007],[-106.2138,30.7308]],[[-106.1956,30.73],[-106.1785,30.7626],[-106.145,30.7825],[-106.095,30.7898],[-106.055,30.8118],[-106.025,30.8485],[-106.0,30.8661],[-105.98,30.8645],[-105.9615,30.8563],[-105.9445,30.8414],[-105.939,30.8211],[-105.945,30.7953],[-105.9633,30.7738],[-105.9938,30.7566],[-105.9943,30.7257],[-105.9648,30.681],[-105.9415,30.6767],[-105.9245,30.7128],[-105.8895,30.7557],[-105.8365,30.8055],[-105.775,30.829],[-105.705,30.8262],[-105.6565,30.8099],[-105.6295,30.7801],[-105.6329,30.7351],[-105.6667,30.6749],[-105.7155,30.6362],[-105.7794,30.619],[-105.814,30.6061],[-105.8195,30.5975],[-105.8129,30.576],[-105.7942,30.5415],[-105.7913,30.5114],[-105.804,30.4855],[-105.8452,30.4523],[-105.9151,30.4117],[-105.965,30.3947],[-105.995,30.4013],[-106.0198,30.413],[-106.0393,30.4298],[-106.0542,30.4683],[-106.0647,30.5286],[-106.1035,30.5975],[-106.1706,30.6749],[-106.1956,30.73]]]}},{"type":"Feature","properties":{"c":"#fed976","v0":10.0,"v1":20.0},"geometry":{"type":"Polygon","coordinates":[[[-81.026,29.6681],[-81.0153,29.6863],[-80.985,29.7007],[-80.935,29.7113],[-80.88,29.716],[-80.82,29.7148],[-80.7758,29.7048],[-80.7475,29.6859],[-80.7675,29.6424],[-80.8358,29.5745],[-80.9,29.5581],[-80.96,29.5935],[-81.0003,29.6232],[-81.021,29.6471],[-81.026,29.6681]]]}},{"type":"Feature","properties":{"c":"#fed976","v0":10.0,"v1":20.0},"geometry":{"type":"Polygon","coordinates":[[[-80.9431,29.368],[-80.881,29.4126],[-80.8421,29.4343],[-80.8263,29.4333],[-80.8177,29.4067],[-80.8165,29.3544],[-80.8244,29.3169],[-80.8415,29.2941],[-80.87,29.2826],[-80.91,29.2822],[-80.941,29.298],[-80.9631,29.3298],[-80.9431,29.368]]]}},{"type":"Feature","properties":{"c":"#fed976","v0":10.0,"v1":20.0},"geometry":{"type":"Polygon","coordinates":[[[-87.5176,28.5713],[-87.5062,28.5976],[-87.4783,28.6196],[-87.4336,28.6371],[-87.4042,28.6854],[-87.3902,28.7643],[-87.3761,28.8125],[-87.3622,28.83],[-87.2889,28.8761],[-87.1563,28.9507],[-87.075,28.9888],[-87.045,28.9905],[-87.016,28.9838],[-86.9879,28.9689],[-86.9694,28.9483],[-86.9605,28.922],[-86.9696,28.8758],[-86.9965,28.8097],[-87.0937,28.7396],[-87.2612,28.6654],[-87.343,28.6064],[-87.3392,28.5625],[-87.3452,28.5317],[-87.361,28.5142],[-87.3891,28.5031],[-87.4297,28.4987],[-87.4683,28.5119],[-87.5049,28.5427],[-87.5176,28.5713]],[[-87.3634,28.7292],[-87.3384,28.7906],[-87.267,28.855],[-87.149,28.9223],[-87.0757,28.9573],[-87.0471,28.96],[-87.0253,28.957],[-87.0102,28.9483],[-86.9996,28.9351],[-86.9933,28.9176],[-87.0051,28.8782],[-87.0348,28.8169],[-87.0798,28.776],[-87.1399,28.7554],[-87.195,28.7291],[-87.245,28.697],[-87.29,28.6784],[-87.33,28.6733],[-87.3565,28.6777],[-87.3694,28.6916],[-87.3634,28.7292]],[[-87.4821,28.5662],[-87.474,28.5824],[-87.46,28.5922],[-87.44,28.5956],[-87.4198,28.5963],[-87.3995,28.5942],[-87.3844,28.5844],[-87.3744,28.5669],[-87.3845,28.5493],[-87.4148,28.5317],[-87.444,28.5317],[-87.4721,28.5493],[-87.4821,28.5662]]]}},{"type":"Feature","properties":{"c":"#fed976","v0":10.0,"v1":20.0},"geometry":{"type":"Polygon","coordinates":[[[-80.3439,28.6722],[-80.3332,28.6898],[-80.2983,28.7096],[-80.2394,28.7316],[-80.185,28.7669],[-80.135,28.8152],[-80.08,28.8483],[-80.02,28.8662],[-79.98,28.8711],[-79.96,28.8632],[-79.9576,28.8366],[-79.9729,28.7913],[-80.0129,28.7408],[-80.0776,28.6851],[-80.16,28.6458],[-80.26,28.6229],[-80.3179,28.6157],[-80.3337,28.6241],[-80.3435,28.6371],[-80.3474,28.6547],[-80.3439,28.6722]]]}},{"type":"Feature","properties":{"c":"#fed976","v0":10.0,"v1":20.0},"geometry":{"type":"Polygon","coordinates":[[[-83.0079,28.0634],[-82.956,28.1306],[-82.9023,28.1747],[-82.8469,28.1957],[-82.8183,28.2238],[-82.8166,28.259],[-82.8243,28.2844],[-82.8414,28.2999],[-82.875,28.295],[-82.925,28.2695],[-82.955,28.2558],[-82.965,28.2539],[-82.9709,28.2588],[-82.9727,28.2707],[-82.9661,28.2942],[-82.9511,28.3295],[-82.9225,28.3647],[-82.8803,28.3999],[-82.8345,28.4702],[-82.7851,28.5757],[-82.7528,28.6312],[-82.7376,28.6369],[-82.6998,28.6194],[-82.6393,28.5785],[-82.609,28.5449],[-82.6089,28.5186],[-82.625,28.4922],[-82.6572,28.4658],[-82.6773,28.4394],[-82.6852,28.4131],[-82.667,28.3735],[-82.6228,28.3207],[-82.5997,28.2634],[-82.5978,28.2017],[-82.6148,28.1488],[-82.6506,28.1047],[-82.7089,28.0544],[-82.7896,27.9978],[-82.8486,27.9713],[-82.8858,27.9749],[-82.9368,27.99],[-83.0015,28.0165],[-83.0079,28.0634]]]}},{"type":"Feature","properties":{"c":"#fed976","v0":10.0,"v1":20.0},"geometry":{"type":"Polygon","coordinates":[[[-87.5519,27.9172],[-87.5373,27.9395],[-87.51,27.9536],[-87.47,27.9596],[-87.438,27.9882],[-87.4141,28.0394],[-87.3391,28.111],[-87.213,28.2028],[-87.125,28.245],[-87.075,28.2378],[-87.0278,28.2095],[-86.9833,28.1603],[-86.959,28.0871],[-86.9548,27.99],[-86.967,27.9251],[-86.9957,27.8924],[-87.105,27.8857],[-87.295,27.9048],[-87.4043,27.8991],[-87.4329,27.8684],[-87.4579,27.8507],[-87.4793,27.8459],[-87.5073,27.8592],[-87.5419,27.8904],[-87.5519,27.9172]],[[-87.4111,28.0144],[-87.3837,28.0544],[-87.31,28.1155],[-87.19,28.1977],[-87.11,28.2329],[-87.07,28.2213],[-87.0305,28.1912],[-86.9915,28.1424],[-86.9713,28.0739],[-86.97,27.9856],[-86.9795,27.9291],[-86.9998,27.9044],[-87.095,27.8992],[-87.265,27.9136],[-87.365,27.9275],[-87.395,27.941],[-87.4137,27.9595],[-87.4211,27.9828],[-87.4111,28.0144]],[[-87.5273,27.9154],[-87.5024,27.934],[-87.48,27.9414],[-87.46,27.9375],[-87.4456,27.9281],[-87.4369,27.9134],[-87.4369,27.8972],[-87.4456,27.8793],[-87.46,27.8678],[-87.48,27.8625],[-87.5024,27.8715],[-87.5273,27.8945],[-87.5273,27.9154]]]}},{"type":"Feature","properties":{"c":"#fed976","v0":10.0,"v1":20.0},"geometry":{"type":"Polygon","coordinates":[[[-82.7884,27.8125],[-82.7761,27.8377],[-82.7496,27.8554],[-82.7087,27.8656],[-82.6752,27.9061],[-82.649,27.9768],[-82.6244,28.0099],[-82.6015,28.0055],[-82.5855,27.9923],[-82.5764,27.9702],[-82.5814,27.9432],[-82.6005,27.9113],[-82.625,27.8876],[-82.655,27.8722],[-82.69,27.8412],[-82.73,27.7944],[-82.76,27.7727],[-82.78,27.7758],[-82.7911,27.783],[-82.7934,27.7943],[-82.7884,27.8125]]]}},{"type":"Feature","properties":{"c":"#fed976","v0":10.0,"v1":20.0},"geometry":{"type":"Polygon","coordinates":[[[-79.9066,27.7115],[-79.8679,27.8177],[-79.8239,27.8828],[-79.7746,27.907],[-79.73,27.9176],[-79.69,27.9147],[-79.6515,27.8937],[-79.6145,27.8548],[-79.6088,27.8044],[-79.6345,27.7425],[-79.6452,27.7026],[-79.6409,27.6849],[-79.612,27.6495],[-79.5585,27.5963],[-79.5286,27.5476],[-79.5222,27.5032],[-79.5267,27.4741],[-79.5422,27.4604],[-79.565,27.4529],[-79.595,27.4518],[-79.6345,27.4676],[-79.6835,27.5002],[-79.7435,27.5223],[-79.8145,27.534],[-79.861,27.5473],[-79.883,27.5622],[-79.902,27.5919],[-79.918,27.6362],[-79.9066,27.7115]],[[-79.8893,27.7104],[-79.8498,27.8146],[-79.81,27.8759],[-79.77,27.8945],[-79.73,27.9022],[-79.69,27.8988],[-79.6553,27.8772],[-79.6258,27.8375],[-79.6234,27.7955],[-79.648,27.7513],[-79.6596,27.7159],[-79.6584,27.6893],[-79.6281,27.645],[-79.5689,27.583],[-79.5395,27.5343],[-79.5398,27.4988],[-79.5575,27.4776],[-79.5925,27.4708],[-79.63,27.482],[-79.67,27.5111],[-79.73,27.5333],[-79.81,27.5483],[-79.8592,27.5638],[-79.8775,27.5796],[-79.8922,27.6052],[-79.9034,27.6406],[-79.8893,27.7104]]]}},{"type":"Feature","properties":{"c":"#fed976","v0":10.0,"v1":20.0},"geometry":{"type":"Polygon","coordinates":[[[-88.732,27.7231],[-88.7173,27.7463],[-88.685,27.7696],[-88.635,27.793],[-88.55,27.8046],[-88.43,27.8046],[-88.3577,27.7946],[-88.333,27.7746],[-88.3192,27.7159],[-88.3163,27.6185],[-88.3237,27.5611],[-88.3412,27.5439],[-88.375,27.5294],[-88.425,27.5174],[-88.49,27.5154],[-88.57,27.5233],[-88.6188,27.5335],[-88.6363,27.5458],[-88.6687,27.5919],[-88.7158,27.6716],[-88.732,27.7231]],[[-88.7073,27.7203],[-88.6942,27.738],[-88.6682,27.7562],[-88.6294,27.7748],[-88.55,27.7837],[-88.43,27.7828],[-88.3628,27.7735],[-88.3484,27.7558],[-88.3415,27.7026],[-88.3423,27.614],[-88.3695,27.5602],[-88.4232,27.5412],[-88.485,27.5344],[-88.555,27.5397],[-88.5997,27.5492],[-88.619,27.5629],[-88.6499,27.6052],[-88.6926,27.676],[-88.7073,27.7203]]]}},{"type":"Feature","properties":{"c":"#fed976","v0":10.0,"v1":20.0},"geometry":{"type":"Polygon","coordinates":[[[-83.4868,27.5963],[-83.482,27.614],[-83.4672,27.6325],[-83.4424,27.6516],[-83.37,27.6631],[-83.25,27.6671],[-83.16,27.6923],[-83.1,27.7385],[-83.055,27.7671],[-83.025,27.7779],[-82.9943,27.7786],[-82.9628,27.7693],[-82.9371,27.738],[-82.9172,27.6849],[-82.9073,27.6406],[-82.9075,27.6052],[-82.9148,27.5742],[-82.9292,27.5476],[-82.9748,27.5096],[-83.0516,27.4604],[-83.11,27.4307],[-83.15,27.4205],[-83.185,27.4164],[-83.215,27.4183],[-83.28,27.4411],[-83.38,27.4848],[-83.4448,27.5268],[-83.4744,27.5672],[-83.4868,27.5963]],[[-83.4715,27.5963],[-83.4646,27.614],[-83.4484,27.6308],[-83.4228,27.6467],[-83.3522,27.6556],[-83.2367,27.6574],[-83.1367,27.6865],[-83.0522,27.7428],[-82.9954,27.7649],[-82.9661,27.7529],[-82.9439,27.7247],[-82.9287,27.6805],[-82.9213,27.6406],[-82.9215,27.6052],[-82.9287,27.5758],[-82.9429,27.5526],[-82.985,27.5185],[-83.055,27.4736],[-83.11,27.4458],[-83.15,27.4352],[-83.185,27.431],[-83.215,27.4334],[-83.28,27.4566],[-83.38,27.5005],[-83.4412,27.5387],[-83.4637,27.5712],[-83.4715,27.5963]]]}},{"type":"Feature","properties":{"c":"#fed976","v0":10.0,"v1":20.0},"geometry":{"type":"Polygon","coordinates":[[[-84.5725,26.9596],[-84.5575,26.9839],[-84.5155,27.0151],[-84.4466,27.0531],[-84.4331,27.0855],[-84.4749,27.1122],[-84.4982,27.1656],[-84.503,27.2457],[-84.5001,27.3034],[-84.4897,27.339],[-84.4553,27.3745],[-84.3971,27.41],[-84.3767,27.4455],[-84.3941,27.481],[-84.4041,27.5298],[-84.4064,27.5919],[-84.424,27.6406],[-84.4569,27.676],[-84.4679,27.707],[-84.4571,27.7336],[-84.4413,27.7511],[-84.4204,27.7595],[-84.4,27.7597],[-84.38,27.7518],[-84.3485,27.721],[-84.3054,27.6674],[-84.2745,27.5963],[-84.2559,27.5076],[-84.2253,27.4455],[-84.1829,27.41],[-84.1337,27.383],[-84.0779,27.3643],[-84.0441,27.3466],[-84.0324,27.3297],[-84.0374,27.2991],[-84.0591,27.255],[-84.117,27.2239],[-84.211,27.2058],[-84.261,27.1759],[-84.267,27.1342],[-84.26,27.1104],[-84.24,27.1043],[-84.205,27.1103],[-84.155,27.1283],[-84.115,27.1357],[-84.085,27.1326],[-84.0578,27.1163],[-84.0333,27.0869],[-84.02,27.0499],[-84.018,27.0053],[-84.0258,26.9697],[-84.0436,26.9429],[-84.0668,26.9229],[-84.0956,26.9095],[-84.145,26.9167],[-84.215,26.9444],[-84.263,26.9243],[-84.2891,26.8565],[-84.3191,26.8115],[-84.353,26.7894],[-84.41,26.7995],[-84.49,26.8417],[-84.5425,26.884],[-84.5675,26.9263],[-84.5725,26.9596]],[[-84.4247,27.7011],[-84.4149,27.7158],[-84.4035,27.7113],[-84.3904,27.6878],[-84.3953,27.6805],[-84.4181,27.6893],[-84.4247,27.7011]],[[-84.4658,27.299],[-84.4573,27.3257],[-84.4273,27.3516],[-84.3758,27.3769],[-84.3426,27.3991],[-84.3278,27.4182],[-84.3327,27.45],[-84.3574,27.4943],[-84.3648,27.5492],[-84.3549,27.6146],[-84.3402,27.6367],[-84.3206,27.6157],[-84.3087,27.5697],[-84.3047,27.4988],[-84.2745,27.4399],[-84.2182,27.3932],[-84.16,27.3579],[-84.1,27.3338],[-84.07,27.3128],[-84.0699,27.2947],[-84.0807,27.2768],[-84.1025,27.259],[-84.1576,27.2437],[-84.2459,27.231],[-84.3,27.1922],[-84.32,27.1273],[-84.363,27.107],[-84.4289,27.1312],[-84.464,27.179],[-84.4681,27.2501],[-84.4658,27.299]],[[-84.5125,26.9639],[-84.4575,26.9968],[-84.405,27.0138],[-84.355,27.0149],[-84.325,27.0287],[-84.315,27.0552],[-84.29,27.0679],[-84.25,27.0665],[-84.2,27.0759],[-84.14,27.0958],[-84.0959,27.0929],[-84.0677,27.0672],[-84.0541,27.0365],[-84.0549,27.0009],[-84.064,26.9733],[-84.0813,26.9539],[-84.1048,26.9449],[-84.1344,26.9466],[-84.1694,26.9597],[-84.2098,26.9843],[-84.2435,26.9932],[-84.2706,26.9865],[-84.2956,26.9488],[-84.3185,26.8803],[-84.34,26.8383],[-84.36,26.8227],[-84.405,26.8338],[-84.475,26.8716],[-84.5175,26.9047],[-84.5325,26.9332],[-84.5125,26.9639]]]}},{"type":"Feature","properties":{"c":"#fed976","v0":10.0,"v1":20.0},"geometry":{"type":"Polygon","coordinates":[[[-83.343,27.1701],[-83.2475,27.259],[-83.1824,27.3086],[-83.1475,27.3188],[-83.111,27.3143],[-83.073,27.2952],[-83.043,27.2561],[-83.021,27.1971],[-82.975,27.1623],[-82.905,27.1519],[-82.8636,27.137],[-82.8508,27.1175],[-82.8508,27.0915],[-82.8636,27.0589],[-82.9,27.0145],[-82.96,26.9584],[-83.0024,26.9346],[-83.0272,26.9431],[-83.0572,26.9656],[-83.0924,27.0019],[-83.175,27.0372],[-83.305,27.0715],[-83.3752,27.0978],[-83.3855,27.1163],[-83.343,27.1701]]]}},{"type":"Feature","properties":{"c":"#fed976","v0":10.0,"v1":20.0},"geometry":{"type":"Polygon","coordinates":[[[-82.3595,27.0018],[-82.3398,27.0392],[-82.285,27.0657],[-82.195,27.0813],[-82.1337,27.0848],[-82.1011,27.0764],[-82.059,27.0454],[-82.0074,26.992],[-81.9799,26.9429],[-81.9763,26.8984],[-81.988,26.827],[-82.0148,26.7288],[-82.0242,26.635],[-82.016,26.5455],[-82.0314,26.4742],[-82.0705,26.421],[-82.115,26.3953],[-82.165,26.3973],[-82.2063,26.4104],[-82.2389,26.4349],[-82.2654,26.4918],[-82.2858,26.5813],[-82.2745,26.6577],[-82.2315,26.7209],[-82.2056,26.77],[-82.1969,26.805],[-82.2019,26.8347],[-82.2206,26.859],[-82.2591,26.8813],[-82.3172,26.9016],[-82.352,26.9296],[-82.3636,26.9652],[-82.3595,27.0018]],[[-82.3433,27.0],[-82.3211,27.0339],[-82.265,27.0565],[-82.175,27.0681],[-82.1192,27.0689],[-82.0975,27.0592],[-82.063,27.0276],[-82.0158,26.9741],[-82.005,26.8805],[-82.0306,26.7466],[-82.0395,26.635],[-82.0317,26.5455],[-82.0483,26.4766],[-82.0894,26.4283],[-82.13,26.4066],[-82.17,26.4116],[-82.2015,26.4223],[-82.2245,26.4388],[-82.2466,26.4874],[-82.268,26.5679],[-82.2551,26.6484],[-82.2081,26.7288],[-82.1835,26.7868],[-82.1814,26.8225],[-82.1877,26.8498],[-82.2026,26.8686],[-82.24,26.8884],[-82.3,26.9091],[-82.3361,26.9354],[-82.3483,26.9672],[-82.3433,27.0]]]}},{"type":"Feature","properties":{"c":"#fed976","v0":10.0,"v1":20.0},"geometry":{"type":"Polygon","coordinates":[[[-85.2932,26.2561],[-85.2911,26.2686],[-85.28,26.279],[-85.26,26.2874],[-85.2122,26.2857],[-85.1367,26.2738],[-85.0533,26.2454],[-84.962,26.2006],[-84.917,26.1512],[-84.9183,26.0973],[-84.9268,26.0662],[-84.9423,26.0578],[-84.967,26.0578],[-85.0011,26.0662],[-85.0811,26.1071],[-85.207,26.1805],[-85.2761,26.2254],[-85.2882,26.2417],[-85.2932,26.2561]]]}},{"type":"Feature","properties":{"c":"#fed976","v0":10.0,"v1":20.0},"geometry":{"type":"Polygon","coordinates":[[[-84.9244,25.9446],[-84.9015,25.9806],[-84.8763,25.9896],[-84.849,25.9716],[-84.8291,25.949],[-84.8169,25.9221],[-84.8164,25.8996],[-84.8277,25.8816],[-84.8476,25.8677],[-84.8759,25.858],[-84.9,25.8611],[-84.92,25.8768],[-84.9315,25.8952],[-84.9344,25.9161],[-84.9244,25.9446]]]}},{"type":"Feature","properties":{"c":"#fed976","v0":10.0,"v1":20.0},"geometry":{"type":"Polygon","coordinates":[[[-97.0849,23.2625],[-97.079,23.2809],[-97.0545,23.2964],[-97.0115,23.3091],[-96.98,23.3315],[-96.96,23.3634],[-96.93,23.381],[-96.89,23.3842],[-96.8132,23.3665],[-96.6997,23.3278],[-96.6247,23.2945],[-96.5882,23.2666],[-96.5669,23.2436],[-96.5607,23.2256],[-96.5907,23.1994],[-96.6569,23.165],[-96.71,23.1266],[-96.75,23.0843],[-96.78,23.0616],[-96.8,23.0585],[-96.86,23.073],[-96.96,23.1052],[-97.0295,23.1543],[-97.0684,23.2203],[-97.0849,23.2625]]]}},{"type":"Feature","properties":{"c":"#feb24c","v0":20.0,"v1":30.0},"geometry":{"type":"Polygon","coordinates":[[[-106.1956,30.73],[-106.1785,30.7626],[-106.145,30.7825],[-106.095,30.7898],[-106.055,30.8118],[-106.025,30.8485],[-106.0,30.8661],[-105.98,30.8645],[-105.9615,30.8563],[-105.9445,30.8414],[-105.939,30.8211],[-105.945,30.7953],[-105.9633,30.7738],[-105.9938,30.7566],[-105.9943,30.7257],[-105.9648,30.681],[-105.9415,30.6767],[-105.9245,30.7128],[-105.8895,30.7557],[-105.8365,30.8055],[-105.775,30.829],[-105.705,30.8262],[-105.6565,30.8099],[-105.6295,30.7801],[-105.6329,30.7351],[-105.6667,30.6749],[-105.7155,30.6362],[-105.7794,30.619],[-105.814,30.6061],[-105.8195,30.5975],[-105.8129,30.576],[-105.7942,30.5415],[-105.7913,30.5114],[-105.804,30.4855],[-105.8452,30.4523],[-105.9151,30.4117],[-105.965,30.3947],[-105.995,30.4013],[-106.0198,30.413],[-106.0393,30.4298],[-106.0542,30.4683],[-106.0647,30.5286],[-106.1035,30.5975],[-106.1706,30.6749],[-106.1956,30.73]],[[-106.0324,30.8133],[-106.0175,30.8408],[-105.9954,30.8493],[-105.9661,30.8391],[-105.9562,30.8211],[-105.9656,30.7953],[-105.9852,30.7803],[-106.0151,30.7761],[-106.0325,30.7804],[-106.0374,30.7932],[-106.0324,30.8133]],[[-106.1803,30.7294],[-106.1601,30.7608],[-106.125,30.7754],[-106.075,30.7731],[-106.02,30.7361],[-105.96,30.6641],[-105.9248,30.6323],[-105.9145,30.6406],[-105.9095,30.6625],[-105.9098,30.6977],[-105.885,30.741],[-105.835,30.7925],[-105.78,30.8187],[-105.72,30.8195],[-105.675,30.8063],[-105.6449,30.7789],[-105.6449,30.7376],[-105.675,30.6823],[-105.7259,30.6436],[-105.7977,30.6215],[-105.8259,30.5846],[-105.8106,30.5329],[-105.8147,30.4932],[-105.8382,30.4654],[-105.875,30.4394],[-105.925,30.4153],[-105.971,30.4119],[-106.0129,30.4294],[-106.0394,30.4683],[-106.0504,30.5286],[-106.0896,30.5975],[-106.1568,30.6749],[-106.1803,30.7294]]]}},{"type":"Feature","properties":{"c":"#feb24c","v0":20.0,"v1":30.0},"geometry":{"type":"Polygon","coordinates":[[[-87.3634,28.7292],[-87.3384,28.7906],[-87.267,28.855],[-87.149,28.9223],[-87.0757,28.9573],[-87.0471,28.96],[-87.0253,28.957],[-87.0102,28.9483],[-86.9996,28.9351],[-86.9933,28.9176],[-87.0051,28.8782],[-87.0348,28.8169],[-87.0798,28.776],[-87.1399,28.7554],[-87.195,28.7291],[-87.245,28.697],[-87.29,28.6784],[-87.33,28.6733],[-87.3565,28.6777],[-87.3694,28.6916],[-87.3634,28.7292]]]}},{"type":"Feature","properties":{"c":"#feb24c","v0":20.0,"v1":30.0},"geometry":{"type":"Polygon","coordinates":[[[-87.4821,28.5662],[-87.474,28.5824],[-87.46,28.5922],[-87.44,28.5956],[-87.4198,28.5963],[-87.3995,28.5942],[-87.3844,28.5844],[-87.3744,28.5669],[-87.3845,28.5493],[-87.4148,28.5317],[-87.444,28.5317],[-87.4721,28.5493],[-87.4821,28.5662]]]}},{"type":"Feature","properties":{"c":"#feb24c","v0":20.0,"v1":30.0},"geometry":{"type":"Polygon","coordinates":[[[-87.4111,28.0144],[-87.3837,28.0544],[-87.31,28.1155],[-87.19,28.1977],[-87.11,28.2329],[-87.07,28.2213],[-87.0305,28.1912],[-86.9915,28.1424],[-86.9713,28.0739],[-86.97,27.9856],[-86.9795,27.9291],[-86.9998,27.9044],[-87.095,27.8992],[-87.265,27.9136],[-87.365,27.9275],[-87.395,27.941],[-87.4137,27.9595],[-87.4211,27.9828],[-87.4111,28.0144]],[[-87.3991,28.0121],[-87.375,28.0474],[-87.3047,28.1056],[-87.1882,28.1867],[-87.1118,28.2219],[-87.0753,28.2114],[-87.039,28.1841],[-87.0028,28.14],[-86.9841,28.0739],[-86.9828,27.9856],[-86.9941,27.9308],[-87.018,27.9094],[-87.11,27.9071],[-87.27,27.9239],[-87.3626,27.939],[-87.3877,27.9524],[-87.403,27.9679],[-87.4084,27.9856],[-87.3991,28.0121]]]}},{"type":"Feature","properties":{"c":"#feb24c","v0":20.0,"v1":30.0},"geometry":{"type":"Polygon","coordinates":[[[-87.5273,27.9154],[-87.5024,27.934],[-87.48,27.9414],[-87.46,27.9375],[-87.4456,27.9281],[-87.4369,27.9134],[-87.4369,27.8972],[-87.4456,27.8793],[-87.46,27.8678],[-87.48,27.8625],[-87.5024,27.8715],[-87.5273,27.8945],[-87.5273,27.9154]],[[-87.5143,27.9121],[-87.4981,27.9243],[-87.4797,27.9243],[-87.459,27.9121],[-87.459,27.898],[-87.4797,27.8819],[-87.4981,27.8819],[-87.5143,27.898],[-87.5143,27.9121]]]}},{"type":"Feature","properties":{"c":"#feb24c","v0":20.0,"v1":30.0},"geometry":{"type":"Polygon","coordinates":[[[-79.8893,27.7104],[-79.8498,27.8146],[-79.81,27.8759],[-79.77,27.8945],[-79.73,27.9022],[-79.69,27.8988],[-79.6553,27.8772],[-79.6258,27.8375],[-79.6234,27.7955],[-79.648,27.7513],[-79.6596,27.7159],[-79.6584,27.6893],[-79.6281,27.645],[-79.5689,27.583],[-79.5395,27.5343],[-79.5398,27.4988],[-79.5575,27.4776],[-79.5925,27.4708],[-79.63,27.482],[-79.67,27.5111],[-79.73,27.5333],[-79.81,27.5483],[-79.8592,27.5638],[-79.8775,27.5796],[-79.8922,27.6052],[-79.9034,27.6406],[-79.8893,27.7104]],[[-79.8789,27.707],[-79.8438,27.8044],[-79.8072,27.8629],[-79.7691,27.8826],[-79.73,27.8903],[-79.69,27.886],[-79.6584,27.8673],[-79.6353,27.8342],[-79.6367,27.7955],[-79.6626,27.7513],[-79.6741,27.7141],[-79.6714,27.6839],[-79.6436,27.6441],[-79.5908,27.5945],[-79.5596,27.552],[-79.5501,27.5165],[-79.5564,27.4929],[-79.5788,27.481],[-79.615,27.4909],[-79.665,27.5225],[-79.73,27.5459],[-79.81,27.5612],[-79.8616,27.5912],[-79.8848,27.636],[-79.8789,27.707]]]}},{"type":"Feature","properties":{"c":"#feb24c","v0":20.0,"v1":30.0},"geometry":{"type":"Polygon","coordinates":[[[-88.7073,27.7203],[-88.6942,27.738],[-88.6682,27.7562],[-88.6294,27.7748],[-88.55,27.7837],[-88.43,27.7828],[-88.3628,27.7735],[-88.3484,27.7558],[-88.3415,27.7026],[-88.3423,27.614],[-88.3695,27.5602],[-88.4232,27.5412],[-88.485,27.5344],[-88.555,27.5397],[-88.5997,27.5492],[-88.619,27.5629],[-88.6499,27.6052],[-88.6926,27.676],[-88.7073,27.7203]],[[-88.6595,27.7247],[-88.6135,27.7513],[-88.5405,27.7646],[-88.4407,27.7646],[-88.3848,27.7557],[-88.3729,27.738],[-88.3675,27.6938],[-88.3687,27.6229],[-88.3945,27.5785],[-88.4448,27.5607],[-88.5,27.5558],[-88.56,27.564],[-88.6131,27.604],[-88.6594,27.6756],[-88.6595,27.7247]]]}},{"type":"Feature","properties":{"c":"#feb24c","v0":20.0,"v1":30.0},"geometry":{"type":"Polygon","coordinates":[[[-83.4715,27.5963],[-83.4646,27.614],[-83.4484,27.6308],[-83.4228,27.6467],[-83.3522,27.6556],[-83.2367,27.6574],[-83.1367,27.6865],[-83.0522,27.7428],[-82.9954,27.7649],[-82.9661,27.7529],[-82.9439,27.7247],[-82.9287,27.6805],[-82.9213,27.6406],[-82.9215,27.6052],[-82.9287,27.5758],[-82.9429,27.5526],[-82.985,27.5185],[-83.055,27.4736],[-83.11,27.4458],[-83.15,27.4352],[-83.185,27.431],[-83.215,27.4334],[-83.28,27.4566],[-83.38,27.5005],[-83.4412,27.5387],[-83.4637,27.5712],[-83.4715,27.5963]],[[-83.4589,27.5963],[-83.4503,27.614],[-83.432,27.6295],[-83.404,27.6426],[-83.335,27.6498],[-83.225,27.6508],[-83.13,27.6786],[-83.05,27.7331],[-82.9991,27.757],[-82.9773,27.7502],[-82.958,27.7247],[-82.9412,27.6805],[-82.9379,27.6318],[-82.9482,27.5786],[-82.9875,27.5297],[-83.0558,27.4852],[-83.11,27.4571],[-83.15,27.4453],[-83.18,27.4392],[-83.2,27.4388],[-83.26,27.4598],[-83.36,27.5022],[-83.4233,27.5394],[-83.4499,27.5714],[-83.4589,27.5963]]]}},{"type":"Feature","properties":{"c":"#feb24c","v0":20.0,"v1":30.0},"geometry":{"type":"Polygon","coordinates":[[[-84.4247,27.7011],[-84.4149,27.7158],[-84.4035,27.7113],[-84.3904,27.6878],[-84.3953,27.6805],[-84.4181,27.6893],[-84.4247,27.7011]]]}},{"type":"Feature","properties":{"c":"#feb24c","v0":20.0,"v1":30.0},"geometry":{"type":"Polygon","coordinates":[[[-84.4658,27.299],[-84.4573,27.3257],[-84.4273,27.3516],[-84.3758,27.3769],[-84.3426,27.3991],[-84.3278,27.4182],[-84.3327,27.45],[-84.3574,27.4943],[-84.3648,27.5492],[-84.3549,27.6146],[-84.3402,27.6367],[-84.3206,27.6157],[-84.3087,27.5697],[-84.3047,27.4988],[-84.2745,27.4399],[-84.2182,27.3932],[-84.16,27.3579],[-84.1,27.3338],[-84.07,27.3128],[-84.0699,27.2947],[-84.0807,27.2768],[-84.1025,27.259],[-84.1576,27.2437],[-84.2459,27.231],[-84.3,27.1922],[-84.32,27.1273],[-84.363,27.107],[-84.4289,27.1312],[-84.464,27.179],[-84.4681,27.2501],[-84.4658,27.299]]]}},{"type":"Feature","properties":{"c":"#feb24c","v0":20.0,"v1":30.0},"geometry":{"type":"Polygon","coordinates":[[[-84.5125,26.9639],[-84.4575,26.9968],[-84.405,27.0138],[-84.355,27.0149],[-84.325,27.0287],[-84.315,27.0552],[-84.29,27.0679],[-84.25,27.0665],[-84.2,27.0759],[-84.14,27.0958],[-84.0959,27.0929],[-84.0677,27.0672],[-84.0541,27.0365],[-84.0549,27.0009],[-84.064,26.9733],[-84.0813,26.9539],[-84.1048,26.9449],[-84.1344,26.9466],[-84.1694,26.9597],[-84.2098,26.9843],[-84.2435,26.9932],[-84.2706,26.9865],[-84.2956,26.9488],[-84.3185,26.8803],[-84.34,26.8383],[-84.36,26.8227],[-84.405,26.8338],[-84.475,26.8716],[-84.5175,26.9047],[-84.5325,26.9332],[-84.5125,26.9639]]]}},{"type":"Feature","properties":{"c":"#feb24c","v0":20.0,"v1":30.0},"geometry":{"type":"Polygon","coordinates":[[[-82.3433,27.0],[-82.3211,27.0339],[-82.265,27.0565],[-82.175,27.0681],[-82.1192,27.0689],[-82.0975,27.0592],[-82.063,27.0276],[-82.0158,26.9741],[-82.005,26.8805],[-82.0306,26.7466],[-82.0395,26.635],[-82.0317,26.5455],[-82.0483,26.4766],[-82.0894,26.4283],[-82.13,26.4066],[-82.17,26.4116],[-82.2015,26.4223],[-82.2245,26.4388],[-82.2466,26.4874],[-82.268,26.5679],[-82.2551,26.6484],[-82.2081,26.7288],[-82.1835,26.7868],[-82.1814,26.8225],[-82.1877,26.8498],[-82.2026,26.8686],[-82.24,26.8884],[-82.3,26.9091],[-82.3361,26.9354],[-82.3483,26.9672],[-82.3433,27.0]],[[-82.3337,26.9968],[-82.3179,27.0242],[-82.265,27.0441],[-82.175,27.0563],[-82.0988,27.0337],[-82.0364,26.9762],[-82.0039,26.934],[-82.0013,26.9073],[-82.0141,26.8404],[-82.0422,26.7332],[-82.0523,26.635],[-82.0444,26.5455],[-82.0578,26.4799],[-82.0926,26.4382],[-82.1374,26.4247],[-82.1922,26.4396],[-82.2309,26.4874],[-82.2536,26.5679],[-82.2414,26.6484],[-82.1946,26.7288],[-82.1709,26.789],[-82.1703,26.8292],[-82.18,26.8597],[-82.2,26.8806],[-82.2379,26.9007],[-82.2938,26.92],[-82.3267,26.9429],[-82.3367,26.9697],[-82.3337,26.9968]]]}},{"type":"Feature","properties":{"c":"#fd8d3c","v0":30.0,"v1":40.0},"geometry":{"type":"Polygon","coordinates":[[[-106.0324,30.8133],[-106.0175,30.8408],[-105.9954,30.8493],[-105.9661,30.8391],[-105.9562,30.8211],[-105.9656,30.7953],[-105.9852,30.7803],[-106.0151,30.7761],[-106.0325,30.7804],[-106.0374,30.7932],[-106.0324,30.8133]],[[-106.0156,30.8233],[-105.9985,30.8365],[-105.983,30.8365],[-105.9689,30.8233],[-105.9689,30.81],[-105.983,30.7964],[-105.9985,30.7964],[-106.0156,30.81],[-106.0156,30.8233]]]}},{"type":"Feature","properties":{"c":"#fd8d3c","v0":30.0,"v1":40.0},"geometry":{"type":"Polygon","coordinates":[[[-106.1803,30.7294],[-106.1601,30.7608],[-106.125,30.7754],[-106.075,30.7731],[-106.02,30.7361],[-105.96,30.6641],[-105.9248,30.6323],[-105.9145,30.6406],[-105.9095,30.6625],[-105.9098,30.6977],[-105.885,30.741],[-105.835,30.7925],[-105.78,30.8187],[-105.72,30.8195],[-105.675,30.8063],[-105.6449,30.7789],[-105.6449,30.7376],[-105.675,30.6823],[-105.7259,30.6436],[-105.7977,30.6215],[-105.8259,30.5846],[-105.8106,30.5329],[-105.8147,30.4932],[-105.8382,30.4654],[-105.875,30.4394],[-105.925,30.4153],[-105.971,30.4119],[-106.0129,30.4294],[-106.0394,30.4683],[-106.0504,30.5286],[-106.0896,30.5975],[-106.1568,30.6749],[-106.1803,30.7294]],[[-106.1702,30.7261],[-106.1567,30.7511],[-106.1331,30.764],[-106.0994,30.7648],[-106.0544,30.7331],[-105.9981,30.669],[-105.955,30.6298],[-105.925,30.6158],[-105.9045,30.6134],[-105.8935,30.6229],[-105.8902,30.6491],[-105.8945,30.6921],[-105.875,30.7367],[-105.8317,30.7827],[-105.785,30.8076],[-105.735,30.8113],[-105.6934,30.8012],[-105.6602,30.7772],[-105.6576,30.7394],[-105.6857,30.6878],[-105.7408,30.6491],[-105.8229,30.6233],[-105.8523,30.5846],[-105.8292,30.5329],[-105.8294,30.4941],[-105.8532,30.4683],[-105.8863,30.4452],[-105.9288,30.4249],[-105.97,30.4243],[-106.01,30.4433],[-106.0352,30.4836],[-106.0456,30.5452],[-106.0824,30.6104],[-106.1454,30.6792],[-106.1702,30.7261]]]}},{"type":"Feature","properties":{"c":"#fd8d3c","v0":30.0,"v1":40.0},"geometry":{"type":"Polygon","coordinates":[[[-87.3991,28.0121],[-87.375,28.0474],[-87.3047,28.1056],[-87.1882,28.1867],[-87.1118,28.2219],[-87.0753,28.2114],[-87.039,28.1841],[-87.0028,28.14],[-86.9841,28.0739],[-86.9828,27.9856],[-86.9941,27.9308],[-87.018,27.9094],[-87.11,27.9071],[-87.27,27.9239],[-87.3626,27.939],[-87.3877,27.9524],[-87.403,27.9679],[-87.4084,27.9856],[-87.3991,28.0121]],[[-87.3859,28.0112],[-87.362,28.0447],[-87.295,28.0999],[-87.185,28.1769],[-87.115,28.212],[-87.085,28.2054],[-87.052,28.1811],[-87.0159,28.139],[-86.9973,28.0739],[-86.9962,27.9856],[-87.0043,27.9337],[-87.0214,27.9182],[-87.108,27.9182],[-87.2639,27.9337],[-87.352,27.9458],[-87.372,27.9547],[-87.386,27.9679],[-87.3939,27.9856],[-87.3859,28.0112]]]}},{"type":"Feature","properties":{"c":"#fd8d3c","v0":30.0,"v1":40.0},"geometry":{"type":"Polygon","coordinates":[[[-87.5143,27.9121],[-87.4981,27.9243],[-87.4797,27.9243],[-87.459,27.9121],[-87.459,27.898],[-87.4797,27.8819],[-87.4981,27.8819],[-87.5143,27.898],[-87.5143,27.9121]],[[-87.492,27.9061],[-87.4765,27.9061],[-87.4741,27.9023],[-87.4847,27.8946],[-87.4924,27.8946],[-87.4973,27.9023],[-87.492,27.9061]]]}},{"type":"Feature","properties":{"c":"#fd8d3c","v0":30.0,"v1":40.0},"geometry":{"type":"Polygon","coordinates":[[[-79.8789,27.707],[-79.8438,27.8044],[-79.8072,27.8629],[-79.7691,27.8826],[-79.73,27.8903],[-79.69,27.886],[-79.6584,27.8673],[-79.6353,27.8342],[-79.6367,27.7955],[-79.6626,27.7513],[-79.6741,27.7141],[-79.6714,27.6839],[-79.6436,27.6441],[-79.5908,27.5945],[-79.5596,27.552],[-79.5501,27.5165],[-79.5564,27.4929],[-79.5788,27.481],[-79.615,27.4909],[-79.665,27.5225],[-79.73,27.5459],[-79.81,27.5612],[-79.8616,27.5912],[-79.8848,27.636],[-79.8789,27.707]],[[-79.865,27.7068],[-79.8283,27.8038],[-79.79,27.8603],[-79.75,27.8766],[-79.715,27.8813],[-79.685,27.8745],[-79.6618,27.8578],[-79.6453,27.831],[-79.6501,27.7955],[-79.6762,27.7513],[-79.6871,27.7115],[-79.6829,27.676],[-79.6555,27.6362],[-79.6049,27.5919],[-79.5752,27.552],[-79.5665,27.5165],[-79.5691,27.496],[-79.583,27.4906],[-79.61,27.5017],[-79.65,27.5295],[-79.715,27.5533],[-79.805,27.573],[-79.8583,27.6018],[-79.875,27.6395],[-79.865,27.7068]]]}},{"type":"Feature","properties":{"c":"#fd8d3c","v0":30.0,"v1":40.0},"geometry":{"type":"Polygon","coordinates":[[[-88.6595,27.7247],[-88.6135,27.7513],[-88.5405,27.7646],[-88.4407,27.7646],[-88.3848,27.7557],[-88.3729,27.738],[-88.3675,27.6938],[-88.3687,27.6229],[-88.3945,27.5785],[-88.4448,27.5607],[-88.5,27.5558],[-88.56,27.564],[-88.6131,27.604],[-88.6594,27.6756],[-88.6595,27.7247]]]}},{"type":"Feature","properties":{"c":"#fd8d3c","v0":30.0,"v1":40.0},"geometry":{"type":"Polygon","coordinates":[[[-83.4589,27.5963],[-83.4503,27.614],[-83.432,27.6295],[-83.404,27.6426],[-83.335,27.6498],[-83.225,27.6508],[-83.13,27.6786],[-83.05,27.7331],[-82.9991,27.757],[-82.9773,27.7502],[-82.958,27.7247],[-82.9412,27.6805],[-82.9379,27.6318],[-82.9482,27.5786],[-82.9875,27.5297],[-83.0558,27.4852],[-83.11,27.4571],[-83.15,27.4453],[-83.18,27.4392],[-83.2,27.4388],[-83.26,27.4598],[-83.36,27.5022],[-83.4233,27.5394],[-83.4499,27.5714],[-83.4589,27.5963]],[[-83.437,27.6005],[-83.4057,27.6267],[-83.335,27.6402],[-83.225,27.641],[-83.13,27.6688],[-83.05,27.7238],[-82.9989,27.7457],[-82.9767,27.7347],[-82.9598,27.7115],[-82.9482,27.676],[-82.9426,27.6406],[-82.9431,27.6052],[-82.9493,27.5786],[-82.9613,27.5609],[-83.0027,27.5298],[-83.0736,27.4855],[-83.1242,27.4597],[-83.1547,27.4524],[-83.18,27.4487],[-83.2,27.4485],[-83.26,27.4696],[-83.36,27.5121],[-83.4207,27.5468],[-83.442,27.5739],[-83.437,27.6005]]]}},{"type":"Feature","properties":{"c":"#fd8d3c","v0":30.0,"v1":40.0},"geometry":{"type":"Polygon","coordinates":[[[-82.3337,26.9968],[-82.3179,27.0242],[-82.265,27.0441],[-82.175,27.0563],[-82.0988,27.0337],[-82.0364,26.9762],[-82.0039,26.934],[-82.0013,26.9073],[-82.0141,26.8404],[-82.0422,26.7332],[-82.0523,26.635],[-82.0444,26.5455],[-82.0578,26.4799],[-82.0926,26.4382],[-82.1374,26.4247],[-82.1922,26.4396],[-82.2309,26.4874],[-82.2536,26.5679],[-82.2414,26.6484],[-82.1946,26.7288],[-82.1709,26.789],[-82.1703,26.8292],[-82.18,26.8597],[-82.2,26.8806],[-82.2379,26.9007],[-82.2938,26.92],[-82.3267,26.9429],[-82.3367,26.9697],[-82.3337,26.9968]],[[-82.3198,26.9956],[-82.2999,27.0206],[-82.255,27.0383],[-82.185,27.0485],[-82.14,27.0507],[-82.12,27.045],[-82.0872,27.0184],[-82.0415,26.9711],[-82.0171,26.934],[-82.0139,26.9073],[-82.0262,26.8404],[-82.054,26.7332],[-82.0634,26.639],[-82.0545,26.5576],[-82.065,26.4951],[-82.095,26.4515],[-82.135,26.4359],[-82.185,26.4483],[-82.2206,26.4929],[-82.2417,26.5697],[-82.2288,26.6484],[-82.1818,26.7288],[-82.1588,26.7913],[-82.1597,26.8359],[-82.1726,26.8696],[-82.1975,26.8922],[-82.235,26.9118],[-82.285,26.9284],[-82.3149,26.9483],[-82.3248,26.9715],[-82.3198,26.9956]]]}},{"type":"Feature","properties":{"c":"#fc4e2a","v0":40.0,"v1":50.0},"geometry":{"type":"Polygon","coordinates":[[[-106.0156,30.8233],[-105.9985,30.8365],[-105.983,30.8365],[-105.9689,30.8233],[-105.9689,30.81],[-105.983,30.7964],[-105.9985,30.7964],[-106.0156,30.81],[-106.0156,30.8233]]]}},{"type":"Feature","properties":{"c":"#fc4e2a","v0":40.0,"v1":50.0},"geometry":{"type":"Polygon","coordinates":[[[-106.1702,30.7261],[-106.1567,30.7511],[-106.1331,30.764],[-106.0994,30.7648],[-106.0544,30.7331],[-105.9981,30.669],[-105.955,30.6298],[-105.925,30.6158],[-105.9045,30.6134],[-105.8935,30.6229],[-105.8902,30.6491],[-105.8945,30.6921],[-105.875,30.7367],[-105.8317,30.7827],[-105.785,30.8076],[-105.735,30.8113],[-105.6934,30.8012],[-105.6602,30.7772],[-105.6576,30.7394],[-105.6857,30.6878],[-105.7408,30.6491],[-105.8229,30.6233],[-105.8523,30.5846],[-105.8292,30.5329],[-105.8294,30.4941],[-105.8532,30.4683],[-105.8863,30.4452],[-105.9288,30.4249],[-105.97,30.4243],[-106.01,30.4433],[-106.0352,30.4836],[-106.0456,30.5452],[-106.0824,30.6104],[-106.1454,30.6792],[-106.1702,30.7261]],[[-105.8622,30.7223],[-105.8141,30.7741],[-105.7688,30.7999],[-105.7265,30.7997],[-105.6941,30.791],[-105.6716,30.7738],[-105.6664,30.748],[-105.6786,30.7136],[-105.6961,30.6878],[-105.7187,30.6704],[-105.76,30.6557],[-105.82,30.6439],[-105.8591,30.6526],[-105.8772,30.6818],[-105.8622,30.7223]],[[-106.153,30.7243],[-106.1377,30.7456],[-106.115,30.7527],[-106.085,30.7456],[-106.045,30.7108],[-105.995,30.6483],[-105.9374,30.5981],[-105.8721,30.5604],[-105.8421,30.5273],[-105.8474,30.4987],[-105.87,30.4719],[-105.91,30.4467],[-105.9463,30.4352],[-105.9789,30.4371],[-106.0039,30.4504],[-106.0213,30.475],[-106.0308,30.5094],[-106.0324,30.5538],[-106.0651,30.6104],[-106.1288,30.6792],[-106.153,30.7243]]]}},{"type":"Feature","properties":{"c":"#fc4e2a","v0":40.0,"v1":50.0},"geometry":{"type":"Polygon","coordinates":[[[-87.3859,28.0112],[-87.362,28.0447],[-87.295,28.0999],[-87.185,28.1769],[-87.115,28.212],[-87.085,28.2054],[-87.052,28.1811],[-87.0159,28.139],[-86.9973,28.0739],[-86.9962,27.9856],[-87.0043,27.9337],[-87.0214,27.9182],[-87.108,27.9182],[-87.2639,27.9337],[-87.352,27.9458],[-87.372,27.9547],[-87.386,27.9679],[-87.3939,27.9856],[-87.3859,28.0112]],[[-87.3736,28.0077],[-87.3562,28.0342],[-87.2931,28.0861],[-87.1844,28.1634],[-87.1157,28.1987],[-87.087,28.1919],[-87.057,28.1697],[-87.0257,28.132],[-87.0102,28.0703],[-87.0105,27.9844],[-87.0155,27.9369],[-87.0252,27.9279],[-87.0948,27.9279],[-87.2244,27.9369],[-87.3061,27.9458],[-87.3399,27.9547],[-87.3632,27.9679],[-87.376,27.9856],[-87.3736,28.0077]]]}},{"type":"Feature","properties":{"c":"#fc4e2a","v0":40.0,"v1":50.0},"geometry":{"type":"Polygon","coordinates":[[[-87.492,27.9061],[-87.4765,27.9061],[-87.4741,27.9023],[-87.4847,27.8946],[-87.4924,27.8946],[-87.4973,27.9023],[-87.492,27.9061]]]}},{"type":"Feature","properties":{"c":"#fc4e2a","v0":40.0,"v1":50.0},"geometry":{"type":"Polygon","coordinates":[[[-79.865,27.7068],[-79.8283,27.8038],[-79.79,27.8603],[-79.75,27.8766],[-79.715,27.8813],[-79.685,27.8745],[-79.6618,27.8578],[-79.6453,27.831],[-79.6501,27.7955],[-79.6762,27.7513],[-79.6871,27.7115],[-79.6829,27.676],[-79.6555,27.6362],[-79.6049,27.5919],[-79.5752,27.552],[-79.5665,27.5165],[-79.5691,27.496],[-79.583,27.4906],[-79.61,27.5017],[-79.65,27.5295],[-79.715,27.5533],[-79.805,27.573],[-79.8583,27.6018],[-79.875,27.6395],[-79.865,27.7068]],[[-79.8536,27.7026],[-79.822,27.7911],[-79.7892,27.8442],[-79.7552,27.8619],[-79.7262,27.8696],[-79.7021,27.8673],[-79.6803,27.854],[-79.661,27.8298],[-79.6648,27.7955],[-79.6918,27.7513],[-79.7032,27.7115],[-79.6991,27.676],[-79.6723,27.6362],[-79.6227,27.5919],[-79.5919,27.5564],[-79.5799,27.5298],[-79.578,27.5135],[-79.586,27.5074],[-79.61,27.5178],[-79.65,27.5446],[-79.7102,27.5653],[-79.7907,27.5801],[-79.8406,27.6052],[-79.8598,27.6406],[-79.8536,27.7026]]]}},{"type":"Feature","properties":{"c":"#fc4e2a","v0":40.0,"v1":50.0},"geometry":{"type":"Polygon","coordinates":[[[-83.437,27.6005],[-83.4057,27.6267],[-83.335,27.6402],[-83.225,27.641],[-83.13,27.6688],[-83.05,27.7238],[-82.9989,27.7457],[-82.9767,27.7347],[-82.9598,27.7115],[-82.9482,27.676],[-82.9426,27.6406],[-82.9431,27.6052],[-82.9493,27.5786],[-82.9613,27.5609],[-83.0027,27.5298],[-83.0736,27.4855],[-83.1242,27.4597],[-83.1547,27.4524],[-83.18,27.4487],[-83.2,27.4485],[-83.26,27.4696],[-83.36,27.5121],[-83.4207,27.5468],[-83.442,27.5739],[-83.437,27.6005]],[[-83.4286,27.5982],[-83.4029,27.6198],[-83.335,27.6308],[-83.225,27.6314],[-83.13,27.6591],[-83.05,27.714],[-83.0022,27.7384],[-82.9867,27.7323],[-82.9723,27.7115],[-82.959,27.676],[-82.9567,27.6343],[-82.9656,27.5863],[-83.005,27.5399],[-83.075,27.4951],[-83.125,27.469],[-83.155,27.4614],[-83.2251,27.4768],[-83.3352,27.5151],[-83.4031,27.5476],[-83.4287,27.5742],[-83.4286,27.5982]]]}},{"type":"Feature","properties":{"c":"#fc4e2a","v0":40.0,"v1":50.0},"geometry":{"type":"Polygon","coordinates":[[[-82.3198,26.9956],[-82.2999,27.0206],[-82.255,27.0383],[-82.185,27.0485],[-82.14,27.0507],[-82.12,27.045],[-82.0872,27.0184],[-82.0415,26.9711],[-82.0171,26.934],[-82.0139,26.9073],[-82.0262,26.8404],[-82.054,26.7332],[-82.0634,26.639],[-82.0545,26.5576],[-82.065,26.4951],[-82.095,26.4515],[-82.135,26.4359],[-82.185,26.4483],[-82.2206,26.4929],[-82.2417,26.5697],[-82.2288,26.6484],[-82.1818,26.7288],[-82.1588,26.7913],[-82.1597,26.8359],[-82.1726,26.8696],[-82.1975,26.8922],[-82.235,26.9118],[-82.285,26.9284],[-82.3149,26.9483],[-82.3248,26.9715],[-82.3198,26.9956]],[[-82.3089,26.9923],[-82.2963,27.0108],[-82.25,27.0245],[-82.17,27.0334],[-82.105,27.0133],[-82.055,26.9643],[-82.043,26.8748],[-82.0691,26.7447],[-82.0776,26.6394],[-82.0685,26.5589],[-82.0755,26.5003],[-82.0985,26.4634],[-82.1327,26.45],[-82.1781,26.46],[-82.2098,26.5008],[-82.2279,26.5724],[-82.2136,26.6484],[-82.1671,26.7288],[-82.1441,26.7913],[-82.1448,26.8359],[-82.1564,26.8705],[-82.1788,26.8951],[-82.2177,26.9174],[-82.273,26.9374],[-82.3043,26.9563],[-82.3115,26.9741],[-82.3089,26.9923]]]}},{"type":"Feature","properties":{"c":"#e31a1c","v0":50.0,"v1":60.0},"geometry":{"type":"Polygon","coordinates":[[[-105.8622,30.7223],[-105.8141,30.7741],[-105.7688,30.7999],[-105.7265,30.7997],[-105.6941,30.791],[-105.6716,30.7738],[-105.6664,30.748],[-105.6786,30.7136],[-105.6961,30.6878],[-105.7187,30.6704],[-105.76,30.6557],[-105.82,30.6439],[-105.8591,30.6526],[-105.8772,30.6818],[-105.8622,30.7223]],[[-105.8396,30.7156],[-105.8065,30.754],[-105.7651,30.7712],[-105.7154,30.7672],[-105.7004,30.746],[-105.7201,30.7077],[-105.755,30.6843],[-105.805,30.6759],[-105.8365,30.6779],[-105.8496,30.6903],[-105.8396,30.7156]]]}},{"type":"Feature","properties":{"c":"#e31a1c","v0":50.0,"v1":60.0},"geometry":{"type":"Polygon","coordinates":[[[-106.153,30.7243],[-106.1377,30.7456],[-106.115,30.7527],[-106.085,30.7456],[-106.045,30.7108],[-105.995,30.6483],[-105.9374,30.5981],[-105.8721,30.5604],[-105.8421,30.5273],[-105.8474,30.4987],[-105.87,30.4719],[-105.91,30.4467],[-105.9463,30.4352],[-105.9789,30.4371],[-106.0039,30.4504],[-106.0213,30.475],[-106.0308,30.5094],[-106.0324,30.5538],[-106.0651,30.6104],[-106.1288,30.6792],[-106.153,30.7243]],[[-106.1291,30.7179],[-106.1232,30.7265],[-106.1127,30.7292],[-106.0976,30.7261],[-106.0686,30.696],[-106.0257,30.6389],[-105.9724,30.5932],[-105.9085,30.5588],[-105.8777,30.5286],[-105.88,30.5028],[-105.8983,30.4806],[-105.9328,30.4621],[-105.96,30.4562],[-105.98,30.4629],[-105.9926,30.4938],[-105.9979,30.5486],[-106.0334,30.6104],[-106.0991,30.6792],[-106.1291,30.7179]]]}},{"type":"Feature","properties":{"c":"#e31a1c","v0":50.0,"v1":60.0},"geometry":{"type":"Polygon","coordinates":[[[-87.3736,28.0077],[-87.3562,28.0342],[-87.2931,28.0861],[-87.1844,28.1634],[-87.1157,28.1987],[-87.087,28.1919],[-87.057,28.1697],[-87.0257,28.132],[-87.0102,28.0703],[-87.0105,27.9844],[-87.0155,27.9369],[-87.0252,27.9279],[-87.0948,27.9279],[-87.2244,27.9369],[-87.3061,27.9458],[-87.3399,27.9547],[-87.3632,27.9679],[-87.376,27.9856],[-87.3736,28.0077]],[[-87.3506,28.0047],[-87.3369,28.0254],[-87.28,28.0717],[-87.18,28.1438],[-87.1182,28.1776],[-87.0946,28.1731],[-87.0696,28.155],[-87.0432,28.1232],[-87.035,28.0661],[-87.045,27.9838],[-87.1083,27.9467],[-87.2248,27.955],[-87.3016,27.9679],[-87.3388,27.9856],[-87.3506,28.0047]]]}},{"type":"Feature","properties":{"c":"#e31a1c","v0":50.0,"v1":60.0},"geometry":{"type":"Polygon","coordinates":[[[-79.8536,27.7026],[-79.822,27.7911],[-79.7892,27.8442],[-79.7552,27.8619],[-79.7262,27.8696],[-79.7021,27.8673],[-79.6803,27.854],[-79.661,27.8298],[-79.6648,27.7955],[-79.6918,27.7513],[-79.7032,27.7115],[-79.6991,27.676],[-79.6723,27.6362],[-79.6227,27.5919],[-79.5919,27.5564],[-79.5799,27.5298],[-79.578,27.5135],[-79.586,27.5074],[-79.61,27.5178],[-79.65,27.5446],[-79.7102,27.5653],[-79.7907,27.5801],[-79.8406,27.6052],[-79.8598,27.6406],[-79.8536,27.7026]],[[-79.8303,27.6982],[-79.8031,27.7779],[-79.7747,27.826],[-79.7449,27.8425],[-79.72,27.8482],[-79.7,27.8429],[-79.6884,27.8302],[-79.6851,27.81],[-79.6956,27.7779],[-79.72,27.7336],[-79.7202,27.6805],[-79.6964,27.6185],[-79.7167,27.5919],[-79.7814,27.6007],[-79.8212,27.6185],[-79.8363,27.645],[-79.8303,27.6982]]]}},{"type":"Feature","properties":{"c":"#e31a1c","v0":50.0,"v1":60.0},"geometry":{"type":"Polygon","coordinates":[[[-83.4286,27.5982],[-83.4029,27.6198],[-83.335,27.6308],[-83.225,27.6314],[-83.13,27.6591],[-83.05,27.714],[-83.0022,27.7384],[-82.9867,27.7323],[-82.9723,27.7115],[-82.959,27.676],[-82.9567,27.6343],[-82.9656,27.5863],[-83.005,27.5399],[-83.075,27.4951],[-83.125,27.469],[-83.155,27.4614],[-83.2251,27.4768],[-83.3352,27.5151],[-83.4031,27.5476],[-83.4287,27.5742],[-83.4286,27.5982]],[[-83.4201,27.5957],[-83.4,27.6123],[-83.335,27.6208],[-83.225,27.6214],[-83.13,27.649],[-83.05,27.7037],[-82.9984,27.7129],[-82.9751,27.6765],[-82.9669,27.6362],[-82.9738,27.5919],[-83.0104,27.5482],[-83.0768,27.505],[-83.125,27.4795],[-83.155,27.4716],[-83.2287,27.4887],[-83.3461,27.5309],[-83.4111,27.5609],[-83.4238,27.5786],[-83.4201,27.5957]]]}},{"type":"Feature","properties":{"c":"#e31a1c","v0":50.0,"v1":60.0},"geometry":{"type":"Polygon","coordinates":[[[-82.3089,26.9923],[-82.2963,27.0108],[-82.25,27.0245],[-82.17,27.0334],[-82.105,27.0133],[-82.055,26.9643],[-82.043,26.8748],[-82.0691,26.7447],[-82.0776,26.6394],[-82.0685,26.5589],[-82.0755,26.5003],[-82.0985,26.4634],[-82.1327,26.45],[-82.1781,26.46],[-82.2098,26.5008],[-82.2279,26.5724],[-82.2136,26.6484],[-82.1671,26.7288],[-82.1441,26.7913],[-82.1448,26.8359],[-82.1564,26.8705],[-82.1788,26.8951],[-82.2177,26.9174],[-82.273,26.9374],[-82.3043,26.9563],[-82.3115,26.9741],[-82.3089,26.9923]],[[-82.2867,26.9883],[-82.2756,26.9988],[-82.24,27.0083],[-82.18,27.0169],[-82.1247,26.9983],[-82.074,26.9525],[-82.0621,26.8716],[-82.0891,26.7556],[-82.0983,26.6528],[-82.0898,26.5634],[-82.0967,26.5043],[-82.1189,26.4756],[-82.1437,26.4666],[-82.171,26.4775],[-82.1846,26.5008],[-82.1846,26.5366],[-82.1918,26.5679],[-82.2063,26.5947],[-82.1902,26.6484],[-82.1434,26.7288],[-82.1205,26.7913],[-82.1214,26.8359],[-82.1339,26.8733],[-82.158,26.9034],[-82.2006,26.9346],[-82.2617,26.9669],[-82.2867,26.9883]]]}},{"type":"Feature","properties":{"c":"#bd0026","v0":60.0,"v1":75.0},"geometry":{"type":"Polygon","coordinates":[[[-105.8396,30.7156],[-105.8065,30.754],[-105.7651,30.7712],[-105.7154,30.7672],[-105.7004,30.746],[-105.7201,30.7077],[-105.755,30.6843],[-105.805,30.6759],[-105.8365,30.6779],[-105.8496,30.6903],[-105.8396,30.7156]]]}},{"type":"Feature","properties":{"c":"#bd0026","v0":60.0,"v1":75.0},"geometry":{"type":"Polygon","coordinates":[[[-106.1291,30.7179],[-106.1232,30.7265],[-106.1127,30.7292],[-106.0976,30.7261],[-106.0686,30.696],[-106.0257,30.6389],[-105.9724,30.5932],[-105.9085,30.5588],[-105.8777,30.5286],[-105.88,30.5028],[-105.8983,30.4806],[-105.9328,30.4621],[-105.96,30.4562],[-105.98,30.4629],[-105.9926,30.4938],[-105.9979,30.5486],[-106.0334,30.6104],[-106.0991,30.6792],[-106.1291,30.7179]]]}},{"type":"Feature","properties":{"c":"#bd0026","v0":60.0,"v1":75.0},"geometry":{"type":"Polygon","coordinates":[[[-87.3506,28.0047],[-87.3369,28.0254],[-87.28,28.0717],[-87.18,28.1438],[-87.1182,28.1776],[-87.0946,28.1731],[-87.0696,28.155],[-87.0432,28.1232],[-87.035,28.0661],[-87.045,27.9838],[-87.1083,27.9467],[-87.2248,27.955],[-87.3016,27.9679],[-87.3388,27.9856],[-87.3506,28.0047]]]}},{"type":"Feature","properties":{"c":"#bd0026","v0":60.0,"v1":75.0},"geometry":{"type":"Polygon","coordinates":[[[-79.8303,27.6982],[-79.8031,27.7779],[-79.7747,27.826],[-79.7449,27.8425],[-79.72,27.8482],[-79.7,27.8429],[-79.6884,27.8302],[-79.6851,27.81],[-79.6956,27.7779],[-79.72,27.7336],[-79.7202,27.6805],[-79.6964,27.6185],[-79.7167,27.5919],[-79.7814,27.6007],[-79.8212,27.6185],[-79.8363,27.645],[-79.8303,27.6982]]]}},{"type":"Feature","properties":{"c":"#bd0026","v0":60.0,"v1":75.0},"geometry":{"type":"Polygon","coordinates":[[[-83.4201,27.5957],[-83.4,27.6123],[-83.335,27.6208],[-83.225,27.6214],[-83.13,27.649],[-83.05,27.7037],[-82.9984,27.7129],[-82.9751,27.6765],[-82.9669,27.6362],[-82.9738,27.5919],[-83.0104,27.5482],[-83.0768,27.505],[-83.125,27.4795],[-83.155,27.4716],[-83.2287,27.4887],[-83.3461,27.5309],[-83.4111,27.5609],[-83.4238,27.5786],[-83.4201,27.5957]],[[-83.3392,27.5899],[-83.2264,27.5949],[-83.135,27.6225],[-83.065,27.6725],[-83.025,27.6982],[-83.015,27.6996],[-83.005,27.692],[-82.995,27.6754],[-82.991,27.6472],[-82.993,27.6074],[-83.033,27.5641],[-83.111,27.5174],[-83.165,27.4943],[-83.195,27.4947],[-83.2564,27.518],[-83.3492,27.5643],[-83.3392,27.5899]]]}},{"type":"Feature","properties":{"c":"#bd0026","v0":60.0,"v1":75.0},"geometry":{"type":"Polygon","coordinates":[[[-82.2867,26.9883],[-82.2756,26.9988],[-82.24,27.0083],[-82.18,27.0169],[-82.1247,26.9983],[-82.074,26.9525],[-82.0621,26.8716],[-82.0891,26.7556],[-82.0983,26.6528],[-82.0898,26.5634],[-82.0967,26.5043],[-82.1189,26.4756],[-82.1437,26.4666],[-82.171,26.4775],[-82.1846,26.5008],[-82.1846,26.5366],[-82.1918,26.5679],[-82.2063,26.5947],[-82.1902,26.6484],[-82.1434,26.7288],[-82.1205,26.7913],[-82.1214,26.8359],[-82.1339,26.8733],[-82.158,26.9034],[-82.2006,26.9346],[-82.2617,26.9669],[-82.2867,26.9883]]]}},{"type":"Feature","properties":{"c":"#800026","v0":75.0,"v1":90.0},"geometry":{"type":"Polygon","coordinates":[[[-83.3392,27.5899],[-83.2264,27.5949],[-83.135,27.6225],[-83.065,27.6725],[-83.025,27.6982],[-83.015,27.6996],[-83.005,27.692],[-82.995,27.6754],[-82.991,27.6472],[-82.993,27.6074],[-83.033,27.5641],[-83.111,27.5174],[-83.165,27.4943],[-83.195,27.4947],[-83.2564,27.518],[-83.3492,27.5643],[-83.3392,27.5899]]]}}]}