{"type":"FeatureCollection","features":[{"type":"Feature","properties":{"c":"#ffffb2","v0":5.0,"v1":10.0},"geometry":{"type":"Polygon","coordinates":[[[-72.8414,48.0956],[-72.8396,48.1223],[-72.8304,48.1457],[-72.8139,48.1657],[-72.7917,48.1771],[-72.7639,48.1798],[-72.74,48.1738],[-72.72,48.1592],[-72.678,48.1144],[-72.6141,48.0395],[-72.5941,47.9727],[-72.618,47.914],[-72.64,47.8835],[-72.66,47.8812],[-72.705,47.8884],[-72.775,47.9051],[-72.8181,47.9557],[-72.8343,48.0401],[-72.8414,48.0956]]]}},{"type":"Feature","properties":{"c":"#ffffb2","v0":5.0,"v1":10.0},"geometry":{"type":"Polygon","coordinates":[[[-83.6619,46.0041],[-83.6564,46.0457],[-83.6407,46.0769],[-83.6149,46.0978],[-83.5939,46.1359],[-83.5778,46.1913],[-83.5404,46.2328],[-83.4816,46.2605],[-83.4416,46.2983],[-83.4205,46.3462],[-83.395,46.3737],[-83.365,46.3807],[-83.335,46.3814],[-83.305,46.3756],[-83.2732,46.3585],[-83.2396,46.33],[-83.2211,46.2916],[-83.2178,46.2432],[-83.2081,46.2017],[-83.1919,46.1671],[-83.1947,46.1289],[-83.2164,46.0873],[-83.263,46.0491],[-83.3343,46.0141],[-83.405,45.986],[-83.475,45.9646],[-83.54,45.953],[-83.6,45.9512],[-83.6387,45.9586],[-83.656,45.975],[-83.6619,46.0041]]]}},{"type":"Feature","properties":{"c":"#ffffb2","v0":5.0,"v1":10.0},"geometry":{"type":"Polygon","coordinates":[[[-84.4685,45.7696],[-84.4562,45.7879],[-84.415,45.8028],[-84.345,45.8141],[-84.28,45.8395],[-84.22,45.8788],[-84.145,45.8981],[-84.055,45.8974],[-83.9944,45.8873],[-83.9633,45.8677],[-83.9485,45.8406],[-83.9501,45.8057],[-83.9604,45.7778],[-83.9794,45.7569],[-84.0192,45.7408],[-84.0797,45.7295],[-84.155,45.708],[-84.245,45.6761],[-84.305,45.6612],[-84.335,45.6631],[-84.37,45.6737],[-84.41,45.693],[-84.4412,45.7171],[-84.4635,45.7459],[-84.4685,45.7696]],[[-84.4451,45.7663],[-84.435,45.7782],[-84.395,45.7903],[-84.325,45.8026],[-84.265,45.8267],[-84.215,45.8628],[-84.145,45.8804],[-84.055,45.8795],[-84.0,45.8716],[-83.98,45.8567],[-83.97,45.8374],[-83.97,45.8138],[-83.9789,45.7916],[-83.9967,45.7708],[-84.0367,45.7545],[-84.0989,45.7428],[-84.17,45.722],[-84.25,45.6921],[-84.31,45.6807],[-84.35,45.6877],[-84.3874,45.7015],[-84.4223,45.7222],[-84.4423,45.7394],[-84.4475,45.7534],[-84.4451,45.7663]]]}},{"type":"Feature","properties":{"c":"#ffffb2","v0":5.0,"v1":10.0},"geometry":{"type":"Polygon","coordinates":[[[-69.6427,41.552],[-69.6319,41.5819],[-69.5974,41.6169],[-69.5391,41.657],[-69.495,41.6819],[-69.465,41.6914],[-69.395,41.7004],[-69.285,41.7087],[-69.22,41.7087],[-69.2,41.7001],[-69.1737,41.6749],[-69.1411,41.6328],[-69.0911,41.5899],[-69.0237,41.5462],[-68.97,41.5185],[-68.93,41.5071],[-68.9025,41.4804],[-68.8874,41.4382],[-68.8924,41.4015],[-68.9175,41.3704],[-68.955,41.3481],[-69.005,41.3349],[-69.0415,41.3355],[-69.0646,41.3499],[-69.0858,41.3721],[-69.1051,41.4021],[-69.1345,41.4284],[-69.1741,41.4508],[-69.2429,41.4683],[-69.341,41.4806],[-69.42,41.4784],[-69.48,41.4614],[-69.53,41.4524],[-69.57,41.4512],[-69.6022,41.4572],[-69.6267,41.4705],[-69.6412,41.4921],[-69.6458,41.522],[-69.6427,41.552]],[[-69.6287,41.5482],[-69.6226,41.5707],[-69.5922,41.602],[-69.5374,41.6423],[-69.49,41.6683],[-69.45,41.68],[-69.38,41.6892],[-69.28,41.6959],[-69.2098,41.6774],[-69.1693,41.6337],[-69.1243,41.599],[-69.0748,41.5734],[-69.04,41.5496],[-69.02,41.5276],[-68.9883,41.5105],[-68.9448,41.4982],[-68.9169,41.4733],[-68.9043,41.4359],[-68.9111,41.4028],[-68.937,41.3741],[-68.97,41.3556],[-69.01,41.3475],[-69.0492,41.3656],[-69.0877,41.4099],[-69.1277,41.4426],[-69.1692,41.4636],[-69.24,41.4806],[-69.34,41.4936],[-69.425,41.4908],[-69.495,41.4723],[-69.545,41.4634],[-69.575,41.4641],[-69.5992,41.4713],[-69.6177,41.4851],[-69.6282,41.5033],[-69.6306,41.5258],[-69.6287,41.5482]]]}},{"type":"Feature","properties":{"c":"#ffffb2","v0":5.0,"v1":10.0},"geometry":{"type":"Polygon","coordinates":[[[-74.3485,34.9292],[-74.3362,34.9587],[-74.3,34.9782],[-74.24,34.9878],[-74.1868,35.0099],[-74.1405,35.0446],[-74.1055,35.0958],[-74.0818,35.1634],[-74.055,35.1996],[-74.025,35.2043],[-73.9954,35.1991],[-73.9662,35.184],[-73.9362,35.146],[-73.9054,35.0851],[-73.8808,35.0196],[-73.8623,34.9495],[-73.8623,34.8978],[-73.8808,34.8645],[-73.905,34.8481],[-73.935,34.8485],[-73.96,34.8683],[-73.98,34.9074],[-74.005,34.9319],[-74.035,34.9419],[-74.07,34.9315],[-74.11,34.9006],[-74.17,34.8671],[-74.25,34.8309],[-74.3062,34.8382],[-74.3385,34.889],[-74.3485,34.9292]]]}},{"type":"Feature","properties":{"c":"#ffffb2","v0":5.0,"v1":10.0},"geometry":{"type":"Polygon","coordinates":[[[-74.936,33.829],[-74.8817,33.9369],[-74.8357,34.0116],[-74.798,34.053],[-74.7851,34.1027],[-74.7972,34.1606],[-74.7978,34.2227],[-74.787,34.2888],[-74.7287,34.352],[-74.6229,34.4122],[-74.55,34.4599],[-74.51,34.4952],[-74.4646,34.5187],[-74.4137,34.5305],[-74.3637,34.5516],[-74.3146,34.582],[-74.275,34.5944],[-74.245,34.5888],[-74.2226,34.5735],[-74.2078,34.5487],[-74.2071,34.4869],[-74.2206,34.3879],[-74.258,34.3132],[-74.3193,34.2627],[-74.365,34.2044],[-74.395,34.1383],[-74.44,34.097],[-74.5,34.0805],[-74.5785,34.0395],[-74.6756,33.9739],[-74.7318,33.9203],[-74.7472,33.8788],[-74.7487,33.8157],[-74.7362,33.731],[-74.745,33.6801],[-74.775,33.663],[-74.805,33.656],[-74.835,33.6591],[-74.8737,33.6726],[-74.921,33.6965],[-74.9493,33.7251],[-74.9585,33.7583],[-74.936,33.829]],[[-74.8916,33.8248],[-74.8395,33.9245],[-74.7943,33.995],[-74.756,34.0364],[-74.7401,34.116],[-74.7467,34.2337],[-74.74,34.2966],[-74.72,34.305],[-74.7086,34.2958],[-74.7059,34.2691],[-74.6959,34.2487],[-74.6786,34.2344],[-74.65,34.2298],[-74.61,34.2347],[-74.5801,34.2542],[-74.5603,34.2883],[-74.5671,34.3219],[-74.6006,34.3549],[-74.615,34.3755],[-74.6103,34.3838],[-74.5884,34.3961],[-74.5495,34.4125],[-74.515,34.435],[-74.485,34.4637],[-74.44,34.4858],[-74.38,34.5014],[-74.335,34.5209],[-74.305,34.5441],[-74.2824,34.555],[-74.2672,34.5535],[-74.262,34.5034],[-74.2667,34.4044],[-74.2988,34.3301],[-74.3584,34.2806],[-74.4036,34.2254],[-74.4345,34.1645],[-74.48,34.124],[-74.54,34.1039],[-74.6217,34.0557],[-74.7251,33.9793],[-74.7827,33.9203],[-74.7946,33.8788],[-74.7929,33.8207],[-74.7778,33.7459],[-74.7801,33.7041],[-74.8,33.6953],[-74.823,33.6953],[-74.849,33.7041],[-74.874,33.7157],[-74.898,33.7303],[-74.9119,33.747],[-74.9157,33.7656],[-74.8916,33.8248]],[[-74.6506,34.2946],[-74.6369,34.3061],[-74.6231,34.3061],[-74.6094,34.2946],[-74.6094,34.2832],[-74.6231,34.2718],[-74.6369,34.2718],[-74.6506,34.2832],[-74.6506,34.2946]]]}},{"type":"Feature","properties":{"c":"#ffffb2","v0":5.0,"v1":10.0},"geometry":{"type":"Polygon","coordinates":[[[-75.4954,33.3625],[-75.4802,33.4042],[-75.4348,33.4543],[-75.3592,33.5127],[-75.3294,33.5669],[-75.3453,33.6169],[-75.3493,33.6543],[-75.3412,33.6793],[-75.3153,33.7141],[-75.2718,33.7585],[-75.235,33.7792],[-75.205,33.776],[-75.1759,33.7621],[-75.1478,33.7374],[-75.1323,33.7043],[-75.1293,33.6627],[-75.1334,33.6169],[-75.1445,33.5669],[-75.1718,33.5252],[-75.2152,33.4919],[-75.2486,33.4418],[-75.272,33.375],[-75.2953,33.332],[-75.3184,33.3127],[-75.345,33.2993],[-75.375,33.2918],[-75.41,33.2921],[-75.45,33.3],[-75.4783,33.3134],[-75.4948,33.3322],[-75.4954,33.3625]],[[-75.466,33.3708],[-75.4588,33.3959],[-75.4161,33.4376],[-75.3377,33.496],[-75.306,33.5544],[-75.3208,33.6127],[-75.3236,33.6535],[-75.3145,33.6767],[-75.2911,33.7058],[-75.2533,33.7408],[-75.2233,33.7562],[-75.2011,33.7519],[-75.1801,33.7353],[-75.1604,33.7063],[-75.1558,33.6585],[-75.1664,33.5919],[-75.1932,33.5419],[-75.2365,33.5085],[-75.2688,33.4585],[-75.2903,33.3917],[-75.3233,33.346],[-75.3678,33.3212],[-75.405,33.3118],[-75.435,33.3178],[-75.4549,33.3302],[-75.4646,33.3489],[-75.466,33.3708]]]}},{"type":"Feature","properties":{"c":"#ffffb2","v0":5.0,"v1":10.0},"geometry":{"type":"Polygon","coordinates":[[[-77.1876,33.1295],[-77.1625,33.1739],[-77.125,33.1999],[-77.075,33.2077],[-77.025,33.2252],[-76.975,33.2524],[-76.93,33.2692],[-76.89,33.2756],[-76.84,33.2998],[-76.78,33.3418],[-76.715,33.3653],[-76.645,33.3704],[-76.6042,33.3818],[-76.5926,33.3996],[-76.5935,33.4376],[-76.607,33.496],[-76.5978,33.5357],[-76.5659,33.5567],[-76.51,33.5624],[-76.43,33.5528],[-76.375,33.5255],[-76.345,33.4803],[-76.29,33.4685],[-76.21,33.4902],[-76.14,33.5018],[-76.08,33.5033],[-76.01,33.4866],[-75.93,33.4517],[-75.8696,33.4194],[-75.8289,33.3898],[-75.7889,33.3703],[-75.7496,33.3608],[-75.69,33.3599],[-75.61,33.3677],[-75.5552,33.3599],[-75.5257,33.3366],[-75.5127,33.304],[-75.5162,33.2622],[-75.5477,33.2246],[-75.607,33.1911],[-75.6225,33.1492],[-75.5942,33.099],[-75.5875,33.0585],[-75.6025,33.0278],[-75.635,33.0099],[-75.685,33.0049],[-75.74,33.0229],[-75.8,33.0639],[-75.8492,33.0859],[-75.8875,33.089],[-75.9375,33.0808],[-75.9992,33.0611],[-76.07,33.0176],[-76.15,32.9501],[-76.21,32.9091],[-76.25,32.8945],[-76.285,32.892],[-76.315,32.9016],[-76.3435,32.9231],[-76.3705,32.9565],[-76.3796,33.0194],[-76.371,33.1115],[-76.3725,33.1651],[-76.3842,33.1802],[-76.42,33.1489],[-76.48,33.0712],[-76.525,33.0268],[-76.555,33.0158],[-76.595,33.0168],[-76.645,33.0299],[-76.6834,33.0123],[-76.7102,32.9639],[-76.7352,32.9336],[-76.7584,32.9216],[-76.7897,32.9216],[-76.8291,32.9336],[-76.8691,32.9621],[-76.9097,33.007],[-76.96,33.0213],[-77.02,33.005],[-77.075,33.003],[-77.125,33.0152],[-77.1625,33.0428],[-77.1876,33.0858],[-77.1876,33.1295]],[[-77.1763,33.1199],[-77.1694,33.145],[-77.157,33.1645],[-77.139,33.1781],[-77.11,33.1871],[-77.07,33.1914],[-77.025,33.2071],[-76.975,33.2342],[-76.925,33.2528],[-76.875,33.2629],[-76.825,33.2872],[-76.775,33.3256],[-76.7125,33.3481],[-76.6375,33.3549],[-76.5913,33.3708],[-76.5737,33.3959],[-76.5715,33.4376],[-76.5846,33.496],[-76.5759,33.532],[-76.5453,33.5455],[-76.51,33.5519],[-76.47,33.5511],[-76.435,33.5446],[-76.405,33.5324],[-76.38,33.5026],[-76.36,33.4552],[-76.31,33.4437],[-76.23,33.4683],[-76.155,33.4822],[-76.085,33.4854],[-75.99,33.4545],[-75.87,33.3895],[-75.79,33.3526],[-75.75,33.3438],[-75.69,33.3427],[-75.61,33.3493],[-75.56,33.3373],[-75.5401,33.3068],[-75.5345,33.2789],[-75.5434,33.2538],[-75.5684,33.2335],[-75.6095,33.2179],[-75.6376,33.2011],[-75.6529,33.1833],[-75.6456,33.1492],[-75.6155,33.099],[-75.6079,33.0608],[-75.6226,33.0347],[-75.65,33.0214],[-75.69,33.0207],[-75.74,33.0412],[-75.8,33.0829],[-75.8489,33.1046],[-75.8867,33.1064],[-75.9367,33.0982],[-75.9989,33.08],[-76.07,33.0377],[-76.15,32.9713],[-76.21,32.9297],[-76.25,32.913],[-76.2832,32.9092],[-76.3096,32.9183],[-76.3329,32.9355],[-76.3529,32.9606],[-76.359,33.0235],[-76.3511,33.1241],[-76.3578,33.1875],[-76.3793,33.2138],[-76.4249,33.1804],[-76.4946,33.087],[-76.5396,33.0374],[-76.5599,33.0315],[-76.595,33.0364],[-76.645,33.0522],[-76.695,33.0285],[-76.745,32.9653],[-76.7878,32.9393],[-76.8235,32.9507],[-76.8585,32.9792],[-76.8928,33.0247],[-76.94,33.0393],[-77.0,33.023],[-77.055,33.019],[-77.105,33.0272],[-77.1424,33.0503],[-77.1673,33.0884],[-77.1763,33.1199]]]}},{"type":"Feature","properties":{"c":"#ffffb2","v0":5.0,"v1":10.0},"geometry":{"type":"Polygon","coordinates":[[[-85.6395,31.949],[-85.6198,31.9936],[-85.575,32.0455],[-85.505,32.1048],[-85.425,32.1495],[-85.335,32.1794],[-85.27,32.1845],[-85.23,32.1647],[-85.1913,32.1317],[-85.154,32.0856],[-85.1169,32.0498],[-85.0798,32.0243],[-85.0494,31.9904],[-85.0256,31.948],[-85.0116,31.9098],[-85.0073,31.8758],[-85.0147,31.8504],[-85.0337,31.8334],[-85.0599,31.8207],[-85.0933,31.8124],[-85.14,31.809],[-85.2,31.8105],[-85.26,31.825],[-85.32,31.8525],[-85.38,31.853],[-85.44,31.8265],[-85.485,31.812],[-85.515,31.8096],[-85.5536,31.821],[-85.6009,31.8462],[-85.6307,31.8758],[-85.6432,31.9098],[-85.6395,31.949]]]}},{"type":"Feature","properties":{"c":"#ffffb2","v0":5.0,"v1":10.0},"geometry":{"type":"Polygon","coordinates":[[[-86.171,31.5142],[-86.1609,31.5398],[-86.1444,31.5581],[-86.1215,31.5693],[-86.0805,31.5693],[-86.0215,31.5581],[-85.9715,31.5079],[-85.9305,31.4187],[-85.885,31.3934],[-85.835,31.4322],[-85.78,31.4401],[-85.72,31.4169],[-85.6928,31.4378],[-85.6983,31.503],[-85.6583,31.5611],[-85.5728,31.6121],[-85.51,31.6358],[-85.47,31.632],[-85.4429,31.6192],[-85.4286,31.5975],[-85.4237,31.5696],[-85.428,31.5355],[-85.4552,31.4845],[-85.5051,31.4165],[-85.605,31.3597],[-85.755,31.3142],[-85.84,31.2932],[-85.86,31.2968],[-85.885,31.3141],[-85.915,31.3452],[-85.9561,31.3533],[-86.0084,31.3382],[-86.0634,31.3598],[-86.1211,31.4178],[-86.1565,31.4605],[-86.1695,31.4878],[-86.171,31.5142]]]}},{"type":"Feature","properties":{"c":"#ffffb2","v0":5.0,"v1":10.0},"geometry":{"type":"Polygon","coordinates":[[[-87.3606,31.4162],[-87.3402,31.4506],[-87.315,31.4719],[-87.285,31.4803],[-87.245,31.4823],[-87.195,31.4782],[-87.145,31.4852],[-87.095,31.5034],[-87.04,31.4946],[-86.98,31.4586],[-86.9672,31.426],[-87.0015,31.3966],[-87.0115,31.3614],[-86.9972,31.3202],[-86.946,31.2946],[-86.8581,31.2845],[-86.8054,31.2709],[-86.7879,31.2538],[-86.7869,31.2412],[-86.8023,31.2332],[-86.855,31.2374],[-86.945,31.2538],[-87.05,31.2544],[-87.17,31.239],[-87.2434,31.239],[-87.2703,31.2546],[-87.3055,31.2965],[-87.349,31.3649],[-87.3606,31.4162]]]}},{"type":"Feature","properties":{"c":"#ffffb2","v0":5.0,"v1":10.0},"geometry":{"type":"Polygon","coordinates":[[[-79.9121,30.1498],[-79.8707,30.2641],[-79.8265,30.3375],[-79.7796,30.3701],[-79.7446,30.4022],[-79.7215,30.4338],[-79.685,30.4577],[-79.635,30.474],[-79.5848,30.4669],[-79.5343,30.4362],[-79.504,30.4079],[-79.4938,30.3821],[-79.4918,30.3562],[-79.4979,30.3303],[-79.5238,30.2914],[-79.5695,30.2396],[-79.6044,30.1877],[-79.6285,30.1359],[-79.658,30.1013],[-79.6929,30.084],[-79.7115,30.0666],[-79.7137,30.0493],[-79.7064,30.0277],[-79.6896,30.0017],[-79.6934,29.9712],[-79.7178,29.9362],[-79.745,29.9142],[-79.775,29.9054],[-79.805,29.9057],[-79.835,29.9151],[-79.867,29.9457],[-79.901,29.9975],[-79.9217,30.0407],[-79.9291,30.0753],[-79.9121,30.1498]],[[-79.8873,30.1454],[-79.8491,30.251],[-79.8067,30.3201],[-79.7602,30.3528],[-79.7252,30.3851],[-79.7017,30.4172],[-79.67,30.439],[-79.63,30.4507],[-79.59,30.4438],[-79.55,30.4185],[-79.5268,30.3923],[-79.5204,30.3653],[-79.5254,30.3348],[-79.5418,30.3008],[-79.5685,30.2663],[-79.6055,30.2312],[-79.6334,30.1921],[-79.6522,30.1488],[-79.6824,30.1142],[-79.7242,30.0883],[-79.7462,30.0666],[-79.7483,30.0493],[-79.7404,30.0277],[-79.7224,30.0017],[-79.7219,29.9757],[-79.739,29.9497],[-79.7682,29.9367],[-79.8097,29.9367],[-79.8495,29.9757],[-79.8874,30.0537],[-79.8873,30.1454]]]}},{"type":"Feature","properties":{"c":"#ffffb2","v0":5.0,"v1":10.0},"geometry":{"type":"Polygon","coordinates":[[[-82.2855,30.1239],[-82.2618,30.1519],[-82.23,30.1596],[-82.19,30.1472],[-82.1115,30.1418],[-81.9944,30.1436],[-81.9261,30.1315],[-81.9066,30.1056],[-81.9651,30.0714],[-82.1017,30.0289],[-82.195,30.0182],[-82.245,30.0392],[-82.2768,30.0647],[-82.2905,30.0948],[-82.2855,30.1239]]]}},{"type":"Feature","properties":{"c":"#ffffb2","v0":5.0,"v1":10.0},"geometry":{"type":"Polygon","coordinates":[[[-90.0421,29.1843],[-90.0327,29.2105],[-89.9935,29.2468],[-89.9245,29.2932],[-89.875,29.3186],[-89.845,29.3232],[-89.8172,29.3174],[-89.7916,29.3014],[-89.781,29.2759],[-89.7853,29.241],[-89.8131,29.1956],[-89.8644,29.1395],[-89.92,29.1117],[-89.98,29.112],[-90.0192,29.127],[-90.0376,29.1564],[-90.0421,29.1843]],[[-90.0134,29.1799],[-90.0083,29.1974],[-89.9769,29.2265],[-89.919,29.2672],[-89.88,29.2906],[-89.86,29.2967],[-89.84,29.2962],[-89.82,29.289],[-89.81,29.274],[-89.81,29.2513],[-89.8332,29.214],[-89.8797,29.1622],[-89.9197,29.1354],[-89.9532,29.1338],[-89.9815,29.1425],[-90.0044,29.1616],[-90.0134,29.1799]]]}},{"type":"Feature","properties":{"c":"#ffffb2","v0":5.0,"v1":10.0},"geometry":{"type":"Polygon","coordinates":[[[-90.2092,28.9658],[-90.1703,29.0445],[-90.1156,29.0865],[-90.0452,29.0919],[-90.0021,29.0832],[-89.9862,29.0603],[-89.9796,29.0357],[-89.9823,29.0095],[-90.0103,28.9704],[-90.0634,28.9185],[-90.115,28.8888],[-90.165,28.8813],[-90.1997,28.8897],[-90.219,28.9142],[-90.2092,28.9658]],[[-90.1811,28.9613],[-90.147,29.031],[-90.11,29.0678],[-90.07,29.0716],[-90.0404,29.0673],[-90.0212,29.055],[-90.0158,29.0314],[-90.0243,28.9964],[-90.0489,28.962],[-90.0896,28.9283],[-90.125,28.9088],[-90.155,28.9037],[-90.177,28.9074],[-90.1911,28.92],[-90.1811,28.9613]]]}},{"type":"Feature","properties":{"c":"#ffffb2","v0":5.0,"v1":10.0},"geometry":{"type":"Polygon","coordinates":[[[-83.7451,28.9993],[-83.695,29.0401],[-83.65,29.0642],[-83.61,29.0714],[-83.565,29.0614],[-83.515,29.0343],[-83.46,29.0195],[-83.4,29.0171],[-83.3619,28.9979],[-83.3458,28.9619],[-83.3458,28.9302],[-83.3619,28.903],[-83.45,28.8535],[-83.61,28.7818],[-83.7024,28.756],[-83.7273,28.7762],[-83.7473,28.8344],[-83.7625,28.9308],[-83.7451,28.9993]],[[-83.7158,28.9701],[-83.7053,28.9876],[-83.6775,29.0063],[-83.6325,29.0262],[-83.585,29.0228],[-83.535,28.9962],[-83.4812,28.9819],[-83.4237,28.9799],[-83.3923,28.9701],[-83.387,28.9526],[-83.4215,28.922],[-83.4959,28.8782],[-83.5723,28.8416],[-83.6508,28.8121],[-83.6978,28.8383],[-83.7133,28.9204],[-83.7158,28.9701]]]}},{"type":"Feature","properties":{"c":"#ffffb2","v0":5.0,"v1":10.0},"geometry":{"type":"Polygon","coordinates":[[[-89.7616,28.5042],[-89.7405,28.537],[-89.685,28.5828],[-89.595,28.6414],[-89.4981,28.6733],[-89.3944,28.6784],[-89.3408,28.6898],[-89.3375,28.7073],[-89.3629,28.7687],[-89.417,28.8738],[-89.4305,28.935],[-89.4035,28.9522],[-89.36,28.9588],[-89.3,28.9547],[-89.2654,28.9417],[-89.2563,28.9198],[-89.2609,28.8826],[-89.2792,28.83],[-89.2797,28.7731],[-89.2622,28.7117],[-89.2826,28.6431],[-89.3409,28.5672],[-89.395,28.5134],[-89.445,28.4817],[-89.4774,28.4406],[-89.4922,28.39],[-89.5322,28.3574],[-89.5974,28.3429],[-89.6556,28.3561],[-89.7069,28.397],[-89.7424,28.435],[-89.7622,28.4702],[-89.7616,28.5042]]]}},{"type":"Feature","properties":{"c":"#ffffb2","v0":5.0,"v1":10.0},"geometry":{"type":"Polygon","coordinates":[[[-89.1649,28.6531],[-89.155,28.6674],[-89.1195,28.6805],[-89.0585,28.6925],[-89.0285,28.6924],[-89.0295,28.6802],[-89.05,28.661],[-89.09,28.6349],[-89.12,28.6215],[-89.14,28.6207],[-89.155,28.6268],[-89.1649,28.6395],[-89.1649,28.6531]]]}},{"type":"Feature","properties":{"c":"#ffffb2","v0":5.0,"v1":10.0},"geometry":{"type":"Polygon","coordinates":[[[-94.4221,28.4482],[-94.4078,28.4746],[-94.3779,28.4966],[-94.3326,28.5141],[-94.285,28.5206],[-94.235,28.5159],[-94.18,28.4911],[-94.12,28.4463],[-94.035,28.4481],[-93.925,28.4966],[-93.855,28.518],[-93.825,28.5126],[-93.8053,28.5],[-93.796,28.4801],[-93.801,28.4522],[-93.8203,28.4162],[-93.88,28.3766],[-93.98,28.3334],[-94.06,28.3135],[-94.12,28.3168],[-94.18,28.3398],[-94.24,28.3826],[-94.3,28.3969],[-94.36,28.3826],[-94.3986,28.3816],[-94.4158,28.3938],[-94.4256,28.4087],[-94.428,28.4263],[-94.4221,28.4482]],[[-94.3864,28.4484],[-94.3621,28.4751],[-94.325,28.4906],[-94.275,28.4946],[-94.22,28.4753],[-94.16,28.4327],[-94.115,28.4076],[-94.085,28.4002],[-94.02,28.421],[-93.92,28.4697],[-93.858,28.4881],[-93.8341,28.4762],[-93.8291,28.4567],[-93.843,28.4297],[-93.895,28.3964],[-93.985,28.357],[-94.06,28.3395],[-94.12,28.3441],[-94.175,28.3675],[-94.225,28.4096],[-94.28,28.4243],[-94.34,28.4117],[-94.3771,28.4128],[-94.3914,28.4276],[-94.3864,28.4484]]]}},{"type":"Feature","properties":{"c":"#ffffb2","v0":5.0,"v1":10.0},"geometry":{"type":"Polygon","coordinates":[[[-95.7978,28.0518],[-95.7855,28.0959],[-95.762,28.1354],[-95.7273,28.1701],[-95.6669,28.1966],[-95.5806,28.2147],[-95.5156,28.2433],[-95.4719,28.2823],[-95.395,28.3293],[-95.285,28.3843],[-95.215,28.4152],[-95.185,28.422],[-95.1563,28.419],[-95.129,28.4062],[-95.1106,28.3779],[-95.1012,28.3339],[-95.1029,28.2942],[-95.1158,28.259],[-95.1742,28.205],[-95.2781,28.1321],[-95.345,28.0908],[-95.375,28.0812],[-95.41,28.0531],[-95.45,28.0065],[-95.535,27.9674],[-95.665,27.9359],[-95.7446,27.9299],[-95.7737,27.9494],[-95.7922,27.9768],[-95.8,28.0121],[-95.7978,28.0518]],[[-95.7864,28.0474],[-95.7796,28.0827],[-95.7596,28.119],[-95.7265,28.1564],[-95.665,28.1839],[-95.575,28.2016],[-95.505,28.233],[-95.455,28.2783],[-95.375,28.3275],[-95.265,28.3808],[-95.195,28.4078],[-95.165,28.4087],[-95.1421,28.4024],[-95.1264,28.389],[-95.1169,28.3603],[-95.1136,28.3163],[-95.1185,28.281],[-95.1317,28.2546],[-95.1862,28.2083],[-95.2821,28.1422],[-95.3493,28.1025],[-95.388,28.0893],[-95.423,28.0613],[-95.4543,28.0184],[-95.535,27.9806],[-95.665,27.948],[-95.7409,27.9385],[-95.7628,27.9522],[-95.7777,27.9768],[-95.7858,28.0121],[-95.7864,28.0474]]]}},{"type":"Feature","properties":{"c":"#ffffb2","v0":5.0,"v1":10.0},"geometry":{"type":"Polygon","coordinates":[[[-90.3368,28.1488],[-90.3227,28.1753],[-90.3006,28.1885],[-90.2705,28.1885],[-90.1791,28.163],[-90.0264,28.1119],[-89.9432,28.0722],[-89.9295,28.0439],[-89.9345,28.0191],[-89.9582,27.9977],[-90.015,27.9795],[-90.105,27.9643],[-90.185,27.9753],[-90.255,28.0125],[-90.3035,28.0572],[-90.3304,28.1095],[-90.3368,28.1488]]]}},{"type":"Feature","properties":{"c":"#ffffb2","v0":5.0,"v1":10.0},"geometry":{"type":"Polygon","coordinates":[[[-96.2819,27.3434],[-96.276,27.3878],[-96.2612,27.4189],[-96.2376,27.4367],[-96.2209,27.4855],[-96.2111,27.5653],[-96.1972,27.6155],[-96.1791,27.6363],[-96.15,27.6538],[-96.11,27.668],[-96.06,27.6663],[-96.0,27.6488],[-95.94,27.6561],[-95.88,27.6884],[-95.8323,27.7018],[-95.7968,27.6964],[-95.7648,27.6628],[-95.7363,27.6007],[-95.7469,27.5387],[-95.7965,27.4766],[-95.8435,27.4379],[-95.8878,27.4225],[-95.94,27.4298],[-96.0,27.4599],[-96.0487,27.4498],[-96.0861,27.3996],[-96.1071,27.3523],[-96.1115,27.3079],[-96.1278,27.2734],[-96.1559,27.2488],[-96.1869,27.24],[-96.2206,27.2467],[-96.2494,27.2679],[-96.273,27.3034],[-96.2819,27.3434]],[[-96.2562,27.3372],[-96.2521,27.3692],[-96.2366,27.4003],[-96.2099,27.4305],[-96.1947,27.4766],[-96.1912,27.5387],[-96.1827,27.583],[-96.1691,27.6096],[-96.1443,27.6302],[-96.1081,27.6449],[-96.06,27.6424],[-96.0,27.6226],[-95.9443,27.6285],[-95.8928,27.6602],[-95.8528,27.6777],[-95.8243,27.681],[-95.805,27.6786],[-95.795,27.6707],[-95.7798,27.6424],[-95.7594,27.594],[-95.7709,27.5431],[-95.8142,27.4899],[-95.8544,27.4571],[-95.8915,27.4447],[-95.945,27.4557],[-96.015,27.49],[-96.0689,27.4785],[-96.1068,27.421],[-96.1318,27.3632],[-96.1439,27.3051],[-96.165,27.2724],[-96.195,27.2652],[-96.2221,27.2765],[-96.2462,27.3063],[-96.2562,27.3372]]]}},{"type":"Feature","properties":{"c":"#ffffb2","v0":5.0,"v1":10.0},"geometry":{"type":"Polygon","coordinates":[[[-97.8053,26.1961],[-97.7945,26.232],[-97.7744,26.2651],[-97.7448,26.2955],[-97.705,26.3208],[-97.655,26.3409],[-97.61,26.3489],[-97.57,26.345],[-97.5469,26.3556],[-97.5408,26.3807],[-97.5448,26.4247],[-97.5591,26.4874],[-97.5572,26.5384],[-97.5391,26.5779],[-97.505,26.6057],[-97.455,26.6217],[-97.37,26.6629],[-97.25,26.7292],[-97.1698,26.7595],[-97.1293,26.7539],[-97.1019,26.7422],[-97.0875,26.7243],[-97.0782,26.6975],[-97.0739,26.6618],[-97.1032,26.5947],[-97.1661,26.4963],[-97.1774,26.4247],[-97.1369,26.3799],[-97.1209,26.3172],[-97.1292,26.2365],[-97.1144,26.1736],[-97.0764,26.1288],[-97.0656,26.0891],[-97.0819,26.0545],[-97.115,26.0296],[-97.165,26.0143],[-97.215,25.9891],[-97.265,25.9542],[-97.31,25.9359],[-97.35,25.9342],[-97.3826,25.9406],[-97.4077,25.9552],[-97.4253,25.976],[-97.4356,26.003],[-97.4341,26.0299],[-97.4209,26.0569],[-97.3693,26.1018],[-97.2793,26.1647],[-97.2532,26.215],[-97.2911,26.2527],[-97.36,26.2775],[-97.46,26.2893],[-97.5157,26.2794],[-97.5271,26.2478],[-97.5771,26.1978],[-97.6657,26.1293],[-97.725,26.0985],[-97.755,26.1054],[-97.7802,26.1262],[-97.8005,26.1608],[-97.8053,26.1961]],[[-97.5371,26.5368],[-97.519,26.5731],[-97.485,26.5985],[-97.435,26.613],[-97.355,26.6513],[-97.245,26.7133],[-97.1714,26.7415],[-97.1341,26.736],[-97.1088,26.7198],[-97.0956,26.693],[-97.0911,26.6662],[-97.0953,26.6394],[-97.1282,26.5813],[-97.1898,26.4918],[-97.1994,26.4247],[-97.157,26.3799],[-97.1357,26.3351],[-97.1354,26.2903],[-97.1426,26.2499],[-97.1574,26.214],[-97.1442,26.1781],[-97.1031,26.1422],[-97.0868,26.1063],[-97.0952,26.0704],[-97.1221,26.0458],[-97.1674,26.0326],[-97.215,26.0082],[-97.265,25.9726],[-97.316,25.9567],[-97.3681,25.9606],[-97.4004,25.9715],[-97.4128,25.9895],[-97.4159,26.012],[-97.4098,26.0389],[-97.3825,26.0732],[-97.3342,26.1147],[-97.2811,26.1461],[-97.2234,26.1675],[-97.195,26.1826],[-97.1959,26.1916],[-97.2198,26.2185],[-97.2666,26.2633],[-97.335,26.2924],[-97.425,26.3058],[-97.48,26.3184],[-97.5,26.3301],[-97.519,26.3816],[-97.5371,26.473],[-97.5371,26.5368]],[[-97.7863,26.1961],[-97.7743,26.232],[-97.7537,26.2627],[-97.7246,26.2882],[-97.69,26.3092],[-97.65,26.3256],[-97.6082,26.3263],[-97.5645,26.3112],[-97.5445,26.2877],[-97.5482,26.2557],[-97.585,26.2093],[-97.655,26.1483],[-97.705,26.1177],[-97.735,26.1177],[-97.7606,26.1327],[-97.7817,26.163],[-97.7863,26.1961]]]}},{"type":"Feature","properties":{"c":"#ffffb2","v0":5.0,"v1":10.0},"geometry":{"type":"Polygon","coordinates":[[[-95.6163,25.5662],[-95.6043,25.6023],[-95.5675,25.6474],[-95.5058,25.7015],[-95.4538,25.7368],[-95.4113,25.7533],[-95.375,25.7593],[-95.345,25.7547],[-95.3,25.7349],[-95.24,25.6999],[-95.196,25.6669],[-95.1679,25.6359],[-95.1499,25.6068],[-95.1418,25.5798],[-95.1406,25.5527],[-95.1464,25.5256],[-95.1595,25.5057],[-95.1798,25.4929],[-95.235,25.4989],[-95.325,25.5236],[-95.415,25.5192],[-95.505,25.4858],[-95.5633,25.4753],[-95.5899,25.4878],[-95.6079,25.5076],[-95.6175,25.5347],[-95.6163,25.5662]],[[-95.5987,25.5617],[-95.5918,25.5888],[-95.5582,25.6294],[-95.4978,25.6835],[-95.4483,25.7185],[-95.4094,25.7346],[-95.375,25.7402],[-95.345,25.7353],[-95.305,25.7181],[-95.255,25.6885],[-95.2119,25.6469],[-95.1758,25.5931],[-95.1658,25.5513],[-95.1819,25.5215],[-95.235,25.5184],[-95.325,25.5421],[-95.415,25.5374],[-95.505,25.5045],[-95.56,25.4934],[-95.58,25.5041],[-95.5931,25.5191],[-95.5992,25.5385],[-95.5987,25.5617]]]}},{"type":"Feature","properties":{"c":"#ffffb2","v0":5.0,"v1":10.0},"geometry":{"type":"Polygon","coordinates":[[[-97.6351,24.3149],[-97.612,24.3878],[-97.5828,24.4342],[-97.5476,24.4542],[-97.515,24.4869],[-97.485,24.5323],[-97.435,24.5751],[-97.365,24.6154],[-97.285,24.6379],[-97.195,24.6427],[-97.1396,24.6354],[-97.1189,24.6159],[-97.1039,24.5849],[-97.0946,24.5424],[-97.065,24.5278],[-97.015,24.541],[-96.95,24.5483],[-96.87,24.5497],[-96.802,24.5234],[-96.7459,24.4694],[-96.7232,24.4196],[-96.7338,24.3741],[-96.7669,24.3348],[-96.8223,24.3019],[-96.905,24.2813],[-97.015,24.2731],[-97.095,24.2753],[-97.145,24.288],[-97.205,24.2942],[-97.275,24.2939],[-97.33,24.2717],[-97.37,24.2274],[-97.42,24.1933],[-97.48,24.1693],[-97.535,24.1625],[-97.585,24.1727],[-97.6192,24.2029],[-97.6375,24.2532],[-97.6351,24.3149]],[[-97.6239,24.3132],[-97.6013,24.3829],[-97.5718,24.4284],[-97.5354,24.4499],[-97.5004,24.4845],[-97.4668,24.5323],[-97.415,24.574],[-97.345,24.6095],[-97.27,24.6287],[-97.19,24.6317],[-97.1411,24.6219],[-97.1232,24.5993],[-97.1133,24.5698],[-97.1113,24.5334],[-97.1052,24.5136],[-97.0951,24.5104],[-97.065,24.5156],[-97.015,24.5294],[-96.95,24.537],[-96.87,24.5386],[-96.8107,24.5243],[-96.7721,24.494],[-96.7466,24.4651],[-96.7341,24.4378],[-96.7308,24.4105],[-96.7366,24.3832],[-96.7622,24.3532],[-96.8074,24.3205],[-96.885,24.2984],[-96.995,24.2869],[-97.08,24.2869],[-97.14,24.2984],[-97.21,24.3039],[-97.29,24.3032],[-97.345,24.2817],[-97.375,24.2391],[-97.42,24.2058],[-97.48,24.1819],[-97.5332,24.1743],[-97.5796,24.1829],[-97.6109,24.21],[-97.6271,24.2556],[-97.6239,24.3132]]]}},{"type":"Feature","properties":{"c":"#ffffb2","v0":5.0,"v1":10.0},"geometry":{"type":"Polygon","coordinates":[[[-97.9481,23.1798],[-97.9261,23.2166],[-97.883,23.2441],[-97.8187,23.2625],[-97.786,23.3084],[-97.7849,23.3819],[-97.7769,23.4415],[-97.7619,23.4874],[-97.7426,23.5241],[-97.719,23.5516],[-97.6829,23.5767],[-97.6343,23.5993],[-97.59,23.6282],[-97.55,23.6634],[-97.49,23.6803],[-97.41,23.6791],[-97.3433,23.6411],[-97.2899,23.5662],[-97.273,23.4966],[-97.2925,23.4324],[-97.2874,23.3681],[-97.2576,23.3038],[-97.2495,23.2617],[-97.2632,23.2417],[-97.285,23.2273],[-97.315,23.2186],[-97.3554,23.2286],[-97.4062,23.2573],[-97.4283,23.2349],[-97.4216,23.1614],[-97.4272,23.097],[-97.4451,23.0418],[-97.428,23.0145],[-97.376,23.0151],[-97.3299,23.0013],[-97.2898,22.9731],[-97.2605,22.9313],[-97.2423,22.8761],[-97.2354,22.83],[-97.2399,22.7931],[-97.2641,22.7592],[-97.308,22.7284],[-97.4,22.7168],[-97.54,22.7245],[-97.6206,22.7446],[-97.6418,22.7769],[-97.6522,22.8115],[-97.6517,22.8484],[-97.6215,22.8945],[-97.5616,22.9498],[-97.5812,22.9848],[-97.6804,22.9998],[-97.77,23.021],[-97.85,23.0487],[-97.9027,23.0734],[-97.928,23.0953],[-97.9453,23.12],[-97.9545,23.1476],[-97.9481,23.1798]],[[-97.9317,23.1752],[-97.9171,23.2028],[-97.8748,23.2275],[-97.8049,23.2494],[-97.7686,23.2999],[-97.7657,23.379],[-97.7562,23.4415],[-97.74,23.4874],[-97.7214,23.5218],[-97.7005,23.5449],[-97.645,23.5841],[-97.555,23.6397],[-97.48,23.6671],[-97.42,23.6665],[-97.38,23.6595],[-97.36,23.6461],[-97.3334,23.6118],[-97.3001,23.5564],[-97.2934,23.4966],[-97.3131,23.4324],[-97.3083,23.3681],[-97.279,23.3038],[-97.2807,23.2621],[-97.3136,23.243],[-97.365,23.2608],[-97.435,23.3155],[-97.4892,23.3389],[-97.5276,23.3308],[-97.5254,23.3084],[-97.4825,23.2717],[-97.4553,23.2303],[-97.4437,23.1844],[-97.4405,23.143],[-97.4457,23.1062],[-97.4587,23.0706],[-97.4796,23.0363],[-97.505,23.0147],[-97.535,23.006],[-97.595,23.0077],[-97.685,23.0198],[-97.77,23.0401],[-97.85,23.0686],[-97.9022,23.1025],[-97.9267,23.1418],[-97.9317,23.1752]],[[-97.6306,22.8526],[-97.6035,22.8978],[-97.56,22.9363],[-97.5,22.9681],[-97.445,22.9898],[-97.395,23.0013],[-97.3455,22.9904],[-97.2965,22.9572],[-97.265,22.9083],[-97.251,22.8438],[-97.2605,22.7913],[-97.2935,22.7508],[-97.37,22.729],[-97.49,22.726],[-97.5674,22.7324],[-97.6023,22.7483],[-97.6258,22.7747],[-97.638,22.8115],[-97.6306,22.8526]]]}},{"type":"Feature","properties":{"c":"#fed976","v0":10.0,"v1":20.0},"geometry":{"type":"Polygon","coordinates":[[[-84.4451,45.7663],[-84.435,45.7782],[-84.395,45.7903],[-84.325,45.8026],[-84.265,45.8267],[-84.215,45.8628],[-84.145,45.8804],[-84.055,45.8795],[-84.0,45.8716],[-83.98,45.8567],[-83.97,45.8374],[-83.97,45.8138],[-83.9789,45.7916],[-83.9967,45.7708],[-84.0367,45.7545],[-84.0989,45.7428],[-84.17,45.722],[-84.25,45.6921],[-84.31,45.6807],[-84.35,45.6877],[-84.3874,45.7015],[-84.4223,45.7222],[-84.4423,45.7394],[-84.4475,45.7534],[-84.4451,45.7663]]]}},{"type":"Feature","properties":{"c":"#fed976","v0":10.0,"v1":20.0},"geometry":{"type":"Polygon","coordinates":[[[-69.6287,41.5482],[-69.6226,41.5707],[-69.5922,41.602],[-69.5374,41.6423],[-69.49,41.6683],[-69.45,41.68],[-69.38,41.6892],[-69.28,41.6959],[-69.2098,41.6774],[-69.1693,41.6337],[-69.1243,41.599],[-69.0748,41.5734],[-69.04,41.5496],[-69.02,41.5276],[-68.9883,41.5105],[-68.9448,41.4982],[-68.9169,41.4733],[-68.9043,41.4359],[-68.9111,41.4028],[-68.937,41.3741],[-68.97,41.3556],[-69.01,41.3475],[-69.0492,41.3656],[-69.0877,41.4099],[-69.1277,41.4426],[-69.1692,41.4636],[-69.24,41.4806],[-69.34,41.4936],[-69.425,41.4908],[-69.495,41.4723],[-69.545,41.4634],[-69.575,41.4641],[-69.5992,41.4713],[-69.6177,41.4851],[-69.6282,41.5033],[-69.6306,41.5258],[-69.6287,41.5482]],[[-69.6006,41.5466],[-69.5935,41.5657],[-69.565,41.5932],[-69.515,41.629],[-69.43,41.6552],[-69.31,41.6719],[-69.195,41.6349],[-69.085,41.5442],[-69.0091,41.4933],[-68.9674,41.4825],[-68.9417,41.4621],[-68.9322,41.4321],[-68.9331,41.4093],[-68.9444,41.3938],[-68.965,41.3809],[-68.995,41.3706],[-69.0284,41.3858],[-69.0653,41.4267],[-69.1103,41.4595],[-69.1634,41.4842],[-69.24,41.5027],[-69.34,41.5152],[-69.435,41.5119],[-69.525,41.493],[-69.5757,41.4857],[-69.5871,41.4899],[-69.5957,41.5033],[-69.6014,41.5258],[-69.6006,41.5466]]]}},{"type":"Feature","properties":{"c":"#fed976","v0":10.0,"v1":20.0},"geometry":{"type":"Polygon","coordinates":[[[-74.8916,33.8248],[-74.8395,33.9245],[-74.7943,33.995],[-74.756,34.0364],[-74.7401,34.116],[-74.7467,34.2337],[-74.74,34.2966],[-74.72,34.305],[-74.7086,34.2958],[-74.7059,34.2691],[-74.6959,34.2487],[-74.6786,34.2344],[-74.65,34.2298],[-74.61,34.2347],[-74.5801,34.2542],[-74.5603,34.2883],[-74.5671,34.3219],[-74.6006,34.3549],[-74.615,34.3755],[-74.6103,34.3838],[-74.5884,34.3961],[-74.5495,34.4125],[-74.515,34.435],[-74.485,34.4637],[-74.44,34.4858],[-74.38,34.5014],[-74.335,34.5209],[-74.305,34.5441],[-74.2824,34.555],[-74.2672,34.5535],[-74.262,34.5034],[-74.2667,34.4044],[-74.2988,34.3301],[-74.3584,34.2806],[-74.4036,34.2254],[-74.4345,34.1645],[-74.48,34.124],[-74.54,34.1039],[-74.6217,34.0557],[-74.7251,33.9793],[-74.7827,33.9203],[-74.7946,33.8788],[-74.7929,33.8207],[-74.7778,33.7459],[-74.7801,33.7041],[-74.8,33.6953],[-74.823,33.6953],[-74.849,33.7041],[-74.874,33.7157],[-74.898,33.7303],[-74.9119,33.747],[-74.9157,33.7656],[-74.8916,33.8248]]]}},{"type":"Feature","properties":{"c":"#fed976","v0":10.0,"v1":20.0},"geometry":{"type":"Polygon","coordinates":[[[-75.466,33.3708],[-75.4588,33.3959],[-75.4161,33.4376],[-75.3377,33.496],[-75.306,33.5544],[-75.3208,33.6127],[-75.3236,33.6535],[-75.3145,33.6767],[-75.2911,33.7058],[-75.2533,33.7408],[-75.2233,33.7562],[-75.2011,33.7519],[-75.1801,33.7353],[-75.1604,33.7063],[-75.1558,33.6585],[-75.1664,33.5919],[-75.1932,33.5419],[-75.2365,33.5085],[-75.2688,33.4585],[-75.2903,33.3917],[-75.3233,33.346],[-75.3678,33.3212],[-75.405,33.3118],[-75.435,33.3178],[-75.4549,33.3302],[-75.4646,33.3489],[-75.466,33.3708]]]}},{"type":"Feature","properties":{"c":"#fed976","v0":10.0,"v1":20.0},"geometry":{"type":"Polygon","coordinates":[[[-77.1763,33.1199],[-77.1694,33.145],[-77.157,33.1645],[-77.139,33.1781],[-77.11,33.1871],[-77.07,33.1914],[-77.025,33.2071],[-76.975,33.2342],[-76.925,33.2528],[-76.875,33.2629],[-76.825,33.2872],[-76.775,33.3256],[-76.7125,33.3481],[-76.6375,33.3549],[-76.5913,33.3708],[-76.5737,33.3959],[-76.5715,33.4376],[-76.5846,33.496],[-76.5759,33.532],[-76.5453,33.5455],[-76.51,33.5519],[-76.47,33.5511],[-76.435,33.5446],[-76.405,33.5324],[-76.38,33.5026],[-76.36,33.4552],[-76.31,33.4437],[-76.23,33.4683],[-76.155,33.4822],[-76.085,33.4854],[-75.99,33.4545],[-75.87,33.3895],[-75.79,33.3526],[-75.75,33.3438],[-75.69,33.3427],[-75.61,33.3493],[-75.56,33.3373],[-75.5401,33.3068],[-75.5345,33.2789],[-75.5434,33.2538],[-75.5684,33.2335],[-75.6095,33.2179],[-75.6376,33.2011],[-75.6529,33.1833],[-75.6456,33.1492],[-75.6155,33.099],[-75.6079,33.0608],[-75.6226,33.0347],[-75.65,33.0214],[-75.69,33.0207],[-75.74,33.0412],[-75.8,33.0829],[-75.8489,33.1046],[-75.8867,33.1064],[-75.9367,33.0982],[-75.9989,33.08],[-76.07,33.0377],[-76.15,32.9713],[-76.21,32.9297],[-76.25,32.913],[-76.2832,32.9092],[-76.3096,32.9183],[-76.3329,32.9355],[-76.3529,32.9606],[-76.359,33.0235],[-76.3511,33.1241],[-76.3578,33.1875],[-76.3793,33.2138],[-76.4249,33.1804],[-76.4946,33.087],[-76.5396,33.0374],[-76.5599,33.0315],[-76.595,33.0364],[-76.645,33.0522],[-76.695,33.0285],[-76.745,32.9653],[-76.7878,32.9393],[-76.8235,32.9507],[-76.8585,32.9792],[-76.8928,33.0247],[-76.94,33.0393],[-77.0,33.023],[-77.055,33.019],[-77.105,33.0272],[-77.1424,33.0503],[-77.1673,33.0884],[-77.1763,33.1199]],[[-77.1277,33.1173],[-77.1159,33.1373],[-77.04,33.1681],[-76.9,33.2099],[-76.8064,33.2501],[-76.7593,33.2888],[-76.7093,33.3079],[-76.6564,33.3074],[-76.615,33.3126],[-76.585,33.3236],[-76.5569,33.3447],[-76.5307,33.3761],[-76.5251,33.4168],[-76.54,33.4668],[-76.5431,33.4971],[-76.5344,33.5076],[-76.505,33.5106],[-76.455,33.5061],[-76.4249,33.48],[-76.4147,33.4323],[-76.3997,33.4007],[-76.3799,33.3853],[-76.3255,33.3936],[-76.2365,33.4258],[-76.1615,33.444],[-76.1005,33.4485],[-76.01,33.4187],[-75.89,33.3545],[-75.805,33.3171],[-75.755,33.3063],[-75.7,33.3044],[-75.64,33.3115],[-75.6024,33.3091],[-75.5872,33.2973],[-75.611,33.2664],[-75.6739,33.2162],[-75.7052,33.1785],[-75.7049,33.1534],[-75.6925,33.1283],[-75.6679,33.1032],[-75.656,33.0822],[-75.6571,33.0655],[-75.667,33.0571],[-75.6859,33.0571],[-75.724,33.0773],[-75.7813,33.1177],[-75.835,33.1398],[-75.885,33.1436],[-75.95,33.1325],[-76.03,33.1067],[-76.12,33.0569],[-76.22,32.9832],[-76.28,32.9516],[-76.3,32.9622],[-76.3141,32.9773],[-76.3224,32.9969],[-76.3201,33.0487],[-76.3072,33.1325],[-76.3091,33.1953],[-76.3257,33.2371],[-76.343,33.2651],[-76.361,33.2794],[-76.3868,33.2794],[-76.4203,33.2651],[-76.4503,33.2288],[-76.4768,33.1703],[-76.505,33.1253],[-76.535,33.0939],[-76.585,33.0837],[-76.655,33.0946],[-76.715,33.0687],[-76.765,33.0058],[-76.815,33.0023],[-76.865,33.0582],[-76.935,33.0779],[-77.025,33.0616],[-77.0818,33.0585],[-77.1053,33.0687],[-77.1211,33.0822],[-77.1294,33.099],[-77.1277,33.1173]]]}},{"type":"Feature","properties":{"c":"#fed976","v0":10.0,"v1":20.0},"geometry":{"type":"Polygon","coordinates":[[[-79.8873,30.1454],[-79.8491,30.251],[-79.8067,30.3201],[-79.7602,30.3528],[-79.7252,30.3851],[-79.7017,30.4172],[-79.67,30.439],[-79.63,30.4507],[-79.59,30.4438],[-79.55,30.4185],[-79.5268,30.3923],[-79.5204,30.3653],[-79.5254,30.3348],[-79.5418,30.3008],[-79.5685,30.2663],[-79.6055,30.2312],[-79.6334,30.1921],[-79.6522,30.1488],[-79.6824,30.1142],[-79.7242,30.0883],[-79.7462,30.0666],[-79.7483,30.0493],[-79.7404,30.0277],[-79.7224,30.0017],[-79.7219,29.9757],[-79.739,29.9497],[-79.7682,29.9367],[-79.8097,29.9367],[-79.8495,29.9757],[-79.8874,30.0537],[-79.8873,30.1454]]]}},{"type":"Feature","properties":{"c":"#fed976","v0":10.0,"v1":20.0},"geometry":{"type":"Polygon","coordinates":[[[-90.0134,29.1799],[-90.0083,29.1974],[-89.9769,29.2265],[-89.919,29.2672],[-89.88,29.2906],[-89.86,29.2967],[-89.84,29.2962],[-89.82,29.289],[-89.81,29.274],[-89.81,29.2513],[-89.8332,29.214],[-89.8797,29.1622],[-89.9197,29.1354],[-89.9532,29.1338],[-89.9815,29.1425],[-90.0044,29.1616],[-90.0134,29.1799]]]}},{"type":"Feature","properties":{"c":"#fed976","v0":10.0,"v1":20.0},"geometry":{"type":"Polygon","coordinates":[[[-90.1811,28.9613],[-90.147,29.031],[-90.11,29.0678],[-90.07,29.0716],[-90.0404,29.0673],[-90.0212,29.055],[-90.0158,29.0314],[-90.0243,28.9964],[-90.0489,28.962],[-90.0896,28.9283],[-90.125,28.9088],[-90.155,28.9037],[-90.177,28.9074],[-90.1911,28.92],[-90.1811,28.9613]]]}},{"type":"Feature","properties":{"c":"#fed976","v0":10.0,"v1":20.0},"geometry":{"type":"Polygon","coordinates":[[[-83.7158,28.9701],[-83.7053,28.9876],[-83.6775,29.0063],[-83.6325,29.0262],[-83.585,29.0228],[-83.535,28.9962],[-83.4812,28.9819],[-83.4237,28.9799],[-83.3923,28.9701],[-83.387,28.9526],[-83.4215,28.922],[-83.4959,28.8782],[-83.5723,28.8416],[-83.6508,28.8121],[-83.6978,28.8383],[-83.7133,28.9204],[-83.7158,28.9701]]]}},{"type":"Feature","properties":{"c":"#fed976","v0":10.0,"v1":20.0},"geometry":{"type":"Polygon","coordinates":[[[-94.3864,28.4484],[-94.3621,28.4751],[-94.325,28.4906],[-94.275,28.4946],[-94.22,28.4753],[-94.16,28.4327],[-94.115,28.4076],[-94.085,28.4002],[-94.02,28.421],[-93.92,28.4697],[-93.858,28.4881],[-93.8341,28.4762],[-93.8291,28.4567],[-93.843,28.4297],[-93.895,28.3964],[-93.985,28.357],[-94.06,28.3395],[-94.12,28.3441],[-94.175,28.3675],[-94.225,28.4096],[-94.28,28.4243],[-94.34,28.4117],[-94.3771,28.4128],[-94.3914,28.4276],[-94.3864,28.4484]]]}},{"type":"Feature","properties":{"c":"#fed976","v0":10.0,"v1":20.0},"geometry":{"type":"Polygon","coordinates":[[[-95.7864,28.0474],[-95.7796,28.0827],[-95.7596,28.119],[-95.7265,28.1564],[-95.665,28.1839],[-95.575,28.2016],[-95.505,28.233],[-95.455,28.2783],[-95.375,28.3275],[-95.265,28.3808],[-95.195,28.4078],[-95.165,28.4087],[-95.1421,28.4024],[-95.1264,28.389],[-95.1169,28.3603],[-95.1136,28.3163],[-95.1185,28.281],[-95.1317,28.2546],[-95.1862,28.2083],[-95.2821,28.1422],[-95.3493,28.1025],[-95.388,28.0893],[-95.423,28.0613],[-95.4543,28.0184],[-95.535,27.9806],[-95.665,27.948],[-95.7409,27.9385],[-95.7628,27.9522],[-95.7777,27.9768],[-95.7858,28.0121],[-95.7864,28.0474]],[[-95.7709,28.0474],[-95.7621,28.0827],[-95.7408,28.1174],[-95.7069,28.1514],[-95.645,28.1761],[-95.555,28.1914],[-95.48,28.2256],[-95.42,28.2785],[-95.345,28.3267],[-95.255,28.3701],[-95.1925,28.3894],[-95.1574,28.3846],[-95.1362,28.3647],[-95.129,28.3295],[-95.1315,28.2968],[-95.1438,28.2666],[-95.195,28.2205],[-95.285,28.1583],[-95.3513,28.1205],[-95.394,28.1071],[-95.434,28.076],[-95.4713,28.0273],[-95.55,27.9892],[-95.67,27.9617],[-95.7389,27.9551],[-95.7568,27.9695],[-95.7681,27.99],[-95.7729,28.0165],[-95.7709,28.0474]]]}},{"type":"Feature","properties":{"c":"#fed976","v0":10.0,"v1":20.0},"geometry":{"type":"Polygon","coordinates":[[[-96.2562,27.3372],[-96.2521,27.3692],[-96.2366,27.4003],[-96.2099,27.4305],[-96.1947,27.4766],[-96.1912,27.5387],[-96.1827,27.583],[-96.1691,27.6096],[-96.1443,27.6302],[-96.1081,27.6449],[-96.06,27.6424],[-96.0,27.6226],[-95.9443,27.6285],[-95.8928,27.6602],[-95.8528,27.6777],[-95.8243,27.681],[-95.805,27.6786],[-95.795,27.6707],[-95.7798,27.6424],[-95.7594,27.594],[-95.7709,27.5431],[-95.8142,27.4899],[-95.8544,27.4571],[-95.8915,27.4447],[-95.945,27.4557],[-96.015,27.49],[-96.0689,27.4785],[-96.1068,27.421],[-96.1318,27.3632],[-96.1439,27.3051],[-96.165,27.2724],[-96.195,27.2652],[-96.2221,27.2765],[-96.2462,27.3063],[-96.2562,27.3372]]]}},{"type":"Feature","properties":{"c":"#fed976","v0":10.0,"v1":20.0},"geometry":{"type":"Polygon","coordinates":[[[-97.5371,26.5368],[-97.519,26.5731],[-97.485,26.5985],[-97.435,26.613],[-97.355,26.6513],[-97.245,26.7133],[-97.1714,26.7415],[-97.1341,26.736],[-97.1088,26.7198],[-97.0956,26.693],[-97.0911,26.6662],[-97.0953,26.6394],[-97.1282,26.5813],[-97.1898,26.4918],[-97.1994,26.4247],[-97.157,26.3799],[-97.1357,26.3351],[-97.1354,26.2903],[-97.1426,26.2499],[-97.1574,26.214],[-97.1442,26.1781],[-97.1031,26.1422],[-97.0868,26.1063],[-97.0952,26.0704],[-97.1221,26.0458],[-97.1674,26.0326],[-97.215,26.0082],[-97.265,25.9726],[-97.316,25.9567],[-97.3681,25.9606],[-97.4004,25.9715],[-97.4128,25.9895],[-97.4159,26.012],[-97.4098,26.0389],[-97.3825,26.0732],[-97.3342,26.1147],[-97.2811,26.1461],[-97.2234,26.1675],[-97.195,26.1826],[-97.1959,26.1916],[-97.2198,26.2185],[-97.2666,26.2633],[-97.335,26.2924],[-97.425,26.3058],[-97.48,26.3184],[-97.5,26.3301],[-97.519,26.3816],[-97.5371,26.473],[-97.5371,26.5368]],[[-97.5001,26.5321],[-97.4825,26.5589],[-97.4577,26.5754],[-97.4259,26.5814],[-97.36,26.6137],[-97.26,26.6723],[-97.1948,26.7051],[-97.1643,26.7119],[-97.1429,26.7064],[-97.1306,26.6886],[-97.1258,26.6685],[-97.1286,26.6462],[-97.1624,26.5881],[-97.2271,26.4941],[-97.2371,26.4237],[-97.1924,26.3768],[-97.174,26.3275],[-97.1821,26.2758],[-97.2071,26.2661],[-97.249,26.2986],[-97.32,26.3238],[-97.42,26.342],[-97.4797,26.3929],[-97.4992,26.4768],[-97.5001,26.5321]],[[-97.3541,26.0434],[-97.2933,26.0973],[-97.2347,26.1268],[-97.1782,26.1319],[-97.141,26.1274],[-97.123,26.1133],[-97.118,26.098],[-97.126,26.0813],[-97.15,26.0675],[-97.19,26.0565],[-97.235,26.0335],[-97.285,25.9983],[-97.3215,25.9807],[-97.3444,25.9806],[-97.363,25.9895],[-97.3773,26.0075],[-97.3541,26.0434]]]}},{"type":"Feature","properties":{"c":"#fed976","v0":10.0,"v1":20.0},"geometry":{"type":"Polygon","coordinates":[[[-97.7863,26.1961],[-97.7743,26.232],[-97.7537,26.2627],[-97.7246,26.2882],[-97.69,26.3092],[-97.65,26.3256],[-97.6082,26.3263],[-97.5645,26.3112],[-97.5445,26.2877],[-97.5482,26.2557],[-97.585,26.2093],[-97.655,26.1483],[-97.705,26.1177],[-97.735,26.1177],[-97.7606,26.1327],[-97.7817,26.163],[-97.7863,26.1961]],[[-97.7435,26.2006],[-97.7181,26.2454],[-97.6865,26.2765],[-97.6488,26.2938],[-97.6173,26.2983],[-97.5918,26.2899],[-97.581,26.2768],[-97.5848,26.2589],[-97.6175,26.224],[-97.6792,26.1722],[-97.7215,26.1542],[-97.7446,26.1702],[-97.7435,26.2006]]]}},{"type":"Feature","properties":{"c":"#fed976","v0":10.0,"v1":20.0},"geometry":{"type":"Polygon","coordinates":[[[-95.5987,25.5617],[-95.5918,25.5888],[-95.5582,25.6294],[-95.4978,25.6835],[-95.4483,25.7185],[-95.4094,25.7346],[-95.375,25.7402],[-95.345,25.7353],[-95.305,25.7181],[-95.255,25.6885],[-95.2119,25.6469],[-95.1758,25.5931],[-95.1658,25.5513],[-95.1819,25.5215],[-95.235,25.5184],[-95.325,25.5421],[-95.415,25.5374],[-95.505,25.5045],[-95.56,25.4934],[-95.58,25.5041],[-95.5931,25.5191],[-95.5992,25.5385],[-95.5987,25.5617]],[[-95.552,25.5572],[-95.5467,25.5753],[-95.5055,25.6129],[-95.4285,25.6701],[-95.3621,25.6882],[-95.3064,25.667],[-95.2608,25.6384],[-95.2254,25.6023],[-95.2083,25.5779],[-95.2094,25.5651],[-95.215,25.5588],[-95.225,25.559],[-95.25,25.5674],[-95.29,25.5842],[-95.335,25.5925],[-95.385,25.5922],[-95.435,25.5786],[-95.485,25.5517],[-95.5211,25.5407],[-95.5434,25.5457],[-95.552,25.5572]]]}},{"type":"Feature","properties":{"c":"#fed976","v0":10.0,"v1":20.0},"geometry":{"type":"Polygon","coordinates":[[[-97.6239,24.3132],[-97.6013,24.3829],[-97.5718,24.4284],[-97.5354,24.4499],[-97.5004,24.4845],[-97.4668,24.5323],[-97.415,24.574],[-97.345,24.6095],[-97.27,24.6287],[-97.19,24.6317],[-97.1411,24.6219],[-97.1232,24.5993],[-97.1133,24.5698],[-97.1113,24.5334],[-97.1052,24.5136],[-97.0951,24.5104],[-97.065,24.5156],[-97.015,24.5294],[-96.95,24.537],[-96.87,24.5386],[-96.8107,24.5243],[-96.7721,24.494],[-96.7466,24.4651],[-96.7341,24.4378],[-96.7308,24.4105],[-96.7366,24.3832],[-96.7622,24.3532],[-96.8074,24.3205],[-96.885,24.2984],[-96.995,24.2869],[-97.08,24.2869],[-97.14,24.2984],[-97.21,24.3039],[-97.29,24.3032],[-97.345,24.2817],[-97.375,24.2391],[-97.42,24.2058],[-97.48,24.1819],[-97.5332,24.1743],[-97.5796,24.1829],[-97.6109,24.21],[-97.6271,24.2556],[-97.6239,24.3132]],[[-97.6112,24.3103],[-97.5915,24.3741],[-97.5637,24.4159],[-97.5279,24.4359],[-97.495,24.4691],[-97.465,24.5157],[-97.415,24.5579],[-97.345,24.5956],[-97.28,24.6183],[-97.22,24.626],[-97.18,24.6263],[-97.16,24.6191],[-97.1457,24.5905],[-97.137,24.5403],[-97.122,24.5099],[-97.1007,24.4992],[-97.065,24.5012],[-97.015,24.5161],[-96.95,24.5237],[-96.87,24.524],[-96.8079,24.4992],[-96.7638,24.4492],[-96.7458,24.4105],[-96.7538,24.3832],[-96.7809,24.355],[-96.827,24.326],[-96.905,24.3073],[-97.015,24.2991],[-97.095,24.3009],[-97.145,24.3126],[-97.21,24.3187],[-97.29,24.319],[-97.3494,24.2953],[-97.3881,24.2476],[-97.4381,24.2126],[-97.4994,24.1905],[-97.5479,24.1859],[-97.5836,24.1989],[-97.6064,24.2237],[-97.6162,24.2602],[-97.6112,24.3103]]]}},{"type":"Feature","properties":{"c":"#fed976","v0":10.0,"v1":20.0},"geometry":{"type":"Polygon","coordinates":[[[-97.9317,23.1752],[-97.9171,23.2028],[-97.8748,23.2275],[-97.8049,23.2494],[-97.7686,23.2999],[-97.7657,23.379],[-97.7562,23.4415],[-97.74,23.4874],[-97.7214,23.5218],[-97.7005,23.5449],[-97.645,23.5841],[-97.555,23.6397],[-97.48,23.6671],[-97.42,23.6665],[-97.38,23.6595],[-97.36,23.6461],[-97.3334,23.6118],[-97.3001,23.5564],[-97.2934,23.4966],[-97.3131,23.4324],[-97.3083,23.3681],[-97.279,23.3038],[-97.2807,23.2621],[-97.3136,23.243],[-97.365,23.2608],[-97.435,23.3155],[-97.4892,23.3389],[-97.5276,23.3308],[-97.5254,23.3084],[-97.4825,23.2717],[-97.4553,23.2303],[-97.4437,23.1844],[-97.4405,23.143],[-97.4457,23.1062],[-97.4587,23.0706],[-97.4796,23.0363],[-97.505,23.0147],[-97.535,23.006],[-97.595,23.0077],[-97.685,23.0198],[-97.77,23.0401],[-97.85,23.0686],[-97.9022,23.1025],[-97.9267,23.1418],[-97.9317,23.1752]],[[-97.8895,23.1686],[-97.8765,23.183],[-97.85,23.1929],[-97.81,23.1981],[-97.7767,23.2093],[-97.7501,23.2264],[-97.7346,23.2763],[-97.7302,23.3589],[-97.7135,23.4307],[-97.6845,23.4915],[-97.65,23.5306],[-97.61,23.5479],[-97.57,23.5742],[-97.53,23.6094],[-97.479,23.6254],[-97.4171,23.622],[-97.3711,23.5974],[-97.3412,23.5516],[-97.3361,23.4966],[-97.3557,23.4324],[-97.352,23.3727],[-97.3252,23.3176],[-97.3213,23.2897],[-97.3404,23.2889],[-97.37,23.3082],[-97.41,23.3476],[-97.445,23.3716],[-97.475,23.3803],[-97.515,23.383],[-97.565,23.3797],[-97.6017,23.3653],[-97.6251,23.3396],[-97.6301,23.3148],[-97.6167,23.2909],[-97.595,23.2757],[-97.565,23.2692],[-97.5361,23.2536],[-97.5082,23.2289],[-97.49,23.1982],[-97.4815,23.1614],[-97.4854,23.1209],[-97.5018,23.0766],[-97.52,23.0509],[-97.54,23.0436],[-97.595,23.0462],[-97.685,23.0588],[-97.765,23.078],[-97.835,23.1036],[-97.8765,23.1277],[-97.8895,23.1502],[-97.8895,23.1686]]]}},{"type":"Feature","properties":{"c":"#fed976","v0":10.0,"v1":20.0},"geometry":{"type":"Polygon","coordinates":[[[-97.6306,22.8526],[-97.6035,22.8978],[-97.56,22.9363],[-97.5,22.9681],[-97.445,22.9898],[-97.395,23.0013],[-97.3455,22.9904],[-97.2965,22.9572],[-97.265,22.9083],[-97.251,22.8438],[-97.2605,22.7913],[-97.2935,22.7508],[-97.37,22.729],[-97.49,22.726],[-97.5674,22.7324],[-97.6023,22.7483],[-97.6258,22.7747],[-97.638,22.8115],[-97.6306,22.8526]],[[-97.6165,22.8474],[-97.5988,22.8822],[-97.54,22.9221],[-97.44,22.9671],[-97.366,22.9773],[-97.3179,22.9528],[-97.2862,22.9129],[-97.2707,22.8576],[-97.2697,22.8134],[-97.2832,22.7803],[-97.31,22.758],[-97.35,22.7466],[-97.42,22.7419],[-97.52,22.744],[-97.58,22.7524],[-97.6,22.7672],[-97.6138,22.7885],[-97.6215,22.8162],[-97.6165,22.8474]]]}},{"type":"Feature","properties":{"c":"#feb24c","v0":20.0,"v1":30.0},"geometry":{"type":"Polygon","coordinates":[[[-69.6006,41.5466],[-69.5935,41.5657],[-69.565,41.5932],[-69.515,41.629],[-69.43,41.6552],[-69.31,41.6719],[-69.195,41.6349],[-69.085,41.5442],[-69.0091,41.4933],[-68.9674,41.4825],[-68.9417,41.4621],[-68.9322,41.4321],[-68.9331,41.4093],[-68.9444,41.3938],[-68.965,41.3809],[-68.995,41.3706],[-69.0284,41.3858],[-69.0653,41.4267],[-69.1103,41.4595],[-69.1634,41.4842],[-69.24,41.5027],[-69.34,41.5152],[-69.435,41.5119],[-69.525,41.493],[-69.5757,41.4857],[-69.5871,41.4899],[-69.5957,41.5033],[-69.6014,41.5258],[-69.6006,41.5466]]]}},{"type":"Feature","properties":{"c":"#feb24c","v0":20.0,"v1":30.0},"geometry":{"type":"Polygon","coordinates":[[[-77.1277,33.1173],[-77.1159,33.1373],[-77.04,33.1681],[-76.9,33.2099],[-76.8064,33.2501],[-76.7593,33.2888],[-76.7093,33.3079],[-76.6564,33.3074],[-76.615,33.3126],[-76.585,33.3236],[-76.5569,33.3447],[-76.5307,33.3761],[-76.5251,33.4168],[-76.54,33.4668],[-76.5431,33.4971],[-76.5344,33.5076],[-76.505,33.5106],[-76.455,33.5061],[-76.4249,33.48],[-76.4147,33.4323],[-76.3997,33.4007],[-76.3799,33.3853],[-76.3255,33.3936],[-76.2365,33.4258],[-76.1615,33.444],[-76.1005,33.4485],[-76.01,33.4187],[-75.89,33.3545],[-75.805,33.3171],[-75.755,33.3063],[-75.7,33.3044],[-75.64,33.3115],[-75.6024,33.3091],[-75.5872,33.2973],[-75.611,33.2664],[-75.6739,33.2162],[-75.7052,33.1785],[-75.7049,33.1534],[-75.6925,33.1283],[-75.6679,33.1032],[-75.656,33.0822],[-75.6571,33.0655],[-75.667,33.0571],[-75.6859,33.0571],[-75.724,33.0773],[-75.7813,33.1177],[-75.835,33.1398],[-75.885,33.1436],[-75.95,33.1325],[-76.03,33.1067],[-76.12,33.0569],[-76.22,32.9832],[-76.28,32.9516],[-76.3,32.9622],[-76.3141,32.9773],[-76.3224,32.9969],[-76.3201,33.0487],[-76.3072,33.1325],[-76.3091,33.1953],[-76.3257,33.2371],[-76.343,33.2651],[-76.361,33.2794],[-76.3868,33.2794],[-76.4203,33.2651],[-76.4503,33.2288],[-76.4768,33.1703],[-76.505,33.1253],[-76.535,33.0939],[-76.585,33.0837],[-76.655,33.0946],[-76.715,33.0687],[-76.765,33.0058],[-76.815,33.0023],[-76.865,33.0582],[-76.935,33.0779],[-77.025,33.0616],[-77.0818,33.0585],[-77.1053,33.0687],[-77.1211,33.0822],[-77.1294,33.099],[-77.1277,33.1173]]]}},{"type":"Feature","properties":{"c":"#feb24c","v0":20.0,"v1":30.0},"geometry":{"type":"Polygon","coordinates":[[[-95.7709,28.0474],[-95.7621,28.0827],[-95.7408,28.1174],[-95.7069,28.1514],[-95.645,28.1761],[-95.555,28.1914],[-95.48,28.2256],[-95.42,28.2785],[-95.345,28.3267],[-95.255,28.3701],[-95.1925,28.3894],[-95.1574,28.3846],[-95.1362,28.3647],[-95.129,28.3295],[-95.1315,28.2968],[-95.1438,28.2666],[-95.195,28.2205],[-95.285,28.1583],[-95.3513,28.1205],[-95.394,28.1071],[-95.434,28.076],[-95.4713,28.0273],[-95.55,27.9892],[-95.67,27.9617],[-95.7389,27.9551],[-95.7568,27.9695],[-95.7681,27.99],[-95.7729,28.0165],[-95.7709,28.0474]],[[-95.7603,28.043],[-95.7557,28.0695],[-95.7376,28.101],[-95.7059,28.1376],[-95.645,28.1621],[-95.555,28.1746],[-95.485,28.2063],[-95.435,28.2569],[-95.36,28.3065],[-95.26,28.355],[-95.2,28.3806],[-95.18,28.3834],[-95.1635,28.3798],[-95.1506,28.3697],[-95.1432,28.3471],[-95.1414,28.3119],[-95.1479,28.2827],[-95.1626,28.2595],[-95.215,28.2182],[-95.305,28.1587],[-95.37,28.1234],[-95.41,28.1123],[-95.445,28.0841],[-95.475,28.0387],[-95.545,28.0015],[-95.655,27.9725],[-95.7202,27.9627],[-95.7406,27.9721],[-95.7537,27.99],[-95.7596,28.0165],[-95.7603,28.043]]]}},{"type":"Feature","properties":{"c":"#feb24c","v0":20.0,"v1":30.0},"geometry":{"type":"Polygon","coordinates":[[[-97.5001,26.5321],[-97.4825,26.5589],[-97.4577,26.5754],[-97.4259,26.5814],[-97.36,26.6137],[-97.26,26.6723],[-97.1948,26.7051],[-97.1643,26.7119],[-97.1429,26.7064],[-97.1306,26.6886],[-97.1258,26.6685],[-97.1286,26.6462],[-97.1624,26.5881],[-97.2271,26.4941],[-97.2371,26.4237],[-97.1924,26.3768],[-97.174,26.3275],[-97.1821,26.2758],[-97.2071,26.2661],[-97.249,26.2986],[-97.32,26.3238],[-97.42,26.342],[-97.4797,26.3929],[-97.4992,26.4768],[-97.5001,26.5321]]]}},{"type":"Feature","properties":{"c":"#feb24c","v0":20.0,"v1":30.0},"geometry":{"type":"Polygon","coordinates":[[[-97.7435,26.2006],[-97.7181,26.2454],[-97.6865,26.2765],[-97.6488,26.2938],[-97.6173,26.2983],[-97.5918,26.2899],[-97.581,26.2768],[-97.5848,26.2589],[-97.6175,26.224],[-97.6792,26.1722],[-97.7215,26.1542],[-97.7446,26.1702],[-97.7435,26.2006]]]}},{"type":"Feature","properties":{"c":"#feb24c","v0":20.0,"v1":30.0},"geometry":{"type":"Polygon","coordinates":[[[-97.3541,26.0434],[-97.2933,26.0973],[-97.2347,26.1268],[-97.1782,26.1319],[-97.141,26.1274],[-97.123,26.1133],[-97.118,26.098],[-97.126,26.0813],[-97.15,26.0675],[-97.19,26.0565],[-97.235,26.0335],[-97.285,25.9983],[-97.3215,25.9807],[-97.3444,25.9806],[-97.363,25.9895],[-97.3773,26.0075],[-97.3541,26.0434]]]}},{"type":"Feature","properties":{"c":"#feb24c","v0":20.0,"v1":30.0},"geometry":{"type":"Polygon","coordinates":[[[-95.552,25.5572],[-95.5467,25.5753],[-95.5055,25.6129],[-95.4285,25.6701],[-95.3621,25.6882],[-95.3064,25.667],[-95.2608,25.6384],[-95.2254,25.6023],[-95.2083,25.5779],[-95.2094,25.5651],[-95.215,25.5588],[-95.225,25.559],[-95.25,25.5674],[-95.29,25.5842],[-95.335,25.5925],[-95.385,25.5922],[-95.435,25.5786],[-95.485,25.5517],[-95.5211,25.5407],[-95.5434,25.5457],[-95.552,25.5572]]]}},{"type":"Feature","properties":{"c":"#feb24c","v0":20.0,"v1":30.0},"geometry":{"type":"Polygon","coordinates":[[[-97.6112,24.3103],[-97.5915,24.3741],[-97.5637,24.4159],[-97.5279,24.4359],[-97.495,24.4691],[-97.465,24.5157],[-97.415,24.5579],[-97.345,24.5956],[-97.28,24.6183],[-97.22,24.626],[-97.18,24.6263],[-97.16,24.6191],[-97.1457,24.5905],[-97.137,24.5403],[-97.122,24.5099],[-97.1007,24.4992],[-97.065,24.5012],[-97.015,24.5161],[-96.95,24.5237],[-96.87,24.524],[-96.8079,24.4992],[-96.7638,24.4492],[-96.7458,24.4105],[-96.7538,24.3832],[-96.7809,24.355],[-96.827,24.326],[-96.905,24.3073],[-97.015,24.2991],[-97.095,24.3009],[-97.145,24.3126],[-97.21,24.3187],[-97.29,24.319],[-97.3494,24.2953],[-97.3881,24.2476],[-97.4381,24.2126],[-97.4994,24.1905],[-97.5479,24.1859],[-97.5836,24.1989],[-97.6064,24.2237],[-97.6162,24.2602],[-97.6112,24.3103]],[[-97.5997,24.3094],[-97.5799,24.3713],[-97.5521,24.4123],[-97.5162,24.4324],[-97.4837,24.4651],[-97.4548,24.5107],[-97.4077,24.551],[-97.3426,24.5863],[-97.275,24.6066],[-97.205,24.612],[-97.1632,24.608],[-97.1495,24.5947],[-97.144,24.5698],[-97.1465,24.5334],[-97.1333,24.5074],[-97.1044,24.4917],[-97.065,24.4911],[-97.015,24.5056],[-96.95,24.5127],[-96.87,24.5124],[-96.8109,24.4903],[-96.7726,24.4462],[-96.7582,24.4105],[-96.7677,24.3832],[-96.7968,24.3564],[-96.8456,24.3303],[-96.92,24.3141],[-97.02,24.3079],[-97.095,24.3107],[-97.145,24.3224],[-97.215,24.3276],[-97.305,24.3261],[-97.3626,24.3045],[-97.3877,24.2628],[-97.4277,24.2298],[-97.4826,24.2054],[-97.5289,24.1963],[-97.5668,24.2024],[-97.5916,24.2237],[-97.6036,24.2602],[-97.5997,24.3094]]]}},{"type":"Feature","properties":{"c":"#feb24c","v0":20.0,"v1":30.0},"geometry":{"type":"Polygon","coordinates":[[[-97.8895,23.1686],[-97.8765,23.183],[-97.85,23.1929],[-97.81,23.1981],[-97.7767,23.2093],[-97.7501,23.2264],[-97.7346,23.2763],[-97.7302,23.3589],[-97.7135,23.4307],[-97.6845,23.4915],[-97.65,23.5306],[-97.61,23.5479],[-97.57,23.5742],[-97.53,23.6094],[-97.479,23.6254],[-97.4171,23.622],[-97.3711,23.5974],[-97.3412,23.5516],[-97.3361,23.4966],[-97.3557,23.4324],[-97.352,23.3727],[-97.3252,23.3176],[-97.3213,23.2897],[-97.3404,23.2889],[-97.37,23.3082],[-97.41,23.3476],[-97.445,23.3716],[-97.475,23.3803],[-97.515,23.383],[-97.565,23.3797],[-97.6017,23.3653],[-97.6251,23.3396],[-97.6301,23.3148],[-97.6167,23.2909],[-97.595,23.2757],[-97.565,23.2692],[-97.5361,23.2536],[-97.5082,23.2289],[-97.49,23.1982],[-97.4815,23.1614],[-97.4854,23.1209],[-97.5018,23.0766],[-97.52,23.0509],[-97.54,23.0436],[-97.595,23.0462],[-97.685,23.0588],[-97.765,23.078],[-97.835,23.1036],[-97.8765,23.1277],[-97.8895,23.1502],[-97.8895,23.1686]]]}},{"type":"Feature","properties":{"c":"#feb24c","v0":20.0,"v1":30.0},"geometry":{"type":"Polygon","coordinates":[[[-97.6165,22.8474],[-97.5988,22.8822],[-97.54,22.9221],[-97.44,22.9671],[-97.366,22.9773],[-97.3179,22.9528],[-97.2862,22.9129],[-97.2707,22.8576],[-97.2697,22.8134],[-97.2832,22.7803],[-97.31,22.758],[-97.35,22.7466],[-97.42,22.7419],[-97.52,22.744],[-97.58,22.7524],[-97.6,22.7672],[-97.6138,22.7885],[-97.6215,22.8162],[-97.6165,22.8474]],[[-97.5996,22.8461],[-97.5799,22.8783],[-97.525,22.9144],[-97.435,22.9544],[-97.37,22.9647],[-97.33,22.9453],[-97.3025,22.9092],[-97.2875,22.8564],[-97.2854,22.8162],[-97.2962,22.7885],[-97.3187,22.7698],[-97.3529,22.76],[-97.42,22.7567],[-97.52,22.76],[-97.5799,22.7787],[-97.5996,22.8129],[-97.5996,22.8461]]]}},{"type":"Feature","properties":{"c":"#fd8d3c","v0":30.0,"v1":40.0},"geometry":{"type":"Polygon","coordinates":[[[-95.7603,28.043],[-95.7557,28.0695],[-95.7376,28.101],[-95.7059,28.1376],[-95.645,28.1621],[-95.555,28.1746],[-95.485,28.2063],[-95.435,28.2569],[-95.36,28.3065],[-95.26,28.355],[-95.2,28.3806],[-95.18,28.3834],[-95.1635,28.3798],[-95.1506,28.3697],[-95.1432,28.3471],[-95.1414,28.3119],[-95.1479,28.2827],[-95.1626,28.2595],[-95.215,28.2182],[-95.305,28.1587],[-95.37,28.1234],[-95.41,28.1123],[-95.445,28.0841],[-95.475,28.0387],[-95.545,28.0015],[-95.655,27.9725],[-95.7202,27.9627],[-95.7406,27.9721],[-95.7537,27.99],[-95.7596,28.0165],[-95.7603,28.043]],[[-95.7481,28.043],[-95.7426,28.0695],[-95.7274,28.0977],[-95.7025,28.1276],[-95.67,28.1491],[-95.63,28.1624],[-95.5819,28.1695],[-95.5258,28.1704],[-95.4726,28.1973],[-95.4225,28.2502],[-95.3505,28.2994],[-95.2568,28.3448],[-95.1979,28.3668],[-95.1737,28.3654],[-95.1587,28.3515],[-95.1528,28.3251],[-95.156,28.2986],[-95.1685,28.2722],[-95.2185,28.2298],[-95.3062,28.1713],[-95.3719,28.1361],[-95.4158,28.124],[-95.4508,28.0956],[-95.4769,28.0509],[-95.545,28.0139],[-95.655,27.9846],[-95.7189,27.976],[-95.7366,27.9883],[-95.7468,28.0033],[-95.7495,28.0209],[-95.7481,28.043]]]}},{"type":"Feature","properties":{"c":"#fd8d3c","v0":30.0,"v1":40.0},"geometry":{"type":"Polygon","coordinates":[[[-97.5997,24.3094],[-97.5799,24.3713],[-97.5521,24.4123],[-97.5162,24.4324],[-97.4837,24.4651],[-97.4548,24.5107],[-97.4077,24.551],[-97.3426,24.5863],[-97.275,24.6066],[-97.205,24.612],[-97.1632,24.608],[-97.1495,24.5947],[-97.144,24.5698],[-97.1465,24.5334],[-97.1333,24.5074],[-97.1044,24.4917],[-97.065,24.4911],[-97.015,24.5056],[-96.95,24.5127],[-96.87,24.5124],[-96.8109,24.4903],[-96.7726,24.4462],[-96.7582,24.4105],[-96.7677,24.3832],[-96.7968,24.3564],[-96.8456,24.3303],[-96.92,24.3141],[-97.02,24.3079],[-97.095,24.3107],[-97.145,24.3224],[-97.215,24.3276],[-97.305,24.3261],[-97.3626,24.3045],[-97.3877,24.2628],[-97.4277,24.2298],[-97.4826,24.2054],[-97.5289,24.1963],[-97.5668,24.2024],[-97.5916,24.2237],[-97.6036,24.2602],[-97.5997,24.3094]],[[-97.5928,24.3057],[-97.5775,24.3604],[-97.5499,24.3999],[-97.51,24.4243],[-97.475,24.4598],[-97.445,24.5064],[-97.4,24.5461],[-97.34,24.5788],[-97.275,24.5973],[-97.205,24.6015],[-97.1652,24.5951],[-97.1555,24.5782],[-97.1534,24.5561],[-97.1589,24.5289],[-97.1487,24.506],[-97.1229,24.4875],[-97.045,24.4859],[-96.915,24.5012],[-96.8283,24.4877],[-96.7849,24.4454],[-96.7689,24.4105],[-96.7804,24.3832],[-96.8071,24.3586],[-96.849,24.3368],[-96.92,24.3229],[-97.02,24.317],[-97.095,24.3199],[-97.145,24.3316],[-97.215,24.3373],[-97.305,24.3369],[-97.365,24.314],[-97.395,24.2687],[-97.44,24.2342],[-97.5,24.2106],[-97.5449,24.205],[-97.5747,24.2175],[-97.5923,24.2374],[-97.5977,24.2647],[-97.5928,24.3057]]]}},{"type":"Feature","properties":{"c":"#fd8d3c","v0":30.0,"v1":40.0},"geometry":{"type":"Polygon","coordinates":[[[-97.5996,22.8461],[-97.5799,22.8783],[-97.525,22.9144],[-97.435,22.9544],[-97.37,22.9647],[-97.33,22.9453],[-97.3025,22.9092],[-97.2875,22.8564],[-97.2854,22.8162],[-97.2962,22.7885],[-97.3187,22.7698],[-97.3529,22.76],[-97.42,22.7567],[-97.52,22.76],[-97.5799,22.7787],[-97.5996,22.8129],[-97.5996,22.8461]],[[-97.5805,22.8438],[-97.5602,22.8714],[-97.51,22.9031],[-97.43,22.9387],[-97.3733,22.9479],[-97.3399,22.9307],[-97.3175,22.8991],[-97.306,22.853],[-97.3027,22.8206],[-97.3076,22.8019],[-97.325,22.7876],[-97.355,22.7775],[-97.415,22.7729],[-97.505,22.7738],[-97.5602,22.7882],[-97.5805,22.816],[-97.5805,22.8438]]]}},{"type":"Feature","properties":{"c":"#fc4e2a","v0":40.0,"v1":50.0},"geometry":{"type":"Polygon","coordinates":[[[-95.7481,28.043],[-95.7426,28.0695],[-95.7274,28.0977],[-95.7025,28.1276],[-95.67,28.1491],[-95.63,28.1624],[-95.5819,28.1695],[-95.5258,28.1704],[-95.4726,28.1973],[-95.4225,28.2502],[-95.3505,28.2994],[-95.2568,28.3448],[-95.1979,28.3668],[-95.1737,28.3654],[-95.1587,28.3515],[-95.1528,28.3251],[-95.156,28.2986],[-95.1685,28.2722],[-95.2185,28.2298],[-95.3062,28.1713],[-95.3719,28.1361],[-95.4158,28.124],[-95.4508,28.0956],[-95.4769,28.0509],[-95.545,28.0139],[-95.655,27.9846],[-95.7189,27.976],[-95.7366,27.9883],[-95.7468,28.0033],[-95.7495,28.0209],[-95.7481,28.043]],[[-95.7336,28.043],[-95.7274,28.0695],[-95.7124,28.0959],[-95.6886,28.1224],[-95.66,28.1409],[-95.6267,28.1514],[-95.58,28.1565],[-95.52,28.1561],[-95.4684,28.1817],[-95.4251,28.2333],[-95.3551,28.2826],[-95.2584,28.3297],[-95.2,28.3525],[-95.18,28.351],[-95.1693,28.3363],[-95.168,28.3082],[-95.173,28.2861],[-95.1843,28.2699],[-95.2316,28.2347],[-95.3149,28.1804],[-95.3799,28.147],[-95.4266,28.1346],[-95.465,28.1045],[-95.495,28.0566],[-95.56,28.0206],[-95.66,27.9963],[-95.7167,27.9956],[-95.73,28.0184],[-95.7336,28.043]]]}},{"type":"Feature","properties":{"c":"#fc4e2a","v0":40.0,"v1":50.0},"geometry":{"type":"Polygon","coordinates":[[[-97.5928,24.3057],[-97.5775,24.3604],[-97.5499,24.3999],[-97.51,24.4243],[-97.475,24.4598],[-97.445,24.5064],[-97.4,24.5461],[-97.34,24.5788],[-97.275,24.5973],[-97.205,24.6015],[-97.1652,24.5951],[-97.1555,24.5782],[-97.1534,24.5561],[-97.1589,24.5289],[-97.1487,24.506],[-97.1229,24.4875],[-97.045,24.4859],[-96.915,24.5012],[-96.8283,24.4877],[-96.7849,24.4454],[-96.7689,24.4105],[-96.7804,24.3832],[-96.8071,24.3586],[-96.849,24.3368],[-96.92,24.3229],[-97.02,24.317],[-97.095,24.3199],[-97.145,24.3316],[-97.215,24.3373],[-97.305,24.3369],[-97.365,24.314],[-97.395,24.2687],[-97.44,24.2342],[-97.5,24.2106],[-97.5449,24.205],[-97.5747,24.2175],[-97.5923,24.2374],[-97.5977,24.2647],[-97.5928,24.3057]],[[-97.5827,24.3057],[-97.5658,24.3604],[-97.5401,24.3969],[-97.5055,24.4151],[-97.4737,24.4477],[-97.4446,24.4948],[-97.4,24.5353],[-97.34,24.5693],[-97.275,24.5874],[-97.205,24.5896],[-97.1712,24.5672],[-97.1736,24.5204],[-97.1636,24.4915],[-97.1412,24.4805],[-97.115,24.4728],[-97.085,24.4684],[-97.0473,24.4739],[-97.0019,24.4893],[-96.9469,24.4977],[-96.8823,24.4991],[-96.8308,24.4808],[-96.7924,24.4431],[-96.7774,24.4128],[-96.7858,24.3901],[-96.8127,24.3673],[-96.8582,24.3445],[-96.9282,24.3306],[-97.0227,24.3257],[-97.095,24.3289],[-97.145,24.3404],[-97.215,24.3461],[-97.305,24.3461],[-97.357,24.3429],[-97.371,24.3364],[-97.386,24.3145],[-97.402,24.2772],[-97.44,24.2459],[-97.5,24.2204],[-97.5417,24.2117],[-97.5652,24.2197],[-97.5805,24.2374],[-97.5876,24.2647],[-97.5827,24.3057]]]}},{"type":"Feature","properties":{"c":"#fc4e2a","v0":40.0,"v1":50.0},"geometry":{"type":"Polygon","coordinates":[[[-97.5805,22.8438],[-97.5602,22.8714],[-97.51,22.9031],[-97.43,22.9387],[-97.3733,22.9479],[-97.3399,22.9307],[-97.3175,22.8991],[-97.306,22.853],[-97.3027,22.8206],[-97.3076,22.8019],[-97.325,22.7876],[-97.355,22.7775],[-97.415,22.7729],[-97.505,22.7738],[-97.5602,22.7882],[-97.5805,22.816],[-97.5805,22.8438]]]}},{"type":"Feature","properties":{"c":"#e31a1c","v0":50.0,"v1":60.0},"geometry":{"type":"Polygon","coordinates":[[[-95.7336,28.043],[-95.7274,28.0695],[-95.7124,28.0959],[-95.6886,28.1224],[-95.66,28.1409],[-95.6267,28.1514],[-95.58,28.1565],[-95.52,28.1561],[-95.4684,28.1817],[-95.4251,28.2333],[-95.3551,28.2826],[-95.2584,28.3297],[-95.2,28.3525],[-95.18,28.351],[-95.1693,28.3363],[-95.168,28.3082],[-95.173,28.2861],[-95.1843,28.2699],[-95.2316,28.2347],[-95.3149,28.1804],[-95.3799,28.147],[-95.4266,28.1346],[-95.465,28.1045],[-95.495,28.0566],[-95.56,28.0206],[-95.66,27.9963],[-95.7167,27.9956],[-95.73,28.0184],[-95.7336,28.043]],[[-95.4268,28.1885],[-95.4057,28.2238],[-95.3439,28.2636],[-95.2413,28.308],[-95.19,28.3211],[-95.19,28.3028],[-95.1993,28.285],[-95.2179,28.2677],[-95.2629,28.2364],[-95.3343,28.1913],[-95.3868,28.1693],[-95.4205,28.1703],[-95.4268,28.1885]],[[-95.7032,28.0518],[-95.6802,28.0959],[-95.649,28.1234],[-95.6097,28.1342],[-95.565,28.1345],[-95.515,28.124],[-95.4988,28.101],[-95.5164,28.0653],[-95.5664,28.0372],[-95.6488,28.0167],[-95.6962,28.0123],[-95.7086,28.0239],[-95.7032,28.0518]]]}},{"type":"Feature","properties":{"c":"#e31a1c","v0":50.0,"v1":60.0},"geometry":{"type":"Polygon","coordinates":[[[-97.5827,24.3057],[-97.5658,24.3604],[-97.5401,24.3969],[-97.5055,24.4151],[-97.4737,24.4477],[-97.4446,24.4948],[-97.4,24.5353],[-97.34,24.5693],[-97.275,24.5874],[-97.205,24.5896],[-97.1712,24.5672],[-97.1736,24.5204],[-97.1636,24.4915],[-97.1412,24.4805],[-97.115,24.4728],[-97.085,24.4684],[-97.0473,24.4739],[-97.0019,24.4893],[-96.9469,24.4977],[-96.8823,24.4991],[-96.8308,24.4808],[-96.7924,24.4431],[-96.7774,24.4128],[-96.7858,24.3901],[-96.8127,24.3673],[-96.8582,24.3445],[-96.9282,24.3306],[-97.0227,24.3257],[-97.095,24.3289],[-97.145,24.3404],[-97.215,24.3461],[-97.305,24.3461],[-97.357,24.3429],[-97.371,24.3364],[-97.386,24.3145],[-97.402,24.2772],[-97.44,24.2459],[-97.5,24.2204],[-97.5417,24.2117],[-97.5652,24.2197],[-97.5805,24.2374],[-97.5876,24.2647],[-97.5827,24.3057]],[[-97.5727,24.3038],[-97.5576,24.3546],[-97.531,24.391],[-97.4929,24.4131],[-97.46,24.4469],[-97.4321,24.4925],[-97.3911,24.5305],[-97.337,24.561],[-97.2795,24.5792],[-97.2184,24.5851],[-97.1848,24.5789],[-97.1787,24.5607],[-97.1822,24.538],[-97.1952,24.5107],[-97.1969,24.4925],[-97.1873,24.4834],[-97.1543,24.4732],[-97.0981,24.4621],[-97.05,24.4637],[-97.01,24.4781],[-96.955,24.4862],[-96.885,24.488],[-96.8336,24.4727],[-96.8007,24.4404],[-96.7907,24.412],[-96.8036,24.3877],[-96.83,24.3671],[-96.87,24.3503],[-97.01,24.3443],[-97.25,24.349],[-97.3834,24.3286],[-97.4102,24.283],[-97.4452,24.2504],[-97.4884,24.231],[-97.5224,24.2219],[-97.5473,24.2231],[-97.5649,24.2374],[-97.5752,24.2647],[-97.5727,24.3038]]]}},{"type":"Feature","properties":{"c":"#bd0026","v0":60.0,"v1":75.0},"geometry":{"type":"Polygon","coordinates":[[[-95.4268,28.1885],[-95.4057,28.2238],[-95.3439,28.2636],[-95.2413,28.308],[-95.19,28.3211],[-95.19,28.3028],[-95.1993,28.285],[-95.2179,28.2677],[-95.2629,28.2364],[-95.3343,28.1913],[-95.3868,28.1693],[-95.4205,28.1703],[-95.4268,28.1885]]]}},{"type":"Feature","properties":{"c":"#bd0026","v0":60.0,"v1":75.0},"geometry":{"type":"Polygon","coordinates":[[[-95.7032,28.0518],[-95.6802,28.0959],[-95.649,28.1234],[-95.6097,28.1342],[-95.565,28.1345],[-95.515,28.124],[-95.4988,28.101],[-95.5164,28.0653],[-95.5664,28.0372],[-95.6488,28.0167],[-95.6962,28.0123],[-95.7086,28.0239],[-95.7032,28.0518]]]}},{"type":"Feature","properties":{"c":"#bd0026","v0":60.0,"v1":75.0},"geometry":{"type":"Polygon","coordinates":[[[-97.5727,24.3038],[-97.5576,24.3546],[-97.531,24.391],[-97.4929,24.4131],[-97.46,24.4469],[-97.4321,24.4925],[-97.3911,24.5305],[-97.337,24.561],[-97.2795,24.5792],[-97.2184,24.5851],[-97.1848,24.5789],[-97.1787,24.5607],[-97.1822,24.538],[-97.1952,24.5107],[-97.1969,24.4925],[-97.1873,24.4834],[-97.1543,24.4732],[-97.0981,24.4621],[-97.05,24.4637],[-97.01,24.4781],[-96.955,24.4862],[-96.885,24.488],[-96.8336,24.4727],[-96.8007,24.4404],[-96.7907,24.412],[-96.8036,24.3877],[-96.83,24.3671],[-96.87,24.3503],[-97.01,24.3443],[-97.25,24.349],[-97.3834,24.3286],[-97.4102,24.283],[-97.4452,24.2504],[-97.4884,24.231],[-97.5224,24.2219],[-97.5473,24.2231],[-97.5649,24.2374],[-97.5752,24.2647],[-97.5727,24.3038]],[[-97.5509,24.3012],[-97.537,24.3468],[-97.5125,24.3786],[-97.4772,24.3969],[-97.4466,24.4287],[-97.4206,24.4743],[-97.3832,24.5115],[-97.3344,24.5406],[-97.285,24.5566],[-97.235,24.5594],[-97.2181,24.5448],[-97.2342,24.5129],[-97.2342,24.486],[-97.2181,24.464],[-97.175,24.4487],[-97.105,24.44],[-97.045,24.4437],[-96.995,24.4597],[-96.945,24.4684],[-96.895,24.4696],[-96.8545,24.4587],[-96.8235,24.4357],[-96.8129,24.4151],[-96.8228,24.3969],[-96.8433,24.3814],[-96.8744,24.3687],[-96.935,24.36],[-97.025,24.3554],[-97.095,24.3589],[-97.145,24.3706],[-97.22,24.376],[-97.32,24.3752],[-97.3805,24.3689],[-97.4014,24.3572],[-97.4164,24.3357],[-97.4255,24.3044],[-97.4388,24.2816],[-97.4565,24.2673],[-97.4815,24.2549],[-97.5138,24.2443],[-97.5369,24.2489],[-97.5508,24.2686],[-97.5509,24.3012]]]}},{"type":"Feature","properties":{"c":"#800026","v0":75.0,"v1":90.0},"geometry":{"type":"Polygon","coordinates":[[[-97.5509,24.3012],[-97.537,24.3468],[-97.5125,24.3786],[-97.4772,24.3969],[-97.4466,24.4287],[-97.4206,24.4743],[-97.3832,24.5115],[-97.3344,24.5406],[-97.285,24.5566],[-97.235,24.5594],[-97.2181,24.5448],[-97.2342,24.5129],[-97.2342,24.486],[-97.2181,24.464],[-97.175,24.4487],[-97.105,24.44],[-97.045,24.4437],[-96.995,24.4597],[-96.945,24.4684],[-96.895,24.4696],[-96.8545,24.4587],[-96.8235,24.4357],[-96.8129,24.4151],[-96.8228,24.3969],[-96.8433,24.3814],[-96.8744,24.3687],[-96.935,24.36],[-97.025,24.3554],[-97.095,24.3589],[-97.145,24.3706],[-97.22,24.376],[-97.32,24.3752],[-97.3805,24.3689],[-97.4014,24.3572],[-97.4164,24.3357],[-97.4255,24.3044],[-97.4388,24.2816],[-97.4565,24.2673],[-97.4815,24.2549],[-97.5138,24.2443],[-97.5369,24.2489],[-97.5508,24.2686],[-97.5509,24.3012]]]}}]}