{"type":"FeatureCollection","features":[{"type":"Feature","properties":{"c":"#ffffb2","v0":5.0,"v1":10.0},"geometry":{"type":"Polygon","coordinates":[[[-103.0761,45.5647],[-103.0684,45.5927],[-103.0457,45.6172],[-103.008,45.6381],[-102.983,45.6626],[-102.9705,45.6906],[-102.9358,45.7167],[-102.8786,45.741],[-102.8347,45.7724],[-102.804,45.8109],[-102.739,45.8439],[-102.6397,45.8714],[-102.5746,45.8784],[-102.5438,45.8648],[-102.5168,45.8406],[-102.4936,45.8057],[-102.4832,45.7708],[-102.4854,45.736],[-102.5036,45.6941],[-102.5378,45.6451],[-102.5157,45.6137],[-102.4372,45.5997],[-102.389,45.5787],[-102.371,45.5507],[-102.3621,45.5192],[-102.3622,45.4841],[-102.3695,45.4561],[-102.3841,45.435],[-102.421,45.4112],[-102.4803,45.3847],[-102.55,45.3693],[-102.63,45.3649],[-102.7083,45.3782],[-102.7849,45.409],[-102.829,45.4455],[-102.8408,45.4876],[-102.8522,45.5121],[-102.8635,45.5192],[-102.8893,45.5122],[-102.9298,45.4912],[-102.965,45.4795],[-102.995,45.4771],[-103.0223,45.4806],[-103.047,45.4899],[-103.0645,45.5086],[-103.0748,45.5367],[-103.0761,45.5647]],[[-103.064,45.5612],[-103.0605,45.5822],[-103.0372,45.6067],[-102.9942,45.6347],[-102.9663,45.6626],[-102.9534,45.6906],[-102.9227,45.7133],[-102.8742,45.7309],[-102.83,45.7621],[-102.79,45.807],[-102.725,45.841],[-102.635,45.8642],[-102.5716,45.8643],[-102.5349,45.8415],[-102.5109,45.8127],[-102.4997,45.7778],[-102.4975,45.7464],[-102.5041,45.7185],[-102.5266,45.6801],[-102.5649,45.6312],[-102.5406,45.6018],[-102.4535,45.5921],[-102.4025,45.5781],[-102.3874,45.5598],[-102.379,45.5297],[-102.3772,45.4876],[-102.3847,45.4562],[-102.4016,45.4356],[-102.44,45.4129],[-102.5,45.3882],[-102.565,45.375],[-102.635,45.3734],[-102.705,45.3867],[-102.775,45.415],[-102.82,45.4535],[-102.84,45.5021],[-102.86,45.5289],[-102.88,45.5337],[-102.905,45.5248],[-102.935,45.5022],[-102.965,45.4896],[-102.995,45.4871],[-103.0213,45.4916],[-103.044,45.503],[-103.058,45.5192],[-103.0632,45.5402],[-103.064,45.5612]]]}},{"type":"Feature","properties":{"c":"#ffffb2","v0":5.0,"v1":10.0},"geometry":{"type":"Polygon","coordinates":[[[-103.6228,45.5472],[-103.6166,45.5682],[-103.5807,45.6067],[-103.5152,45.6626],[-103.4593,45.6928],[-103.4131,45.6974],[-103.3715,45.6904],[-103.3344,45.6719],[-103.3106,45.6242],[-103.3,45.5472],[-103.3036,45.4969],[-103.3212,45.4735],[-103.355,45.4544],[-103.405,45.4396],[-103.45,45.4317],[-103.49,45.4308],[-103.5337,45.4429],[-103.581,45.468],[-103.61,45.4946],[-103.6206,45.5227],[-103.6228,45.5472]],[[-103.5604,45.569],[-103.5001,45.6335],[-103.455,45.6684],[-103.425,45.6737],[-103.395,45.67],[-103.365,45.6573],[-103.345,45.6189],[-103.335,45.5547],[-103.335,45.5132],[-103.345,45.4943],[-103.385,45.4771],[-103.455,45.4616],[-103.5109,45.464],[-103.5528,45.4844],[-103.5779,45.5051],[-103.5864,45.5262],[-103.5604,45.569]]]}},{"type":"Feature","properties":{"c":"#ffffb2","v0":5.0,"v1":10.0},"geometry":{"type":"Polygon","coordinates":[[[-64.8424,45.0524],[-64.8208,45.0971],[-64.755,45.1365],[-64.645,45.1705],[-64.56,45.1799],[-64.5,45.1649],[-64.4381,45.1573],[-64.3742,45.1572],[-64.2892,45.1308],[-64.1831,45.0781],[-64.1226,45.0392],[-64.1078,45.0143],[-64.1114,44.9841],[-64.1334,44.9487],[-64.1558,44.926],[-64.1786,44.916],[-64.215,44.9192],[-64.265,44.9357],[-64.31,44.9389],[-64.35,44.9289],[-64.41,44.9227],[-64.49,44.9205],[-64.565,44.9101],[-64.635,44.8916],[-64.7031,44.8981],[-64.7693,44.9295],[-64.8151,44.9664],[-64.8405,45.0088],[-64.8424,45.0524]],[[-64.7977,45.0477],[-64.78,45.083],[-64.7259,45.1141],[-64.6353,45.1409],[-64.565,45.1474],[-64.515,45.1335],[-64.4581,45.1271],[-64.3944,45.1283],[-64.3131,45.1042],[-64.2141,45.0548],[-64.1602,45.023],[-64.1514,45.0088],[-64.1577,44.9883],[-64.1792,44.9613],[-64.215,44.9554],[-64.265,44.9703],[-64.315,44.972],[-64.365,44.9603],[-64.43,44.9531],[-64.51,44.9504],[-64.58,44.9409],[-64.64,44.9245],[-64.695,44.929],[-64.745,44.9543],[-64.7791,44.9827],[-64.7974,45.0143],[-64.7977,45.0477]]]}},{"type":"Feature","properties":{"c":"#ffffb2","v0":5.0,"v1":10.0},"geometry":{"type":"Polygon","coordinates":[[[-94.1738,44.1756],[-94.1519,44.233],[-94.1282,44.2732],[-94.1027,44.2965],[-94.07,44.3107],[-94.03,44.3159],[-93.975,44.3355],[-93.905,44.3697],[-93.845,44.3906],[-93.795,44.3983],[-93.755,44.4146],[-93.725,44.4394],[-93.695,44.4506],[-93.665,44.4481],[-93.6395,44.4399],[-93.6185,44.4259],[-93.6002,44.4047],[-93.5847,44.3761],[-93.5813,44.3475],[-93.5898,44.3189],[-93.6031,44.2997],[-93.621,44.2901],[-93.65,44.2836],[-93.69,44.2804],[-93.7328,44.2423],[-93.7783,44.1691],[-93.8383,44.1121],[-93.9128,44.0711],[-93.97,44.0442],[-94.01,44.0314],[-94.05,44.0269],[-94.09,44.0306],[-94.1236,44.0431],[-94.1509,44.0644],[-94.1696,44.0931],[-94.1797,44.129],[-94.1738,44.1756]],[[-94.1686,44.1613],[-94.1631,44.1899],[-94.1428,44.2275],[-94.1076,44.2738],[-94.07,44.2993],[-94.03,44.3039],[-93.97,44.3255],[-93.89,44.3641],[-93.83,44.3846],[-93.79,44.387],[-93.755,44.4016],[-93.725,44.4284],[-93.7,44.4421],[-93.68,44.4429],[-93.6581,44.4372],[-93.6342,44.425],[-93.6152,44.4083],[-93.601,44.3868],[-93.5947,44.3618],[-93.5963,44.3332],[-93.6053,44.313],[-93.6218,44.3013],[-93.6521,44.2941],[-93.6962,44.2915],[-93.739,44.2544],[-93.7805,44.1828],[-93.8262,44.1361],[-93.876,44.1146],[-93.9132,44.0934],[-93.9377,44.0724],[-93.97,44.0552],[-94.01,44.0416],[-94.05,44.0366],[-94.09,44.0403],[-94.1225,44.0539],[-94.1476,44.0776],[-94.163,44.1038],[-94.1685,44.1325],[-94.1686,44.1613]]]}},{"type":"Feature","properties":{"c":"#ffffb2","v0":5.0,"v1":10.0},"geometry":{"type":"Polygon","coordinates":[[[-64.0742,43.5265],[-64.058,43.5555],[-64.0249,43.5821],[-63.975,43.6062],[-63.915,43.6202],[-63.845,43.6242],[-63.77,43.6378],[-63.69,43.661],[-63.625,43.685],[-63.575,43.7098],[-63.535,43.7205],[-63.505,43.717],[-63.4827,43.7079],[-63.4681,43.6932],[-63.4615,43.6641],[-63.4628,43.6207],[-63.4729,43.5881],[-63.4917,43.5664],[-63.5644,43.5374],[-63.6909,43.5011],[-63.7732,43.4688],[-63.8111,43.4404],[-63.86,43.4237],[-63.92,43.4188],[-63.965,43.4192],[-63.995,43.4249],[-64.0255,43.438],[-64.0566,43.4583],[-64.0747,43.4794],[-64.0797,43.5011],[-64.0742,43.5265]],[[-64.0571,43.5229],[-64.0468,43.5447],[-64.0223,43.5664],[-63.9836,43.5881],[-63.9236,43.6026],[-63.8421,43.6099],[-63.7632,43.6243],[-63.6867,43.6461],[-63.6239,43.6695],[-63.5746,43.6947],[-63.5332,43.7019],[-63.4996,43.6912],[-63.482,43.6678],[-63.4803,43.6316],[-63.4871,43.6024],[-63.5024,43.5802],[-63.575,43.5501],[-63.705,43.5122],[-63.785,43.4809],[-63.815,43.4562],[-63.87,43.442],[-63.95,43.4384],[-64.0046,43.4445],[-64.0337,43.4605],[-64.0518,43.4794],[-64.0588,43.5011],[-64.0571,43.5229]]]}},{"type":"Feature","properties":{"c":"#ffffb2","v0":5.0,"v1":10.0},"geometry":{"type":"Polygon","coordinates":[[[-63.0266,42.9876],[-63.0237,43.0168],[-63.0145,43.0387],[-62.9988,43.0534],[-62.9507,43.0688],[-62.8702,43.0852],[-62.77,43.0841],[-62.65,43.0656],[-62.5785,43.0465],[-62.5555,43.0267],[-62.5378,42.9949],[-62.5254,42.951],[-62.5319,42.9165],[-62.5573,42.8914],[-62.605,42.8643],[-62.675,42.8352],[-62.77,42.8191],[-62.89,42.816],[-62.9679,42.8248],[-63.0036,42.8454],[-63.0231,42.8851],[-63.0264,42.9436],[-63.0266,42.9876]],[[-63.0109,42.9924],[-62.997,43.0313],[-62.95,43.0592],[-62.87,43.0762],[-62.775,43.0775],[-62.665,43.0629],[-62.5967,43.0459],[-62.5701,43.0265],[-62.5508,42.9949],[-62.5388,42.951],[-62.5421,42.9191],[-62.5607,42.8993],[-62.605,42.8746],[-62.675,42.8449],[-62.765,42.8279],[-62.875,42.8234],[-62.9493,42.8298],[-62.988,42.8471],[-63.01,42.8851],[-63.0153,42.9436],[-63.0109,42.9924]]]}},{"type":"Feature","properties":{"c":"#ffffb2","v0":5.0,"v1":10.0},"geometry":{"type":"Polygon","coordinates":[[[-74.8827,39.7578],[-74.8539,39.8423],[-74.8271,39.8948],[-74.8024,39.9152],[-74.78,39.9266],[-74.76,39.9289],[-74.735,39.9259],[-74.705,39.9175],[-74.68,39.8975],[-74.66,39.866],[-74.615,39.8485],[-74.545,39.8452],[-74.4802,39.8193],[-74.4207,39.7706],[-74.3803,39.7463],[-74.359,39.7463],[-74.3337,39.7698],[-74.3046,39.8169],[-74.2648,39.8476],[-74.2144,39.862],[-74.1694,39.8807],[-74.1298,39.9037],[-74.07,39.9086],[-73.99,39.8954],[-73.9249,39.8686],[-73.8747,39.828],[-73.8448,39.7962],[-73.835,39.7732],[-73.8313,39.7501],[-73.8338,39.727],[-73.8438,39.7068],[-73.8613,39.6893],[-73.9227,39.6739],[-74.0282,39.6606],[-74.1182,39.6295],[-74.1927,39.5805],[-74.255,39.5502],[-74.305,39.5387],[-74.365,39.5376],[-74.435,39.547],[-74.485,39.5687],[-74.515,39.6028],[-74.555,39.6171],[-74.605,39.6117],[-74.66,39.6229],[-74.72,39.6504],[-74.775,39.6629],[-74.825,39.6602],[-74.8598,39.6653],[-74.8795,39.6783],[-74.8913,39.6924],[-74.8952,39.7078],[-74.8827,39.7578]],[[-74.8657,39.7578],[-74.8362,39.8423],[-74.8036,39.893],[-74.7679,39.91],[-74.7368,39.9138],[-74.7105,39.9045],[-74.688,39.8845],[-74.6694,39.8538],[-74.6226,39.8361],[-74.5475,39.8314],[-74.485,39.8063],[-74.435,39.7606],[-74.39,39.738],[-74.35,39.7386],[-74.315,39.7635],[-74.285,39.8128],[-74.245,39.8437],[-74.195,39.8564],[-74.155,39.8722],[-74.125,39.8913],[-74.07,39.894],[-73.99,39.8804],[-73.9236,39.8456],[-73.8709,39.7896],[-73.8465,39.7501],[-73.8507,39.727],[-73.862,39.7083],[-73.8807,39.6939],[-73.94,39.681],[-74.04,39.6698],[-74.125,39.6408],[-74.195,39.5939],[-74.255,39.5642],[-74.305,39.5517],[-74.365,39.5509],[-74.435,39.5617],[-74.48,39.5829],[-74.5,39.6145],[-74.54,39.628],[-74.6,39.6234],[-74.655,39.6341],[-74.705,39.6603],[-74.76,39.6733],[-74.82,39.6733],[-74.8576,39.6838],[-74.8729,39.7049],[-74.8657,39.7578]]]}},{"type":"Feature","properties":{"c":"#ffffb2","v0":5.0,"v1":10.0},"geometry":{"type":"Polygon","coordinates":[[[-93.8907,38.7283],[-93.8769,38.7373],[-93.825,38.7319],[-93.735,38.712],[-93.66,38.7199],[-93.6,38.7555],[-93.56,38.7664],[-93.54,38.7524],[-93.5273,38.7322],[-93.5218,38.7058],[-93.5268,38.681],[-93.5423,38.6579],[-93.58,38.6464],[-93.64,38.6464],[-93.695,38.6295],[-93.745,38.5957],[-93.7934,38.5916],[-93.8403,38.6173],[-93.8723,38.6535],[-93.8892,38.7004],[-93.8907,38.7283]]]}},{"type":"Feature","properties":{"c":"#ffffb2","v0":5.0,"v1":10.0},"geometry":{"type":"Polygon","coordinates":[[[-93.5183,38.5331],[-93.4861,38.5267],[-93.4662,38.515],[-93.4587,38.4979],[-93.4587,38.4857],[-93.4662,38.4784],[-93.4861,38.4901],[-93.5183,38.5209],[-93.5183,38.5331]]]}},{"type":"Feature","properties":{"c":"#ffffb2","v0":5.0,"v1":10.0},"geometry":{"type":"Polygon","coordinates":[[[-93.4387,37.6984],[-93.414,37.7853],[-93.3767,37.8406],[-93.3269,37.8643],[-93.3101,37.9156],[-93.3263,37.9945],[-93.3468,38.0536],[-93.3716,38.0929],[-93.3752,38.1205],[-93.3578,38.1362],[-93.3414,38.1402],[-93.3261,38.1323],[-93.3153,38.1087],[-93.309,38.0693],[-93.2879,38.026],[-93.2519,37.9787],[-93.2424,37.9314],[-93.2592,37.8841],[-93.2641,37.8367],[-93.2571,37.7893],[-93.2727,37.7215],[-93.3109,37.6332],[-93.3402,37.5857],[-93.3605,37.579],[-93.3855,37.5781],[-93.4152,37.5832],[-93.4352,37.603],[-93.4457,37.6375],[-93.4387,37.6984]]]}},{"type":"Feature","properties":{"c":"#ffffb2","v0":5.0,"v1":10.0},"geometry":{"type":"Polygon","coordinates":[[[-95.5383,37.5597],[-95.523,37.5914],[-95.499,37.6178],[-95.4663,37.6388],[-95.425,37.648],[-95.375,37.6454],[-95.32,37.6614],[-95.26,37.6957],[-95.18,37.7244],[-95.08,37.7473],[-95.01,37.7574],[-94.97,37.7546],[-94.92,37.7772],[-94.86,37.825],[-94.805,37.8502],[-94.755,37.8527],[-94.717,37.8438],[-94.691,37.8233],[-94.6797,37.7853],[-94.6829,37.73],[-94.7153,37.6746],[-94.7769,37.6192],[-94.8132,37.5756],[-94.8243,37.5439],[-94.8761,37.5003],[-94.9686,37.4447],[-94.9908,37.3732],[-94.9428,37.2857],[-94.9254,37.222],[-94.9386,37.1822],[-94.9564,37.1545],[-94.9788,37.139],[-95.025,37.1366],[-95.095,37.1475],[-95.1622,37.1951],[-95.2265,37.2794],[-95.2652,37.3374],[-95.2782,37.3692],[-95.2761,37.4144],[-95.2587,37.4729],[-95.26,37.5013],[-95.28,37.4997],[-95.31,37.4852],[-95.35,37.4579],[-95.39,37.4428],[-95.43,37.4397],[-95.4684,37.4488],[-95.5053,37.4699],[-95.5293,37.4963],[-95.5404,37.528],[-95.5383,37.5597]],[[-95.5257,37.5597],[-95.5088,37.5914],[-95.4878,37.6149],[-95.4626,37.63],[-95.42,37.6371],[-95.36,37.636],[-95.31,37.6507],[-95.27,37.6813],[-95.2,37.7089],[-95.1,37.7336],[-95.02,37.7468],[-94.96,37.7486],[-94.905,37.7718],[-94.855,37.8165],[-94.81,37.841],[-94.77,37.8453],[-94.7356,37.8389],[-94.7067,37.8216],[-94.6935,37.7853],[-94.696,37.73],[-94.7256,37.6786],[-94.7823,37.6311],[-94.819,37.5875],[-94.8358,37.5479],[-94.8637,37.5201],[-94.9025,37.5042],[-94.9488,37.4765],[-95.0023,37.4368],[-95.0049,37.3732],[-94.9564,37.2857],[-94.9365,37.226],[-94.9451,37.1942],[-94.9596,37.1689],[-94.9799,37.1503],[-95.0237,37.1463],[-95.091,37.157],[-95.1575,37.2061],[-95.2232,37.2937],[-95.2594,37.3533],[-95.2662,37.3851],[-95.2566,37.4288],[-95.2308,37.4844],[-95.2359,37.5122],[-95.272,37.5124],[-95.31,37.498],[-95.35,37.469],[-95.385,37.4522],[-95.415,37.4478],[-95.4495,37.4543],[-95.4886,37.4717],[-95.5146,37.4963],[-95.5276,37.528],[-95.5257,37.5597]]]}},{"type":"Feature","properties":{"c":"#ffffb2","v0":5.0,"v1":10.0},"geometry":{"type":"Polygon","coordinates":[[[-93.7732,36.8878],[-93.7577,36.9139],[-93.73,36.9361],[-93.69,36.9545],[-93.64,36.9663],[-93.58,36.9714],[-93.53,36.9625],[-93.49,36.9395],[-93.445,36.9262],[-93.395,36.9226],[-93.3602,36.9293],[-93.3405,36.9463],[-93.3269,36.9788],[-93.3192,37.0267],[-93.309,37.0539],[-93.2963,37.0605],[-93.2826,37.0605],[-93.2679,37.0539],[-93.2551,37.0107],[-93.2441,36.9308],[-93.2543,36.8668],[-93.2855,36.8188],[-93.3483,36.8166],[-93.4428,36.8603],[-93.525,36.8797],[-93.595,36.8749],[-93.655,36.8597],[-93.705,36.8339],[-93.74,36.8241],[-93.76,36.8302],[-93.7727,36.8436],[-93.7782,36.8644],[-93.7732,36.8878]]]}},{"type":"Feature","properties":{"c":"#ffffb2","v0":5.0,"v1":10.0},"geometry":{"type":"Polygon","coordinates":[[[-95.1744,36.8954],[-95.1581,36.9364],[-95.115,36.966],[-95.045,36.984],[-94.9559,36.9595],[-94.8477,36.8924],[-94.801,36.8028],[-94.8159,36.6906],[-94.835,36.6178],[-94.8583,36.5845],[-94.8952,36.5564],[-94.9456,36.5335],[-94.9615,36.51],[-94.9428,36.4858],[-94.9126,36.4843],[-94.8709,36.5053],[-94.839,36.5053],[-94.8171,36.4843],[-94.8371,36.4395],[-94.899,36.3708],[-94.955,36.3399],[-95.005,36.3467],[-95.0512,36.369],[-95.0937,36.4067],[-95.1133,36.4416],[-95.11,36.4738],[-95.0916,36.51],[-95.0578,36.5501],[-95.0418,36.5903],[-95.0435,36.6304],[-95.0652,36.6746],[-95.1068,36.7227],[-95.1413,36.7788],[-95.1688,36.8428],[-95.1744,36.8954]],[[-95.1595,36.8948],[-95.1417,36.9348],[-95.1021,36.9616],[-95.0407,36.9752],[-94.9576,36.9473],[-94.8528,36.8777],[-94.8066,36.7988],[-94.819,36.7107],[-94.8328,36.6505],[-94.848,36.6184],[-94.8642,36.5938],[-94.8814,36.5766],[-94.915,36.56],[-94.965,36.544],[-94.9866,36.5244],[-94.9798,36.5014],[-94.9648,36.4804],[-94.9416,36.4614],[-94.915,36.4639],[-94.885,36.488],[-94.8581,36.4935],[-94.8342,36.4803],[-94.8492,36.4429],[-94.9031,36.3812],[-94.955,36.3536],[-95.005,36.36],[-95.0478,36.3788],[-95.0833,36.41],[-95.0994,36.4416],[-95.0961,36.4738],[-95.0758,36.5059],[-95.0386,36.5381],[-95.0225,36.5783],[-95.0275,36.6265],[-95.035,36.6623],[-95.045,36.6857],[-95.0683,36.7138],[-95.1049,36.7464],[-95.1345,36.7908],[-95.1571,36.8468],[-95.1595,36.8948]]]}},{"type":"Feature","properties":{"c":"#ffffb2","v0":5.0,"v1":10.0},"geometry":{"type":"Polygon","coordinates":[[[-94.3916,36.1393],[-94.3734,36.1797],[-94.3157,36.2263],[-94.2186,36.2791],[-94.15,36.3096],[-94.11,36.3178],[-94.065,36.3188],[-94.015,36.3127],[-93.9787,36.2983],[-93.9562,36.2757],[-93.9262,36.2023],[-93.8887,36.0779],[-93.81,36.0142],[-93.69,36.0114],[-93.595,35.9891],[-93.525,35.9476],[-93.47,35.9281],[-93.43,35.9307],[-93.3971,35.9262],[-93.3713,35.9146],[-93.3537,35.8967],[-93.3444,35.8723],[-93.3501,35.8399],[-93.3707,35.7994],[-93.3755,35.7629],[-93.3644,35.7304],[-93.3626,35.6979],[-93.3701,35.6654],[-93.3829,35.6418],[-93.401,35.6269],[-93.4398,35.6107],[-93.4994,35.593],[-93.5544,35.5611],[-93.6048,35.515],[-93.655,35.4913],[-93.705,35.4899],[-93.75,35.5089],[-93.79,35.5484],[-93.84,35.58],[-93.9,35.604],[-93.945,35.6341],[-93.975,35.6705],[-94.01,35.6919],[-94.05,35.6982],[-94.0809,35.7087],[-94.1027,35.7232],[-94.1225,35.7669],[-94.1405,35.8399],[-94.1908,35.9007],[-94.2735,35.9493],[-94.3314,35.9938],[-94.3645,36.0343],[-94.3859,36.0706],[-94.3958,36.103],[-94.3916,36.1393]],[[-94.3775,36.1383],[-94.3592,36.1767],[-94.305,36.2202],[-94.215,36.2688],[-94.15,36.2975],[-94.11,36.3061],[-94.065,36.307],[-94.015,36.2999],[-93.9822,36.2884],[-93.9666,36.2724],[-93.9437,36.2241],[-93.9136,36.1434],[-93.8964,36.0778],[-93.8921,36.0274],[-93.85,36.0051],[-93.77,36.0109],[-93.705,36.0101],[-93.655,36.0027],[-93.6,35.9792],[-93.54,35.9394],[-93.485,35.9198],[-93.435,35.9203],[-93.4,35.9157],[-93.38,35.9062],[-93.3664,35.8871],[-93.3592,35.8584],[-93.3667,35.8318],[-93.3891,35.8075],[-93.3935,35.775],[-93.3798,35.7345],[-93.3773,35.6979],[-93.386,35.6654],[-93.4253,35.636],[-93.4951,35.6095],[-93.56,35.5711],[-93.62,35.5208],[-93.67,35.4972],[-93.71,35.5003],[-93.75,35.5218],[-93.79,35.5616],[-93.84,35.5939],[-93.9,35.6189],[-93.9427,35.648],[-93.9681,35.6813],[-94.0097,35.706],[-94.0674,35.7223],[-94.1026,35.7385],[-94.115,35.7548],[-94.1247,35.7913],[-94.1316,35.848],[-94.1758,35.9007],[-94.2573,35.9493],[-94.315,35.9938],[-94.3488,36.0343],[-94.3709,36.0706],[-94.3814,36.103],[-94.3775,36.1383]]]}},{"type":"Feature","properties":{"c":"#ffffb2","v0":5.0,"v1":10.0},"geometry":{"type":"Polygon","coordinates":[[[-96.8009,35.5028],[-96.7898,35.5353],[-96.7605,35.5679],[-96.713,35.6004],[-96.6716,35.637],[-96.6363,35.6776],[-96.6215,35.7268],[-96.6272,35.7846],[-96.6433,35.8333],[-96.6698,35.8728],[-96.6811,35.9048],[-96.6773,35.9291],[-96.664,35.9506],[-96.6413,35.9693],[-96.595,35.9882],[-96.525,36.0075],[-96.47,36.0148],[-96.43,36.01],[-96.3979,35.9951],[-96.3738,35.97],[-96.3424,35.9129],[-96.3039,35.8237],[-96.2888,35.7507],[-96.2973,35.6939],[-96.315,35.6451],[-96.3418,35.6045],[-96.3689,35.5731],[-96.3963,35.551],[-96.435,35.5323],[-96.485,35.5171],[-96.5214,35.4915],[-96.5442,35.4556],[-96.5742,35.4266],[-96.6114,35.4047],[-96.66,35.3961],[-96.72,35.4009],[-96.7641,35.4241],[-96.7923,35.4657],[-96.8009,35.5028]],[[-96.7883,35.5028],[-96.7753,35.5353],[-96.7453,35.5679],[-96.6982,35.6004],[-96.6574,35.637],[-96.6227,35.6776],[-96.6102,35.7304],[-96.6197,35.7953],[-96.6356,35.844],[-96.658,35.8764],[-96.6675,35.9048],[-96.664,35.9291],[-96.6542,35.9478],[-96.6381,35.9611],[-96.6,35.9763],[-96.54,35.9933],[-96.485,36.0005],[-96.435,35.998],[-96.3816,35.9424],[-96.3248,35.8336],[-96.301,35.7507],[-96.3099,35.6939],[-96.3282,35.6451],[-96.3559,35.6045],[-96.3798,35.576],[-96.3999,35.5599],[-96.4363,35.5436],[-96.489,35.5272],[-96.5293,35.4987],[-96.5573,35.458],[-96.5859,35.4295],[-96.6153,35.4132],[-96.66,35.4074],[-96.72,35.412],[-96.7612,35.4323],[-96.7836,35.4684],[-96.7883,35.5028]]]}},{"type":"Feature","properties":{"c":"#ffffb2","v0":5.0,"v1":10.0},"geometry":{"type":"Polygon","coordinates":[[[-95.8847,35.519],[-95.8786,35.5516],[-95.8356,35.6126],[-95.7559,35.702],[-95.6896,35.757],[-95.6365,35.7778],[-95.5888,35.7818],[-95.5464,35.7692],[-95.5174,35.7466],[-95.5019,35.7142],[-95.503,35.6715],[-95.521,35.6187],[-95.5289,35.5699],[-95.5266,35.5251],[-95.5303,35.4865],[-95.5397,35.4539],[-95.5558,35.4266],[-95.5786,35.4047],[-95.615,35.3861],[-95.665,35.3707],[-95.725,35.3685],[-95.795,35.3793],[-95.8433,35.3979],[-95.8699,35.4244],[-95.8844,35.4539],[-95.8867,35.4865],[-95.8847,35.519]],[[-95.8738,35.519],[-95.8664,35.5516],[-95.8245,35.6106],[-95.7482,35.6961],[-95.685,35.7484],[-95.635,35.7677],[-95.5881,35.7696],[-95.5442,35.7543],[-95.5182,35.7345],[-95.5101,35.7101],[-95.5148,35.6695],[-95.5321,35.6126],[-95.5405,35.5597],[-95.54,35.5109],[-95.5523,35.4665],[-95.5774,35.4265],[-95.615,35.3984],[-95.665,35.3821],[-95.725,35.3793],[-95.795,35.39],[-95.8398,35.4059],[-95.8595,35.427],[-95.8714,35.4539],[-95.8754,35.4865],[-95.8738,35.519]]]}},{"type":"Feature","properties":{"c":"#ffffb2","v0":5.0,"v1":10.0},"geometry":{"type":"Polygon","coordinates":[[[-99.364,31.4289],[-99.3347,31.4886],[-99.3241,31.544],[-99.3322,31.5952],[-99.3247,31.6327],[-99.3016,31.6567],[-99.23,31.689],[-99.11,31.7296],[-99.03,31.7491],[-98.99,31.7475],[-98.95,31.7372],[-98.91,31.7182],[-98.8872,31.6952],[-98.8815,31.6683],[-98.8865,31.642],[-98.9022,31.6165],[-98.925,31.5972],[-98.955,31.584],[-99.0,31.5769],[-99.06,31.5758],[-99.115,31.5487],[-99.165,31.4957],[-99.205,31.4399],[-99.235,31.3813],[-99.27,31.3497],[-99.31,31.3451],[-99.3422,31.3569],[-99.3665,31.385],[-99.364,31.4289]],[[-99.3437,31.4246],[-99.3148,31.4758],[-99.3054,31.527],[-99.3156,31.5781],[-99.3131,31.6149],[-99.2977,31.6373],[-99.23,31.6696],[-99.11,31.712],[-99.03,31.7322],[-98.99,31.7305],[-98.955,31.7228],[-98.925,31.7093],[-98.9072,31.6906],[-98.9015,31.6667],[-98.9034,31.6462],[-98.9128,31.6292],[-98.9306,31.6142],[-98.9569,31.6011],[-98.995,31.5968],[-99.045,31.6014],[-99.0786,31.5994],[-99.0957,31.5909],[-99.129,31.5611],[-99.1784,31.5099],[-99.2182,31.4545],[-99.2484,31.3948],[-99.2801,31.3641],[-99.3134,31.3625],[-99.337,31.371],[-99.3511,31.3897],[-99.3437,31.4246]]]}},{"type":"Feature","properties":{"c":"#fed976","v0":10.0,"v1":20.0},"geometry":{"type":"Polygon","coordinates":[[[-103.064,45.5612],[-103.0605,45.5822],[-103.0372,45.6067],[-102.9942,45.6347],[-102.9663,45.6626],[-102.9534,45.6906],[-102.9227,45.7133],[-102.8742,45.7309],[-102.83,45.7621],[-102.79,45.807],[-102.725,45.841],[-102.635,45.8642],[-102.5716,45.8643],[-102.5349,45.8415],[-102.5109,45.8127],[-102.4997,45.7778],[-102.4975,45.7464],[-102.5041,45.7185],[-102.5266,45.6801],[-102.5649,45.6312],[-102.5406,45.6018],[-102.4535,45.5921],[-102.4025,45.5781],[-102.3874,45.5598],[-102.379,45.5297],[-102.3772,45.4876],[-102.3847,45.4562],[-102.4016,45.4356],[-102.44,45.4129],[-102.5,45.3882],[-102.565,45.375],[-102.635,45.3734],[-102.705,45.3867],[-102.775,45.415],[-102.82,45.4535],[-102.84,45.5021],[-102.86,45.5289],[-102.88,45.5337],[-102.905,45.5248],[-102.935,45.5022],[-102.965,45.4896],[-102.995,45.4871],[-103.0213,45.4916],[-103.044,45.503],[-103.058,45.5192],[-103.0632,45.5402],[-103.064,45.5612]],[[-103.0453,45.5612],[-103.0405,45.5822],[-103.0194,45.6032],[-102.9818,45.6242],[-102.9548,45.6505],[-102.9383,45.6821],[-102.906,45.7066],[-102.8581,45.7238],[-102.8166,45.7534],[-102.7816,45.7953],[-102.7206,45.8276],[-102.6335,45.8505],[-102.5722,45.847],[-102.5367,45.8172],[-102.519,45.7813],[-102.519,45.7394],[-102.5417,45.6922],[-102.5872,45.6396],[-102.6345,45.6046],[-102.6834,45.5873],[-102.6984,45.5748],[-102.6795,45.5669],[-102.635,45.5697],[-102.565,45.583],[-102.505,45.5876],[-102.455,45.5837],[-102.4212,45.5704],[-102.4035,45.5479],[-102.3948,45.5192],[-102.395,45.4841],[-102.4039,45.4575],[-102.4213,45.4393],[-102.455,45.4201],[-102.505,45.3998],[-102.565,45.3887],[-102.635,45.3866],[-102.7018,45.3988],[-102.7655,45.4253],[-102.8072,45.4631],[-102.8268,45.5121],[-102.855,45.5396],[-102.8917,45.5455],[-102.92,45.5382],[-102.94,45.5179],[-102.96,45.5053],[-102.98,45.5004],[-103.0002,45.5006],[-103.0207,45.506],[-103.0351,45.5192],[-103.0435,45.5402],[-103.0453,45.5612]]]}},{"type":"Feature","properties":{"c":"#fed976","v0":10.0,"v1":20.0},"geometry":{"type":"Polygon","coordinates":[[[-103.5604,45.569],[-103.5001,45.6335],[-103.455,45.6684],[-103.425,45.6737],[-103.395,45.67],[-103.365,45.6573],[-103.345,45.6189],[-103.335,45.5547],[-103.335,45.5132],[-103.345,45.4943],[-103.385,45.4771],[-103.455,45.4616],[-103.5109,45.464],[-103.5528,45.4844],[-103.5779,45.5051],[-103.5864,45.5262],[-103.5604,45.569]]]}},{"type":"Feature","properties":{"c":"#fed976","v0":10.0,"v1":20.0},"geometry":{"type":"Polygon","coordinates":[[[-64.7977,45.0477],[-64.78,45.083],[-64.7259,45.1141],[-64.6353,45.1409],[-64.565,45.1474],[-64.515,45.1335],[-64.4581,45.1271],[-64.3944,45.1283],[-64.3131,45.1042],[-64.2141,45.0548],[-64.1602,45.023],[-64.1514,45.0088],[-64.1577,44.9883],[-64.1792,44.9613],[-64.215,44.9554],[-64.265,44.9703],[-64.315,44.972],[-64.365,44.9603],[-64.43,44.9531],[-64.51,44.9504],[-64.58,44.9409],[-64.64,44.9245],[-64.695,44.929],[-64.745,44.9543],[-64.7791,44.9827],[-64.7974,45.0143],[-64.7977,45.0477]]]}},{"type":"Feature","properties":{"c":"#fed976","v0":10.0,"v1":20.0},"geometry":{"type":"Polygon","coordinates":[[[-94.1686,44.1613],[-94.1631,44.1899],[-94.1428,44.2275],[-94.1076,44.2738],[-94.07,44.2993],[-94.03,44.3039],[-93.97,44.3255],[-93.89,44.3641],[-93.83,44.3846],[-93.79,44.387],[-93.755,44.4016],[-93.725,44.4284],[-93.7,44.4421],[-93.68,44.4429],[-93.6581,44.4372],[-93.6342,44.425],[-93.6152,44.4083],[-93.601,44.3868],[-93.5947,44.3618],[-93.5963,44.3332],[-93.6053,44.313],[-93.6218,44.3013],[-93.6521,44.2941],[-93.6962,44.2915],[-93.739,44.2544],[-93.7805,44.1828],[-93.8262,44.1361],[-93.876,44.1146],[-93.9132,44.0934],[-93.9377,44.0724],[-93.97,44.0552],[-94.01,44.0416],[-94.05,44.0366],[-94.09,44.0403],[-94.1225,44.0539],[-94.1476,44.0776],[-94.163,44.1038],[-94.1685,44.1325],[-94.1686,44.1613]],[[-94.1402,44.1805],[-94.1067,44.2476],[-94.07,44.2837],[-94.03,44.2889],[-93.97,44.3113],[-93.89,44.3511],[-93.8267,44.3723],[-93.7802,44.3748],[-93.7452,44.3889],[-93.7217,44.4146],[-93.7,44.4282],[-93.68,44.4297],[-93.6595,44.424],[-93.6386,44.4111],[-93.6226,44.394],[-93.6114,44.3725],[-93.6087,44.3511],[-93.6142,44.3296],[-93.6252,44.3151],[-93.6417,44.3075],[-93.67,44.3051],[-93.71,44.3079],[-93.7528,44.2687],[-93.7985,44.1875],[-93.8435,44.1394],[-93.8878,44.1244],[-93.925,44.1042],[-93.955,44.0786],[-93.99,44.0603],[-94.03,44.0494],[-94.065,44.047],[-94.095,44.0532],[-94.1217,44.079],[-94.1452,44.1243],[-94.1402,44.1805]]]}},{"type":"Feature","properties":{"c":"#fed976","v0":10.0,"v1":20.0},"geometry":{"type":"Polygon","coordinates":[[[-64.0571,43.5229],[-64.0468,43.5447],[-64.0223,43.5664],[-63.9836,43.5881],[-63.9236,43.6026],[-63.8421,43.6099],[-63.7632,43.6243],[-63.6867,43.6461],[-63.6239,43.6695],[-63.5746,43.6947],[-63.5332,43.7019],[-63.4996,43.6912],[-63.482,43.6678],[-63.4803,43.6316],[-63.4871,43.6024],[-63.5024,43.5802],[-63.575,43.5501],[-63.705,43.5122],[-63.785,43.4809],[-63.815,43.4562],[-63.87,43.442],[-63.95,43.4384],[-64.0046,43.4445],[-64.0337,43.4605],[-64.0518,43.4794],[-64.0588,43.5011],[-64.0571,43.5229]],[[-63.9988,43.5265],[-63.9638,43.5555],[-63.9073,43.5728],[-63.8291,43.5785],[-63.725,43.6035],[-63.595,43.6478],[-63.529,43.6558],[-63.527,43.6276],[-63.532,43.6072],[-63.544,43.5947],[-63.61,43.5723],[-63.73,43.5398],[-63.805,43.5124],[-63.835,43.49],[-63.88,43.4757],[-63.94,43.4695],[-63.9816,43.4778],[-64.0047,43.5006],[-63.9988,43.5265]]]}},{"type":"Feature","properties":{"c":"#fed976","v0":10.0,"v1":20.0},"geometry":{"type":"Polygon","coordinates":[[[-63.0109,42.9924],[-62.997,43.0313],[-62.95,43.0592],[-62.87,43.0762],[-62.775,43.0775],[-62.665,43.0629],[-62.5967,43.0459],[-62.5701,43.0265],[-62.5508,42.9949],[-62.5388,42.951],[-62.5421,42.9191],[-62.5607,42.8993],[-62.605,42.8746],[-62.675,42.8449],[-62.765,42.8279],[-62.875,42.8234],[-62.9493,42.8298],[-62.988,42.8471],[-63.01,42.8851],[-63.0153,42.9436],[-63.0109,42.9924]],[[-62.9959,42.9912],[-62.9804,43.0278],[-62.937,43.0528],[-62.8657,43.0663],[-62.775,43.0656],[-62.665,43.0507],[-62.5984,43.033],[-62.5752,43.0124],[-62.5597,42.9839],[-62.552,42.9473],[-62.5586,42.9198],[-62.5795,42.9014],[-62.625,42.8782],[-62.695,42.8503],[-62.78,42.8352],[-62.88,42.8329],[-62.9451,42.8377],[-62.9754,42.8497],[-62.9938,42.8851],[-63.0004,42.9436],[-62.9959,42.9912]]]}},{"type":"Feature","properties":{"c":"#fed976","v0":10.0,"v1":20.0},"geometry":{"type":"Polygon","coordinates":[[[-74.8657,39.7578],[-74.8362,39.8423],[-74.8036,39.893],[-74.7679,39.91],[-74.7368,39.9138],[-74.7105,39.9045],[-74.688,39.8845],[-74.6694,39.8538],[-74.6226,39.8361],[-74.5475,39.8314],[-74.485,39.8063],[-74.435,39.7606],[-74.39,39.738],[-74.35,39.7386],[-74.315,39.7635],[-74.285,39.8128],[-74.245,39.8437],[-74.195,39.8564],[-74.155,39.8722],[-74.125,39.8913],[-74.07,39.894],[-73.99,39.8804],[-73.9236,39.8456],[-73.8709,39.7896],[-73.8465,39.7501],[-73.8507,39.727],[-73.862,39.7083],[-73.8807,39.6939],[-73.94,39.681],[-74.04,39.6698],[-74.125,39.6408],[-74.195,39.5939],[-74.255,39.5642],[-74.305,39.5517],[-74.365,39.5509],[-74.435,39.5617],[-74.48,39.5829],[-74.5,39.6145],[-74.54,39.628],[-74.6,39.6234],[-74.655,39.6341],[-74.705,39.6603],[-74.76,39.6733],[-74.82,39.6733],[-74.8576,39.6838],[-74.8729,39.7049],[-74.8657,39.7578]],[[-74.842,39.754],[-74.8165,39.8308],[-74.7903,39.8767],[-74.7634,39.8919],[-74.7415,39.8957],[-74.7244,39.8883],[-74.7064,39.8692],[-74.6874,39.8385],[-74.6409,39.8215],[-74.567,39.8182],[-74.51,39.7952],[-74.47,39.7524],[-74.44,39.7279],[-74.42,39.7216],[-74.3889,39.7177],[-74.3467,39.7162],[-74.3078,39.7424],[-74.2722,39.7962],[-74.2133,39.8373],[-74.1311,39.8658],[-74.06,39.8753],[-74.0,39.866],[-73.9446,39.8365],[-73.8939,39.7866],[-73.8739,39.7484],[-73.8846,39.722],[-73.94,39.7028],[-74.04,39.6908],[-74.13,39.6593],[-74.21,39.6083],[-74.27,39.5781],[-74.31,39.5687],[-74.36,39.5683],[-74.42,39.577],[-74.4634,39.5995],[-74.4902,39.6358],[-74.5352,39.6504],[-74.5984,39.6434],[-74.655,39.6533],[-74.705,39.6803],[-74.755,39.6929],[-74.805,39.6912],[-74.8362,39.6966],[-74.8486,39.7092],[-74.842,39.754]]]}},{"type":"Feature","properties":{"c":"#fed976","v0":10.0,"v1":20.0},"geometry":{"type":"Polygon","coordinates":[[[-95.5257,37.5597],[-95.5088,37.5914],[-95.4878,37.6149],[-95.4626,37.63],[-95.42,37.6371],[-95.36,37.636],[-95.31,37.6507],[-95.27,37.6813],[-95.2,37.7089],[-95.1,37.7336],[-95.02,37.7468],[-94.96,37.7486],[-94.905,37.7718],[-94.855,37.8165],[-94.81,37.841],[-94.77,37.8453],[-94.7356,37.8389],[-94.7067,37.8216],[-94.6935,37.7853],[-94.696,37.73],[-94.7256,37.6786],[-94.7823,37.6311],[-94.819,37.5875],[-94.8358,37.5479],[-94.8637,37.5201],[-94.9025,37.5042],[-94.9488,37.4765],[-95.0023,37.4368],[-95.0049,37.3732],[-94.9564,37.2857],[-94.9365,37.226],[-94.9451,37.1942],[-94.9596,37.1689],[-94.9799,37.1503],[-95.0237,37.1463],[-95.091,37.157],[-95.1575,37.2061],[-95.2232,37.2937],[-95.2594,37.3533],[-95.2662,37.3851],[-95.2566,37.4288],[-95.2308,37.4844],[-95.2359,37.5122],[-95.272,37.5124],[-95.31,37.498],[-95.35,37.469],[-95.385,37.4522],[-95.415,37.4478],[-95.4495,37.4543],[-95.4886,37.4717],[-95.5146,37.4963],[-95.5276,37.528],[-95.5257,37.5597]],[[-95.5146,37.5558],[-95.5034,37.5796],[-95.4858,37.5997],[-95.4619,37.6163],[-95.44,37.6271],[-95.42,37.6324],[-95.39,37.6305],[-95.35,37.6213],[-95.305,37.6353],[-95.255,37.6724],[-95.18,37.7025],[-95.08,37.7255],[-95.005,37.7367],[-94.955,37.7361],[-94.9,37.7602],[-94.84,37.8089],[-94.79,37.8323],[-94.75,37.8305],[-94.7226,37.8215],[-94.7079,37.8053],[-94.7015,37.7774],[-94.7034,37.7379],[-94.7353,37.6904],[-94.797,37.635],[-94.8334,37.5911],[-94.8445,37.5588],[-94.8972,37.5152],[-94.9916,37.4603],[-95.0392,37.4209],[-95.04,37.397],[-95.017,37.3494],[-94.9701,37.2778],[-94.9575,37.2203],[-94.9792,37.1769],[-95.02,37.1582],[-95.08,37.1643],[-95.1447,37.2139],[-95.2141,37.3069],[-95.2507,37.3653],[-95.2544,37.3891],[-95.2397,37.4354],[-95.2066,37.5043],[-95.215,37.536],[-95.265,37.5307],[-95.31,37.5131],[-95.35,37.483],[-95.385,37.4651],[-95.415,37.4595],[-95.4489,37.4666],[-95.4866,37.4864],[-95.5092,37.5082],[-95.5166,37.532],[-95.5146,37.5558]]]}},{"type":"Feature","properties":{"c":"#fed976","v0":10.0,"v1":20.0},"geometry":{"type":"Polygon","coordinates":[[[-95.1595,36.8948],[-95.1417,36.9348],[-95.1021,36.9616],[-95.0407,36.9752],[-94.9576,36.9473],[-94.8528,36.8777],[-94.8066,36.7988],[-94.819,36.7107],[-94.8328,36.6505],[-94.848,36.6184],[-94.8642,36.5938],[-94.8814,36.5766],[-94.915,36.56],[-94.965,36.544],[-94.9866,36.5244],[-94.9798,36.5014],[-94.9648,36.4804],[-94.9416,36.4614],[-94.915,36.4639],[-94.885,36.488],[-94.8581,36.4935],[-94.8342,36.4803],[-94.8492,36.4429],[-94.9031,36.3812],[-94.955,36.3536],[-95.005,36.36],[-95.0478,36.3788],[-95.0833,36.41],[-95.0994,36.4416],[-95.0961,36.4738],[-95.0758,36.5059],[-95.0386,36.5381],[-95.0225,36.5783],[-95.0275,36.6265],[-95.035,36.6623],[-95.045,36.6857],[-95.0683,36.7138],[-95.1049,36.7464],[-95.1345,36.7908],[-95.1571,36.8468],[-95.1595,36.8948]],[[-95.074,36.4718],[-95.0447,36.5001],[-95.0007,36.488],[-94.9422,36.4356],[-94.9153,36.4014],[-94.92,36.3853],[-94.9492,36.378],[-95.0031,36.3795],[-95.0447,36.3996],[-95.074,36.4383],[-95.074,36.4718]],[[-95.1469,36.8909],[-95.1356,36.923],[-95.1,36.9462],[-95.04,36.9605],[-94.965,36.9401],[-94.875,36.8851],[-94.8267,36.8499],[-94.8202,36.8345],[-94.8233,36.7868],[-94.8362,36.7066],[-94.8595,36.6435],[-94.8932,36.5972],[-94.9317,36.5731],[-94.9751,36.5712],[-95.0034,36.5983],[-95.0164,36.6545],[-95.0433,36.7026],[-95.0841,36.7427],[-95.1166,36.7908],[-95.1406,36.8468],[-95.1469,36.8909]]]}},{"type":"Feature","properties":{"c":"#fed976","v0":10.0,"v1":20.0},"geometry":{"type":"Polygon","coordinates":[[[-94.3775,36.1383],[-94.3592,36.1767],[-94.305,36.2202],[-94.215,36.2688],[-94.15,36.2975],[-94.11,36.3061],[-94.065,36.307],[-94.015,36.2999],[-93.9822,36.2884],[-93.9666,36.2724],[-93.9437,36.2241],[-93.9136,36.1434],[-93.8964,36.0778],[-93.8921,36.0274],[-93.85,36.0051],[-93.77,36.0109],[-93.705,36.0101],[-93.655,36.0027],[-93.6,35.9792],[-93.54,35.9394],[-93.485,35.9198],[-93.435,35.9203],[-93.4,35.9157],[-93.38,35.9062],[-93.3664,35.8871],[-93.3592,35.8584],[-93.3667,35.8318],[-93.3891,35.8075],[-93.3935,35.775],[-93.3798,35.7345],[-93.3773,35.6979],[-93.386,35.6654],[-93.4253,35.636],[-93.4951,35.6095],[-93.56,35.5711],[-93.62,35.5208],[-93.67,35.4972],[-93.71,35.5003],[-93.75,35.5218],[-93.79,35.5616],[-93.84,35.5939],[-93.9,35.6189],[-93.9427,35.648],[-93.9681,35.6813],[-94.0097,35.706],[-94.0674,35.7223],[-94.1026,35.7385],[-94.115,35.7548],[-94.1247,35.7913],[-94.1316,35.848],[-94.1758,35.9007],[-94.2573,35.9493],[-94.315,35.9938],[-94.3488,36.0343],[-94.3709,36.0706],[-94.3814,36.103],[-94.3775,36.1383]],[[-94.3619,36.1353],[-94.3471,36.1676],[-94.2973,36.2071],[-94.2124,36.2539],[-94.155,36.2818],[-94.125,36.2907],[-94.085,36.2938],[-94.035,36.2911],[-94.0021,36.2834],[-93.9863,36.2707],[-93.9632,36.2241],[-93.9326,36.1434],[-93.9155,36.0726],[-93.9118,36.0118],[-93.87,35.9858],[-93.79,35.9947],[-93.725,35.9963],[-93.675,35.9909],[-93.615,35.9658],[-93.545,35.9213],[-93.49,35.9011],[-93.45,35.9053],[-93.4187,35.9037],[-93.3962,35.8963],[-93.3823,35.8805],[-93.3771,35.8561],[-93.3892,35.8318],[-93.4186,35.8075],[-93.4231,35.7791],[-93.4026,35.7466],[-93.3939,35.7142],[-93.397,35.6817],[-93.4364,35.6499],[-93.5121,35.6188],[-93.575,35.5806],[-93.625,35.5351],[-93.67,35.5139],[-93.71,35.517],[-93.745,35.5358],[-93.775,35.5701],[-93.82,35.5991],[-93.88,35.6227],[-93.925,35.6535],[-93.955,35.6917],[-94.0,35.7196],[-94.06,35.7374],[-94.0989,35.7828],[-94.1167,35.856],[-94.1667,35.9163],[-94.2489,35.9638],[-94.3098,36.0204],[-94.3495,36.0862],[-94.3619,36.1353]]]}},{"type":"Feature","properties":{"c":"#fed976","v0":10.0,"v1":20.0},"geometry":{"type":"Polygon","coordinates":[[[-96.7883,35.5028],[-96.7753,35.5353],[-96.7453,35.5679],[-96.6982,35.6004],[-96.6574,35.637],[-96.6227,35.6776],[-96.6102,35.7304],[-96.6197,35.7953],[-96.6356,35.844],[-96.658,35.8764],[-96.6675,35.9048],[-96.664,35.9291],[-96.6542,35.9478],[-96.6381,35.9611],[-96.6,35.9763],[-96.54,35.9933],[-96.485,36.0005],[-96.435,35.998],[-96.3816,35.9424],[-96.3248,35.8336],[-96.301,35.7507],[-96.3099,35.6939],[-96.3282,35.6451],[-96.3559,35.6045],[-96.3798,35.576],[-96.3999,35.5599],[-96.4363,35.5436],[-96.489,35.5272],[-96.5293,35.4987],[-96.5573,35.458],[-96.5859,35.4295],[-96.6153,35.4132],[-96.66,35.4074],[-96.72,35.412],[-96.7612,35.4323],[-96.7836,35.4684],[-96.7883,35.5028]],[[-96.7773,35.4987],[-96.77,35.5231],[-96.7423,35.5526],[-96.6941,35.5871],[-96.6498,35.6277],[-96.6095,35.6745],[-96.5941,35.7304],[-96.6037,35.7953],[-96.6202,35.844],[-96.6436,35.8764],[-96.6526,35.9048],[-96.6471,35.9291],[-96.6058,35.9547],[-96.5286,35.9817],[-96.475,35.9945],[-96.445,35.9931],[-96.4202,35.9836],[-96.4006,35.9661],[-96.3723,35.9169],[-96.3351,35.8359],[-96.3221,35.7588],[-96.3333,35.6857],[-96.3517,35.6318],[-96.3772,35.597],[-96.425,35.5657],[-96.495,35.538],[-96.5408,35.5066],[-96.5625,35.4715],[-96.5875,35.4444],[-96.6158,35.4255],[-96.655,35.4166],[-96.705,35.4179],[-96.7428,35.4355],[-96.7683,35.4695],[-96.7773,35.4987]]]}},{"type":"Feature","properties":{"c":"#fed976","v0":10.0,"v1":20.0},"geometry":{"type":"Polygon","coordinates":[[[-95.8738,35.519],[-95.8664,35.5516],[-95.8245,35.6106],[-95.7482,35.6961],[-95.685,35.7484],[-95.635,35.7677],[-95.5881,35.7696],[-95.5442,35.7543],[-95.5182,35.7345],[-95.5101,35.7101],[-95.5148,35.6695],[-95.5321,35.6126],[-95.5405,35.5597],[-95.54,35.5109],[-95.5523,35.4665],[-95.5774,35.4265],[-95.615,35.3984],[-95.665,35.3821],[-95.725,35.3793],[-95.795,35.39],[-95.8398,35.4059],[-95.8595,35.427],[-95.8714,35.4539],[-95.8754,35.4865],[-95.8738,35.519]],[[-95.8588,35.519],[-95.85,35.5516],[-95.8091,35.6085],[-95.7361,35.6898],[-95.6772,35.7392],[-95.6324,35.7567],[-95.5932,35.7608],[-95.5595,35.7514],[-95.537,35.7345],[-95.5256,35.7101],[-95.5283,35.6736],[-95.545,35.6248],[-95.5546,35.5679],[-95.5571,35.5028],[-95.5665,35.458],[-95.5829,35.4335],[-95.6158,35.4124],[-95.6653,35.3945],[-95.72,35.3894],[-95.78,35.397],[-95.8213,35.41],[-95.8438,35.4284],[-95.8571,35.4539],[-95.8612,35.4865],[-95.8588,35.519]]]}},{"type":"Feature","properties":{"c":"#fed976","v0":10.0,"v1":20.0},"geometry":{"type":"Polygon","coordinates":[[[-99.3437,31.4246],[-99.3148,31.4758],[-99.3054,31.527],[-99.3156,31.5781],[-99.3131,31.6149],[-99.2977,31.6373],[-99.23,31.6696],[-99.11,31.712],[-99.03,31.7322],[-98.99,31.7305],[-98.955,31.7228],[-98.925,31.7093],[-98.9072,31.6906],[-98.9015,31.6667],[-98.9034,31.6462],[-98.9128,31.6292],[-98.9306,31.6142],[-98.9569,31.6011],[-98.995,31.5968],[-99.045,31.6014],[-99.0786,31.5994],[-99.0957,31.5909],[-99.129,31.5611],[-99.1784,31.5099],[-99.2182,31.4545],[-99.2484,31.3948],[-99.2801,31.3641],[-99.3134,31.3625],[-99.337,31.371],[-99.3511,31.3897],[-99.3437,31.4246]],[[-99.2718,31.5971],[-99.2573,31.618],[-99.2,31.6458],[-99.1,31.6804],[-99.03,31.6966],[-98.99,31.6944],[-98.9629,31.6879],[-98.9487,31.6771],[-98.9487,31.6617],[-98.9629,31.6415],[-99.005,31.6307],[-99.075,31.6295],[-99.14,31.6019],[-99.2,31.548],[-99.2423,31.5374],[-99.2668,31.5702],[-99.2718,31.5971]],[[-99.3018,31.4276],[-99.2806,31.4505],[-99.27,31.449],[-99.27,31.4233],[-99.275,31.4066],[-99.285,31.3992],[-99.2956,31.4006],[-99.3068,31.4109],[-99.3018,31.4276]]]}},{"type":"Feature","properties":{"c":"#feb24c","v0":20.0,"v1":30.0},"geometry":{"type":"Polygon","coordinates":[[[-103.0453,45.5612],[-103.0405,45.5822],[-103.0194,45.6032],[-102.9818,45.6242],[-102.9548,45.6505],[-102.9383,45.6821],[-102.906,45.7066],[-102.8581,45.7238],[-102.8166,45.7534],[-102.7816,45.7953],[-102.7206,45.8276],[-102.6335,45.8505],[-102.5722,45.847],[-102.5367,45.8172],[-102.519,45.7813],[-102.519,45.7394],[-102.5417,45.6922],[-102.5872,45.6396],[-102.6345,45.6046],[-102.6834,45.5873],[-102.6984,45.5748],[-102.6795,45.5669],[-102.635,45.5697],[-102.565,45.583],[-102.505,45.5876],[-102.455,45.5837],[-102.4212,45.5704],[-102.4035,45.5479],[-102.3948,45.5192],[-102.395,45.4841],[-102.4039,45.4575],[-102.4213,45.4393],[-102.455,45.4201],[-102.505,45.3998],[-102.565,45.3887],[-102.635,45.3866],[-102.7018,45.3988],[-102.7655,45.4253],[-102.8072,45.4631],[-102.8268,45.5121],[-102.855,45.5396],[-102.8917,45.5455],[-102.92,45.5382],[-102.94,45.5179],[-102.96,45.5053],[-102.98,45.5004],[-103.0002,45.5006],[-103.0207,45.506],[-103.0351,45.5192],[-103.0435,45.5402],[-103.0453,45.5612]],[[-103.0293,45.5612],[-103.0224,45.5822],[-103.0017,45.6015],[-102.9672,45.6193],[-102.9417,45.6438],[-102.9251,45.675],[-102.8951,45.698],[-102.8517,45.7129],[-102.81,45.7428],[-102.77,45.7878],[-102.71,45.8201],[-102.63,45.8398],[-102.5764,45.8377],[-102.5492,45.8141],[-102.5355,45.7813],[-102.5355,45.7394],[-102.5541,45.6965],[-102.5914,45.6525],[-102.6385,45.621],[-102.6956,45.6021],[-102.7256,45.5874],[-102.7285,45.5769],[-102.715,45.5663],[-102.685,45.5556],[-102.635,45.5574],[-102.565,45.5717],[-102.51,45.5782],[-102.47,45.5769],[-102.44,45.5663],[-102.42,45.5466],[-102.41,45.5201],[-102.41,45.4869],[-102.4176,45.4624],[-102.4327,45.4465],[-102.4627,45.4293],[-102.5076,45.411],[-102.565,45.4005],[-102.635,45.3977],[-102.7,45.4101],[-102.76,45.4376],[-102.7922,45.4692],[-102.7966,45.5049],[-102.8066,45.5287],[-102.8222,45.5408],[-102.85,45.5507],[-102.89,45.5583],[-102.93,45.5489],[-102.97,45.5226],[-102.9985,45.5128],[-103.0154,45.5194],[-103.0261,45.5297],[-103.0305,45.5437],[-103.0293,45.5612]]]}},{"type":"Feature","properties":{"c":"#feb24c","v0":20.0,"v1":30.0},"geometry":{"type":"Polygon","coordinates":[[[-94.1402,44.1805],[-94.1067,44.2476],[-94.07,44.2837],[-94.03,44.2889],[-93.97,44.3113],[-93.89,44.3511],[-93.8267,44.3723],[-93.7802,44.3748],[-93.7452,44.3889],[-93.7217,44.4146],[-93.7,44.4282],[-93.68,44.4297],[-93.6595,44.424],[-93.6386,44.4111],[-93.6226,44.394],[-93.6114,44.3725],[-93.6087,44.3511],[-93.6142,44.3296],[-93.6252,44.3151],[-93.6417,44.3075],[-93.67,44.3051],[-93.71,44.3079],[-93.7528,44.2687],[-93.7985,44.1875],[-93.8435,44.1394],[-93.8878,44.1244],[-93.925,44.1042],[-93.955,44.0786],[-93.99,44.0603],[-94.03,44.0494],[-94.065,44.047],[-94.095,44.0532],[-94.1217,44.079],[-94.1452,44.1243],[-94.1402,44.1805]],[[-94.1409,44.1613],[-94.1335,44.1899],[-94.1148,44.2231],[-94.0849,44.2608],[-94.05,44.2816],[-94.01,44.2855],[-93.955,44.306],[-93.885,44.3429],[-93.825,44.3611],[-93.775,44.3605],[-93.735,44.3756],[-93.705,44.4066],[-93.6782,44.4177],[-93.6547,44.409],[-93.6368,44.394],[-93.6245,44.3725],[-93.6212,44.3521],[-93.6271,44.3326],[-93.6589,44.3219],[-93.7166,44.3199],[-93.7498,44.301],[-93.7582,44.2652],[-93.7772,44.2258],[-93.8068,44.1828],[-93.8437,44.153],[-93.8879,44.1366],[-93.925,44.1153],[-93.955,44.0893],[-93.985,44.0711],[-94.015,44.0607],[-94.045,44.056],[-94.075,44.0571],[-94.0998,44.0656],[-94.1194,44.0815],[-94.133,44.1038],[-94.1407,44.1325],[-94.1409,44.1613]]]}},{"type":"Feature","properties":{"c":"#feb24c","v0":20.0,"v1":30.0},"geometry":{"type":"Polygon","coordinates":[[[-63.9988,43.5265],[-63.9638,43.5555],[-63.9073,43.5728],[-63.8291,43.5785],[-63.725,43.6035],[-63.595,43.6478],[-63.529,43.6558],[-63.527,43.6276],[-63.532,43.6072],[-63.544,43.5947],[-63.61,43.5723],[-63.73,43.5398],[-63.805,43.5124],[-63.835,43.49],[-63.88,43.4757],[-63.94,43.4695],[-63.9816,43.4778],[-64.0047,43.5006],[-63.9988,43.5265]]]}},{"type":"Feature","properties":{"c":"#feb24c","v0":20.0,"v1":30.0},"geometry":{"type":"Polygon","coordinates":[[[-62.9959,42.9912],[-62.9804,43.0278],[-62.937,43.0528],[-62.8657,43.0663],[-62.775,43.0656],[-62.665,43.0507],[-62.5984,43.033],[-62.5752,43.0124],[-62.5597,42.9839],[-62.552,42.9473],[-62.5586,42.9198],[-62.5795,42.9014],[-62.625,42.8782],[-62.695,42.8503],[-62.78,42.8352],[-62.88,42.8329],[-62.9451,42.8377],[-62.9754,42.8497],[-62.9938,42.8851],[-63.0004,42.9436],[-62.9959,42.9912]],[[-62.9875,42.9891],[-62.9758,43.0215],[-62.935,43.0445],[-62.865,43.0584],[-62.775,43.0575],[-62.665,43.042],[-62.6013,43.0262],[-62.5838,43.0102],[-62.5711,42.9839],[-62.5632,42.9473],[-62.6019,42.9079],[-62.6873,42.8657],[-62.78,42.8434],[-62.88,42.8409],[-62.9438,42.8473],[-62.9715,42.8627],[-62.9874,42.896],[-62.9913,42.9473],[-62.9875,42.9891]]]}},{"type":"Feature","properties":{"c":"#feb24c","v0":20.0,"v1":30.0},"geometry":{"type":"Polygon","coordinates":[[[-74.842,39.754],[-74.8165,39.8308],[-74.7903,39.8767],[-74.7634,39.8919],[-74.7415,39.8957],[-74.7244,39.8883],[-74.7064,39.8692],[-74.6874,39.8385],[-74.6409,39.8215],[-74.567,39.8182],[-74.51,39.7952],[-74.47,39.7524],[-74.44,39.7279],[-74.42,39.7216],[-74.3889,39.7177],[-74.3467,39.7162],[-74.3078,39.7424],[-74.2722,39.7962],[-74.2133,39.8373],[-74.1311,39.8658],[-74.06,39.8753],[-74.0,39.866],[-73.9446,39.8365],[-73.8939,39.7866],[-73.8739,39.7484],[-73.8846,39.722],[-73.94,39.7028],[-74.04,39.6908],[-74.13,39.6593],[-74.21,39.6083],[-74.27,39.5781],[-74.31,39.5687],[-74.36,39.5683],[-74.42,39.577],[-74.4634,39.5995],[-74.4902,39.6358],[-74.5352,39.6504],[-74.5984,39.6434],[-74.655,39.6533],[-74.705,39.6803],[-74.755,39.6929],[-74.805,39.6912],[-74.8362,39.6966],[-74.8486,39.7092],[-74.842,39.754]],[[-74.8113,39.7732],[-74.7886,39.827],[-74.7704,39.8581],[-74.7568,39.8666],[-74.735,39.8531],[-74.705,39.8174],[-74.6518,39.7978],[-74.5753,39.7942],[-74.5218,39.7732],[-74.4911,39.7347],[-74.4643,39.7109],[-74.4414,39.7018],[-74.4,39.6961],[-74.34,39.6939],[-74.3024,39.6985],[-74.2871,39.7098],[-74.2721,39.735],[-74.2574,39.774],[-74.21,39.8086],[-74.13,39.8389],[-74.0631,39.8501],[-74.0092,39.8424],[-73.9638,39.8231],[-73.927,39.7924],[-73.9064,39.7693],[-73.902,39.754],[-73.9122,39.7386],[-73.937,39.7232],[-73.9896,39.7125],[-74.0699,39.7065],[-74.146,39.6796],[-74.218,39.6317],[-74.273,39.6028],[-74.311,39.593],[-74.355,39.5918],[-74.405,39.5994],[-74.445,39.6225],[-74.475,39.6613],[-74.525,39.6767],[-74.595,39.6688],[-74.65,39.6771],[-74.69,39.7014],[-74.735,39.7142],[-74.785,39.7155],[-74.8132,39.7236],[-74.8195,39.7387],[-74.8113,39.7732]]]}},{"type":"Feature","properties":{"c":"#feb24c","v0":20.0,"v1":30.0},"geometry":{"type":"Polygon","coordinates":[[[-95.5146,37.5558],[-95.5034,37.5796],[-95.4858,37.5997],[-95.4619,37.6163],[-95.44,37.6271],[-95.42,37.6324],[-95.39,37.6305],[-95.35,37.6213],[-95.305,37.6353],[-95.255,37.6724],[-95.18,37.7025],[-95.08,37.7255],[-95.005,37.7367],[-94.955,37.7361],[-94.9,37.7602],[-94.84,37.8089],[-94.79,37.8323],[-94.75,37.8305],[-94.7226,37.8215],[-94.7079,37.8053],[-94.7015,37.7774],[-94.7034,37.7379],[-94.7353,37.6904],[-94.797,37.635],[-94.8334,37.5911],[-94.8445,37.5588],[-94.8972,37.5152],[-94.9916,37.4603],[-95.0392,37.4209],[-95.04,37.397],[-95.017,37.3494],[-94.9701,37.2778],[-94.9575,37.2203],[-94.9792,37.1769],[-95.02,37.1582],[-95.08,37.1643],[-95.1447,37.2139],[-95.2141,37.3069],[-95.2507,37.3653],[-95.2544,37.3891],[-95.2397,37.4354],[-95.2066,37.5043],[-95.215,37.536],[-95.265,37.5307],[-95.31,37.5131],[-95.35,37.483],[-95.385,37.4651],[-95.415,37.4595],[-95.4489,37.4666],[-95.4866,37.4864],[-95.5092,37.5082],[-95.5166,37.532],[-95.5146,37.5558]],[[-95.5027,37.5558],[-95.4904,37.5796],[-95.4707,37.5992],[-95.4436,37.6148],[-95.405,37.6175],[-95.355,37.6072],[-95.305,37.6221],[-95.255,37.6619],[-95.185,37.6928],[-95.095,37.7146],[-95.02,37.7258],[-94.96,37.7263],[-94.9,37.751],[-94.84,37.7997],[-94.795,37.8248],[-94.765,37.8261],[-94.7406,37.8194],[-94.7218,37.8046],[-94.7132,37.7774],[-94.715,37.7379],[-94.7444,37.6935],[-94.8015,37.6441],[-94.8381,37.6005],[-94.8542,37.5628],[-94.9092,37.517],[-95.0031,37.4633],[-95.0507,37.4236],[-95.052,37.398],[-95.0288,37.3494],[-94.9812,37.2778],[-94.9624,37.226],[-94.9724,37.1942],[-94.9856,37.1733],[-95.0019,37.1635],[-95.035,37.1637],[-95.085,37.1739],[-95.1437,37.2266],[-95.211,37.3217],[-95.2401,37.3891],[-95.231,37.4288],[-95.2073,37.4768],[-95.1691,37.5329],[-95.185,37.5556],[-95.255,37.5449],[-95.32,37.5211],[-95.38,37.4842],[-95.4259,37.4694],[-95.4576,37.4768],[-95.4823,37.4963],[-95.5,37.528],[-95.5027,37.5558]]]}},{"type":"Feature","properties":{"c":"#feb24c","v0":20.0,"v1":30.0},"geometry":{"type":"Polygon","coordinates":[[[-95.1469,36.8909],[-95.1356,36.923],[-95.1,36.9462],[-95.04,36.9605],[-94.965,36.9401],[-94.875,36.8851],[-94.8267,36.8499],[-94.8202,36.8345],[-94.8233,36.7868],[-94.8362,36.7066],[-94.8595,36.6435],[-94.8932,36.5972],[-94.9317,36.5731],[-94.9751,36.5712],[-95.0034,36.5983],[-95.0164,36.6545],[-95.0433,36.7026],[-95.0841,36.7427],[-95.1166,36.7908],[-95.1406,36.8468],[-95.1469,36.8909]],[[-95.1321,36.8906],[-95.1174,36.9221],[-95.085,36.9425],[-95.035,36.9517],[-94.9663,36.9279],[-94.879,36.8712],[-94.8408,36.7988],[-94.8517,36.7107],[-94.8703,36.6466],[-94.8968,36.6066],[-94.9303,36.5865],[-94.971,36.5864],[-94.9957,36.6104],[-95.0043,36.6585],[-95.0288,36.7026],[-95.0692,36.7427],[-95.102,36.7908],[-95.127,36.8468],[-95.1321,36.8906]]]}},{"type":"Feature","properties":{"c":"#feb24c","v0":20.0,"v1":30.0},"geometry":{"type":"Polygon","coordinates":[[[-95.074,36.4718],[-95.0447,36.5001],[-95.0007,36.488],[-94.9422,36.4356],[-94.9153,36.4014],[-94.92,36.3853],[-94.9492,36.378],[-95.0031,36.3795],[-95.0447,36.3996],[-95.074,36.4383],[-95.074,36.4718]],[[-95.0636,36.4664],[-95.0412,36.4838],[-95.008,36.4677],[-94.9639,36.4181],[-94.9639,36.3937],[-95.008,36.3945],[-95.0412,36.4106],[-95.0636,36.442],[-95.0636,36.4664]]]}},{"type":"Feature","properties":{"c":"#feb24c","v0":20.0,"v1":30.0},"geometry":{"type":"Polygon","coordinates":[[[-94.3619,36.1353],[-94.3471,36.1676],[-94.2973,36.2071],[-94.2124,36.2539],[-94.155,36.2818],[-94.125,36.2907],[-94.085,36.2938],[-94.035,36.2911],[-94.0021,36.2834],[-93.9863,36.2707],[-93.9632,36.2241],[-93.9326,36.1434],[-93.9155,36.0726],[-93.9118,36.0118],[-93.87,35.9858],[-93.79,35.9947],[-93.725,35.9963],[-93.675,35.9909],[-93.615,35.9658],[-93.545,35.9213],[-93.49,35.9011],[-93.45,35.9053],[-93.4187,35.9037],[-93.3962,35.8963],[-93.3823,35.8805],[-93.3771,35.8561],[-93.3892,35.8318],[-93.4186,35.8075],[-93.4231,35.7791],[-93.4026,35.7466],[-93.3939,35.7142],[-93.397,35.6817],[-93.4364,35.6499],[-93.5121,35.6188],[-93.575,35.5806],[-93.625,35.5351],[-93.67,35.5139],[-93.71,35.517],[-93.745,35.5358],[-93.775,35.5701],[-93.82,35.5991],[-93.88,35.6227],[-93.925,35.6535],[-93.955,35.6917],[-94.0,35.7196],[-94.06,35.7374],[-94.0989,35.7828],[-94.1167,35.856],[-94.1667,35.9163],[-94.2489,35.9638],[-94.3098,36.0204],[-94.3495,36.0862],[-94.3619,36.1353]],[[-94.3492,36.133],[-94.3364,36.1608],[-94.2899,36.1971],[-94.2098,36.242],[-94.1498,36.2697],[-94.1099,36.2804],[-94.07,36.2832],[-94.03,36.2783],[-93.9891,36.2286],[-93.9472,36.1341],[-93.9272,36.0581],[-93.9291,36.0006],[-93.86,35.973],[-93.72,35.9755],[-93.615,35.9529],[-93.545,35.9053],[-93.49,35.885],[-93.45,35.892],[-93.4202,35.8907],[-93.4006,35.8812],[-93.3907,35.8683],[-93.3906,35.8521],[-93.4068,35.8318],[-93.4393,35.8075],[-93.4434,35.7791],[-93.4189,35.7466],[-93.4089,35.7142],[-93.4135,35.6817],[-93.4499,35.6532],[-93.5182,35.6289],[-93.5768,35.5943],[-93.6256,35.5496],[-93.665,35.526],[-93.695,35.5236],[-93.7292,35.5419],[-93.7676,35.5809],[-93.8169,35.6126],[-93.8773,35.637],[-93.9231,35.6682],[-93.9544,35.7063],[-93.9953,35.7306],[-94.046,35.7413],[-94.0805,35.7832],[-94.099,35.8561],[-94.1497,35.9169],[-94.2328,35.9655],[-94.2946,36.0221],[-94.3353,36.0868],[-94.3492,36.133]]]}},{"type":"Feature","properties":{"c":"#feb24c","v0":20.0,"v1":30.0},"geometry":{"type":"Polygon","coordinates":[[[-96.7773,35.4987],[-96.77,35.5231],[-96.7423,35.5526],[-96.6941,35.5871],[-96.6498,35.6277],[-96.6095,35.6745],[-96.5941,35.7304],[-96.6037,35.7953],[-96.6202,35.844],[-96.6436,35.8764],[-96.6526,35.9048],[-96.6471,35.9291],[-96.6058,35.9547],[-96.5286,35.9817],[-96.475,35.9945],[-96.445,35.9931],[-96.4202,35.9836],[-96.4006,35.9661],[-96.3723,35.9169],[-96.3351,35.8359],[-96.3221,35.7588],[-96.3333,35.6857],[-96.3517,35.6318],[-96.3772,35.597],[-96.425,35.5657],[-96.495,35.538],[-96.5408,35.5066],[-96.5625,35.4715],[-96.5875,35.4444],[-96.6158,35.4255],[-96.655,35.4166],[-96.705,35.4179],[-96.7428,35.4355],[-96.7683,35.4695],[-96.7773,35.4987]],[[-96.7658,35.4987],[-96.7581,35.5231],[-96.7281,35.5541],[-96.676,35.5916],[-96.6324,35.6322],[-96.5971,35.676],[-96.5842,35.7304],[-96.5937,35.7953],[-96.6097,35.8521],[-96.632,35.9007],[-96.6299,35.9338],[-96.6033,35.9513],[-96.55,35.9657],[-96.47,35.9769],[-96.4031,35.9317],[-96.3494,35.83],[-96.3297,35.7466],[-96.344,35.6817],[-96.3659,35.6307],[-96.3953,35.5938],[-96.4404,35.5653],[-96.5012,35.5453],[-96.5451,35.515],[-96.5721,35.4743],[-96.5967,35.4468],[-96.6189,35.4325],[-96.655,35.4261],[-96.705,35.4277],[-96.7399,35.443],[-96.7598,35.472],[-96.7658,35.4987]]]}},{"type":"Feature","properties":{"c":"#feb24c","v0":20.0,"v1":30.0},"geometry":{"type":"Polygon","coordinates":[[[-95.8588,35.519],[-95.85,35.5516],[-95.8091,35.6085],[-95.7361,35.6898],[-95.6772,35.7392],[-95.6324,35.7567],[-95.5932,35.7608],[-95.5595,35.7514],[-95.537,35.7345],[-95.5256,35.7101],[-95.5283,35.6736],[-95.545,35.6248],[-95.5546,35.5679],[-95.5571,35.5028],[-95.5665,35.458],[-95.5829,35.4335],[-95.6158,35.4124],[-95.6653,35.3945],[-95.72,35.3894],[-95.78,35.397],[-95.8213,35.41],[-95.8438,35.4284],[-95.8571,35.4539],[-95.8612,35.4865],[-95.8588,35.519]],[[-95.8477,35.519],[-95.8379,35.5516],[-95.7973,35.6074],[-95.7258,35.6863],[-95.67,35.7335],[-95.63,35.749],[-95.595,35.7525],[-95.565,35.7441],[-95.5454,35.7294],[-95.5361,35.7084],[-95.5395,35.6736],[-95.5555,35.6248],[-95.5633,35.576],[-95.5627,35.5272],[-95.5734,35.4824],[-95.5953,35.4417],[-95.6272,35.4146],[-95.6691,35.4011],[-95.72,35.3984],[-95.78,35.4064],[-95.8183,35.4173],[-95.8349,35.4308],[-95.8456,35.4539],[-95.8503,35.4865],[-95.8477,35.519]]]}},{"type":"Feature","properties":{"c":"#feb24c","v0":20.0,"v1":30.0},"geometry":{"type":"Polygon","coordinates":[[[-99.2718,31.5971],[-99.2573,31.618],[-99.2,31.6458],[-99.1,31.6804],[-99.03,31.6966],[-98.99,31.6944],[-98.9629,31.6879],[-98.9487,31.6771],[-98.9487,31.6617],[-98.9629,31.6415],[-99.005,31.6307],[-99.075,31.6295],[-99.14,31.6019],[-99.2,31.548],[-99.2423,31.5374],[-99.2668,31.5702],[-99.2718,31.5971]]]}},{"type":"Feature","properties":{"c":"#feb24c","v0":20.0,"v1":30.0},"geometry":{"type":"Polygon","coordinates":[[[-99.3018,31.4276],[-99.2806,31.4505],[-99.27,31.449],[-99.27,31.4233],[-99.275,31.4066],[-99.285,31.3992],[-99.2956,31.4006],[-99.3068,31.4109],[-99.3018,31.4276]]]}},{"type":"Feature","properties":{"c":"#fd8d3c","v0":30.0,"v1":40.0},"geometry":{"type":"Polygon","coordinates":[[[-103.0293,45.5612],[-103.0224,45.5822],[-103.0017,45.6015],[-102.9672,45.6193],[-102.9417,45.6438],[-102.9251,45.675],[-102.8951,45.698],[-102.8517,45.7129],[-102.81,45.7428],[-102.77,45.7878],[-102.71,45.8201],[-102.63,45.8398],[-102.5764,45.8377],[-102.5492,45.8141],[-102.5355,45.7813],[-102.5355,45.7394],[-102.5541,45.6965],[-102.5914,45.6525],[-102.6385,45.621],[-102.6956,45.6021],[-102.7256,45.5874],[-102.7285,45.5769],[-102.715,45.5663],[-102.685,45.5556],[-102.635,45.5574],[-102.565,45.5717],[-102.51,45.5782],[-102.47,45.5769],[-102.44,45.5663],[-102.42,45.5466],[-102.41,45.5201],[-102.41,45.4869],[-102.4176,45.4624],[-102.4327,45.4465],[-102.4627,45.4293],[-102.5076,45.411],[-102.565,45.4005],[-102.635,45.3977],[-102.7,45.4101],[-102.76,45.4376],[-102.7922,45.4692],[-102.7966,45.5049],[-102.8066,45.5287],[-102.8222,45.5408],[-102.85,45.5507],[-102.89,45.5583],[-102.93,45.5489],[-102.97,45.5226],[-102.9985,45.5128],[-103.0154,45.5194],[-103.0261,45.5297],[-103.0305,45.5437],[-103.0293,45.5612]],[[-103.0133,45.5577],[-103.0111,45.5717],[-102.9912,45.5892],[-102.9536,45.6102],[-102.9281,45.6347],[-102.9148,45.6626],[-102.8836,45.6868],[-102.8345,45.7071],[-102.7916,45.7385],[-102.7547,45.781],[-102.7047,45.8111],[-102.6416,45.8288],[-102.595,45.827],[-102.565,45.8055],[-102.55,45.7776],[-102.55,45.7432],[-102.5696,45.7032],[-102.6087,45.6575],[-102.6543,45.6277],[-102.7064,45.6137],[-102.7372,45.5962],[-102.7468,45.5752],[-102.7312,45.5579],[-102.6904,45.5443],[-102.635,45.5447],[-102.565,45.5592],[-102.5122,45.566],[-102.4766,45.5651],[-102.451,45.5577],[-102.4356,45.5437],[-102.4273,45.5227],[-102.4261,45.4946],[-102.4301,45.4736],[-102.4393,45.4596],[-102.4693,45.442],[-102.5202,45.421],[-102.5767,45.41],[-102.6389,45.4092],[-102.695,45.4197],[-102.745,45.4416],[-102.7723,45.4701],[-102.7768,45.5051],[-102.7868,45.5305],[-102.8023,45.5461],[-102.835,45.5596],[-102.885,45.5708],[-102.93,45.5634],[-102.97,45.5373],[-102.9961,45.5309],[-103.0083,45.5441],[-103.0133,45.5577]]]}},{"type":"Feature","properties":{"c":"#fd8d3c","v0":30.0,"v1":40.0},"geometry":{"type":"Polygon","coordinates":[[[-94.1409,44.1613],[-94.1335,44.1899],[-94.1148,44.2231],[-94.0849,44.2608],[-94.05,44.2816],[-94.01,44.2855],[-93.955,44.306],[-93.885,44.3429],[-93.825,44.3611],[-93.775,44.3605],[-93.735,44.3756],[-93.705,44.4066],[-93.6782,44.4177],[-93.6547,44.409],[-93.6368,44.394],[-93.6245,44.3725],[-93.6212,44.3521],[-93.6271,44.3326],[-93.6589,44.3219],[-93.7166,44.3199],[-93.7498,44.301],[-93.7582,44.2652],[-93.7772,44.2258],[-93.8068,44.1828],[-93.8437,44.153],[-93.8879,44.1366],[-93.925,44.1153],[-93.955,44.0893],[-93.985,44.0711],[-94.015,44.0607],[-94.045,44.056],[-94.075,44.0571],[-94.0998,44.0656],[-94.1194,44.0815],[-94.133,44.1038],[-94.1407,44.1325],[-94.1409,44.1613]],[[-93.7231,44.36],[-93.7144,44.3851],[-93.7,44.4007],[-93.68,44.4068],[-93.6613,44.4014],[-93.6438,44.3845],[-93.6353,44.3654],[-93.6356,44.3439],[-93.6443,44.3301],[-93.6614,44.3238],[-93.6844,44.3274],[-93.7131,44.3408],[-93.7231,44.36]],[[-94.1178,44.1773],[-94.0859,44.2381],[-94.05,44.2704],[-94.01,44.2743],[-93.975,44.2879],[-93.945,44.3111],[-93.91,44.3302],[-93.87,44.3452],[-93.8305,44.3514],[-93.7915,44.3488],[-93.7727,44.3225],[-93.774,44.2724],[-93.7935,44.2232],[-93.8312,44.175],[-93.8689,44.1463],[-93.9066,44.1371],[-93.9366,44.1211],[-93.9589,44.0981],[-93.99,44.0802],[-94.03,44.0674],[-94.065,44.0663],[-94.095,44.0768],[-94.1159,44.0982],[-94.1278,44.1307],[-94.1178,44.1773]]]}},{"type":"Feature","properties":{"c":"#fd8d3c","v0":30.0,"v1":40.0},"geometry":{"type":"Polygon","coordinates":[[[-62.9875,42.9891],[-62.9758,43.0215],[-62.935,43.0445],[-62.865,43.0584],[-62.775,43.0575],[-62.665,43.042],[-62.6013,43.0262],[-62.5838,43.0102],[-62.5711,42.9839],[-62.5632,42.9473],[-62.6019,42.9079],[-62.6873,42.8657],[-62.78,42.8434],[-62.88,42.8409],[-62.9438,42.8473],[-62.9715,42.8627],[-62.9874,42.896],[-62.9913,42.9473],[-62.9875,42.9891]],[[-62.9794,42.9876],[-62.9693,43.0168],[-62.9307,43.0381],[-62.8636,43.0514],[-62.7779,43.0514],[-62.6737,43.0381],[-62.6124,43.0241],[-62.594,43.0095],[-62.5803,42.9876],[-62.5711,42.9583],[-62.5724,42.9352],[-62.5841,42.9182],[-62.625,42.8951],[-62.695,42.866],[-62.78,42.8502],[-62.88,42.8476],[-62.9413,42.8524],[-62.964,42.8644],[-62.9775,42.896],[-62.9821,42.9473],[-62.9794,42.9876]]]}},{"type":"Feature","properties":{"c":"#fd8d3c","v0":30.0,"v1":40.0},"geometry":{"type":"Polygon","coordinates":[[[-74.8113,39.7732],[-74.7886,39.827],[-74.7704,39.8581],[-74.7568,39.8666],[-74.735,39.8531],[-74.705,39.8174],[-74.6518,39.7978],[-74.5753,39.7942],[-74.5218,39.7732],[-74.4911,39.7347],[-74.4643,39.7109],[-74.4414,39.7018],[-74.4,39.6961],[-74.34,39.6939],[-74.3024,39.6985],[-74.2871,39.7098],[-74.2721,39.735],[-74.2574,39.774],[-74.21,39.8086],[-74.13,39.8389],[-74.0631,39.8501],[-74.0092,39.8424],[-73.9638,39.8231],[-73.927,39.7924],[-73.9064,39.7693],[-73.902,39.754],[-73.9122,39.7386],[-73.937,39.7232],[-73.9896,39.7125],[-74.0699,39.7065],[-74.146,39.6796],[-74.218,39.6317],[-74.273,39.6028],[-74.311,39.593],[-74.355,39.5918],[-74.405,39.5994],[-74.445,39.6225],[-74.475,39.6613],[-74.525,39.6767],[-74.595,39.6688],[-74.65,39.6771],[-74.69,39.7014],[-74.735,39.7142],[-74.785,39.7155],[-74.8132,39.7236],[-74.8195,39.7387],[-74.8113,39.7732]]]}},{"type":"Feature","properties":{"c":"#fd8d3c","v0":30.0,"v1":40.0},"geometry":{"type":"Polygon","coordinates":[[[-95.5027,37.5558],[-95.4904,37.5796],[-95.4707,37.5992],[-95.4436,37.6148],[-95.405,37.6175],[-95.355,37.6072],[-95.305,37.6221],[-95.255,37.6619],[-95.185,37.6928],[-95.095,37.7146],[-95.02,37.7258],[-94.96,37.7263],[-94.9,37.751],[-94.84,37.7997],[-94.795,37.8248],[-94.765,37.8261],[-94.7406,37.8194],[-94.7218,37.8046],[-94.7132,37.7774],[-94.715,37.7379],[-94.7444,37.6935],[-94.8015,37.6441],[-94.8381,37.6005],[-94.8542,37.5628],[-94.9092,37.517],[-95.0031,37.4633],[-95.0507,37.4236],[-95.052,37.398],[-95.0288,37.3494],[-94.9812,37.2778],[-94.9624,37.226],[-94.9724,37.1942],[-94.9856,37.1733],[-95.0019,37.1635],[-95.035,37.1637],[-95.085,37.1739],[-95.1437,37.2266],[-95.211,37.3217],[-95.2401,37.3891],[-95.231,37.4288],[-95.2073,37.4768],[-95.1691,37.5329],[-95.185,37.5556],[-95.255,37.5449],[-95.32,37.5211],[-95.38,37.4842],[-95.4259,37.4694],[-95.4576,37.4768],[-95.4823,37.4963],[-95.5,37.528],[-95.5027,37.5558]],[[-95.493,37.5558],[-95.4791,37.5796],[-95.4617,37.5973],[-95.4406,37.6089],[-95.405,37.608],[-95.355,37.5948],[-95.305,37.6096],[-95.255,37.6526],[-95.18,37.6858],[-95.08,37.7093],[-95.005,37.7203],[-94.955,37.7188],[-94.9,37.7426],[-94.84,37.7917],[-94.795,37.8169],[-94.765,37.8182],[-94.7431,37.8135],[-94.7293,37.8026],[-94.7232,37.7774],[-94.7249,37.7379],[-94.7539,37.6944],[-94.8103,37.6469],[-94.8463,37.6047],[-94.8621,37.5679],[-94.9162,37.5242],[-95.0087,37.4739],[-95.0568,37.4328],[-95.0605,37.401],[-95.0385,37.3494],[-94.9908,37.2778],[-94.9697,37.23],[-94.975,37.2061],[-94.9858,37.1875],[-95.0019,37.174],[-95.035,37.1732],[-95.085,37.185],[-95.1413,37.2355],[-95.204,37.3247],[-95.2307,37.3891],[-95.2215,37.4288],[-95.1954,37.4804],[-95.1524,37.5439],[-95.1757,37.5682],[-95.2652,37.5535],[-95.335,37.5278],[-95.385,37.4912],[-95.425,37.4766],[-95.455,37.4839],[-95.4775,37.5016],[-95.4925,37.5298],[-95.493,37.5558]]]}},{"type":"Feature","properties":{"c":"#fd8d3c","v0":30.0,"v1":40.0},"geometry":{"type":"Polygon","coordinates":[[[-95.1321,36.8906],[-95.1174,36.9221],[-95.085,36.9425],[-95.035,36.9517],[-94.9663,36.9279],[-94.879,36.8712],[-94.8408,36.7988],[-94.8517,36.7107],[-94.8703,36.6466],[-94.8968,36.6066],[-94.9303,36.5865],[-94.971,36.5864],[-94.9957,36.6104],[-95.0043,36.6585],[-95.0288,36.7026],[-95.0692,36.7427],[-95.102,36.7908],[-95.127,36.8468],[-95.1321,36.8906]],[[-95.1223,36.8872],[-95.1141,36.9118],[-95.085,36.9291],[-95.035,36.9392],[-94.9706,36.9189],[-94.8919,36.8682],[-94.8571,36.7988],[-94.8662,36.7107],[-94.8856,36.6476],[-94.9152,36.6097],[-94.9431,36.5937],[-94.9693,36.5995],[-94.9874,36.6264],[-94.9974,36.6746],[-95.0201,36.7147],[-95.0556,36.7467],[-95.0866,36.7908],[-95.1131,36.8468],[-95.1223,36.8872]]]}},{"type":"Feature","properties":{"c":"#fd8d3c","v0":30.0,"v1":40.0},"geometry":{"type":"Polygon","coordinates":[[[-95.0636,36.4664],[-95.0412,36.4838],[-95.008,36.4677],[-94.9639,36.4181],[-94.9639,36.3937],[-95.008,36.3945],[-95.0412,36.4106],[-95.0636,36.442],[-95.0636,36.4664]],[[-95.0514,36.4621],[-95.0371,36.471],[-95.025,36.4723],[-95.015,36.4661],[-95.0056,36.4496],[-94.9969,36.4228],[-95.0019,36.4098],[-95.0206,36.4105],[-95.0371,36.4225],[-95.0514,36.446],[-95.0514,36.4621]]]}},{"type":"Feature","properties":{"c":"#fd8d3c","v0":30.0,"v1":40.0},"geometry":{"type":"Polygon","coordinates":[[[-94.3492,36.133],[-94.3364,36.1608],[-94.2899,36.1971],[-94.2098,36.242],[-94.1498,36.2697],[-94.1099,36.2804],[-94.07,36.2832],[-94.03,36.2783],[-93.9891,36.2286],[-93.9472,36.1341],[-93.9272,36.0581],[-93.9291,36.0006],[-93.86,35.973],[-93.72,35.9755],[-93.615,35.9529],[-93.545,35.9053],[-93.49,35.885],[-93.45,35.892],[-93.4202,35.8907],[-93.4006,35.8812],[-93.3907,35.8683],[-93.3906,35.8521],[-93.4068,35.8318],[-93.4393,35.8075],[-93.4434,35.7791],[-93.4189,35.7466],[-93.4089,35.7142],[-93.4135,35.6817],[-93.4499,35.6532],[-93.5182,35.6289],[-93.5768,35.5943],[-93.6256,35.5496],[-93.665,35.526],[-93.695,35.5236],[-93.7292,35.5419],[-93.7676,35.5809],[-93.8169,35.6126],[-93.8773,35.637],[-93.9231,35.6682],[-93.9544,35.7063],[-93.9953,35.7306],[-94.046,35.7413],[-94.0805,35.7832],[-94.099,35.8561],[-94.1497,35.9169],[-94.2328,35.9655],[-94.2946,36.0221],[-94.3353,36.0868],[-94.3492,36.133]],[[-94.3343,36.1312],[-94.3224,36.1555],[-94.2748,36.1906],[-94.1916,36.2366],[-94.1169,36.2608],[-94.0507,36.2632],[-93.9987,36.22],[-93.9609,36.1312],[-93.9414,36.0545],[-93.9401,35.9898],[-93.9321,35.9549],[-93.9174,35.9498],[-93.87,35.9542],[-93.79,35.968],[-93.725,35.9722],[-93.675,35.9667],[-93.615,35.9388],[-93.545,35.8887],[-93.4858,35.8668],[-93.4375,35.8732],[-93.4126,35.8683],[-93.4113,35.8521],[-93.4269,35.8318],[-93.4594,35.8075],[-93.4624,35.7791],[-93.436,35.7466],[-93.4246,35.7156],[-93.4282,35.686],[-93.465,35.6588],[-93.535,35.634],[-93.5935,35.6],[-93.6404,35.5569],[-93.6754,35.5355],[-93.6985,35.536],[-93.725,35.5535],[-93.755,35.5881],[-93.8,35.617],[-93.86,35.6402],[-93.905,35.6712],[-93.935,35.7098],[-93.9797,35.7376],[-94.039,35.7544],[-94.0774,35.7994],[-94.0947,35.8723],[-94.1411,35.9291],[-94.2167,35.9695],[-94.276,36.0221],[-94.3188,36.0868],[-94.3343,36.1312]]]}},{"type":"Feature","properties":{"c":"#fd8d3c","v0":30.0,"v1":40.0},"geometry":{"type":"Polygon","coordinates":[[[-96.7658,35.4987],[-96.7581,35.5231],[-96.7281,35.5541],[-96.676,35.5916],[-96.6324,35.6322],[-96.5971,35.676],[-96.5842,35.7304],[-96.5937,35.7953],[-96.6097,35.8521],[-96.632,35.9007],[-96.6299,35.9338],[-96.6033,35.9513],[-96.55,35.9657],[-96.47,35.9769],[-96.4031,35.9317],[-96.3494,35.83],[-96.3297,35.7466],[-96.344,35.6817],[-96.3659,35.6307],[-96.3953,35.5938],[-96.4404,35.5653],[-96.5012,35.5453],[-96.5451,35.515],[-96.5721,35.4743],[-96.5967,35.4468],[-96.6189,35.4325],[-96.655,35.4261],[-96.705,35.4277],[-96.7399,35.443],[-96.7598,35.472],[-96.7658,35.4987]],[[-96.7565,35.4987],[-96.7474,35.5231],[-96.7193,35.5516],[-96.6721,35.5841],[-96.6289,35.6248],[-96.5894,35.6736],[-96.5744,35.7304],[-96.5839,35.7953],[-96.6001,35.844],[-96.6229,35.8764],[-96.634,35.9007],[-96.6333,35.9169],[-96.5972,35.9384],[-96.5257,35.9651],[-96.4752,35.9773],[-96.4455,35.9748],[-96.4062,35.925],[-96.3571,35.8278],[-96.3396,35.7466],[-96.3539,35.6817],[-96.3737,35.6329],[-96.3991,35.6004],[-96.4449,35.5719],[-96.5109,35.5475],[-96.5655,35.5098],[-96.6085,35.4587],[-96.65,35.4323],[-96.69,35.4305],[-96.7228,35.4438],[-96.7483,35.4722],[-96.7565,35.4987]]]}},{"type":"Feature","properties":{"c":"#fd8d3c","v0":30.0,"v1":40.0},"geometry":{"type":"Polygon","coordinates":[[[-95.8477,35.519],[-95.8379,35.5516],[-95.7973,35.6074],[-95.7258,35.6863],[-95.67,35.7335],[-95.63,35.749],[-95.595,35.7525],[-95.565,35.7441],[-95.5454,35.7294],[-95.5361,35.7084],[-95.5395,35.6736],[-95.5555,35.6248],[-95.5633,35.576],[-95.5627,35.5272],[-95.5734,35.4824],[-95.5953,35.4417],[-95.6272,35.4146],[-95.6691,35.4011],[-95.72,35.3984],[-95.78,35.4064],[-95.8183,35.4173],[-95.8349,35.4308],[-95.8456,35.4539],[-95.8503,35.4865],[-95.8477,35.519]],[[-95.8402,35.5164],[-95.8334,35.5437],[-95.795,35.597],[-95.725,35.6762],[-95.67,35.7241],[-95.63,35.7406],[-95.5956,35.7443],[-95.5668,35.735],[-95.558,35.6695],[-95.5693,35.5475],[-95.5837,35.472],[-95.6012,35.443],[-95.63,35.4219],[-95.67,35.4087],[-95.72,35.4063],[-95.78,35.4148],[-95.8175,35.4278],[-95.8326,35.4452],[-95.841,35.4661],[-95.8428,35.4905],[-95.8402,35.5164]]]}},{"type":"Feature","properties":{"c":"#fc4e2a","v0":40.0,"v1":50.0},"geometry":{"type":"Polygon","coordinates":[[[-103.0133,45.5577],[-103.0111,45.5717],[-102.9912,45.5892],[-102.9536,45.6102],[-102.9281,45.6347],[-102.9148,45.6626],[-102.8836,45.6868],[-102.8345,45.7071],[-102.7916,45.7385],[-102.7547,45.781],[-102.7047,45.8111],[-102.6416,45.8288],[-102.595,45.827],[-102.565,45.8055],[-102.55,45.7776],[-102.55,45.7432],[-102.5696,45.7032],[-102.6087,45.6575],[-102.6543,45.6277],[-102.7064,45.6137],[-102.7372,45.5962],[-102.7468,45.5752],[-102.7312,45.5579],[-102.6904,45.5443],[-102.635,45.5447],[-102.565,45.5592],[-102.5122,45.566],[-102.4766,45.5651],[-102.451,45.5577],[-102.4356,45.5437],[-102.4273,45.5227],[-102.4261,45.4946],[-102.4301,45.4736],[-102.4393,45.4596],[-102.4693,45.442],[-102.5202,45.421],[-102.5767,45.41],[-102.6389,45.4092],[-102.695,45.4197],[-102.745,45.4416],[-102.7723,45.4701],[-102.7768,45.5051],[-102.7868,45.5305],[-102.8023,45.5461],[-102.835,45.5596],[-102.885,45.5708],[-102.93,45.5634],[-102.97,45.5373],[-102.9961,45.5309],[-103.0083,45.5441],[-103.0133,45.5577]],[[-102.8834,45.6296],[-102.8745,45.6475],[-102.8459,45.6685],[-102.7976,45.6925],[-102.7576,45.7234],[-102.7259,45.7611],[-102.683,45.7855],[-102.6289,45.7966],[-102.5984,45.7848],[-102.5917,45.7499],[-102.6037,45.7144],[-102.6346,45.6781],[-102.675,45.6534],[-102.725,45.6401],[-102.765,45.6224],[-102.795,45.6001],[-102.8284,45.5934],[-102.8651,45.6022],[-102.8846,45.6102],[-102.8868,45.6172],[-102.8834,45.6296]],[[-102.7352,45.4883],[-102.7317,45.5037],[-102.71,45.511],[-102.67,45.5103],[-102.615,45.5174],[-102.545,45.5324],[-102.499,45.5356],[-102.4769,45.527],[-102.4669,45.5111],[-102.469,45.4879],[-102.49,45.4668],[-102.53,45.4479],[-102.5816,45.4385],[-102.6447,45.4385],[-102.6914,45.449],[-102.7218,45.4701],[-102.7352,45.4883]]]}},{"type":"Feature","properties":{"c":"#fc4e2a","v0":40.0,"v1":50.0},"geometry":{"type":"Polygon","coordinates":[[[-93.7231,44.36],[-93.7144,44.3851],[-93.7,44.4007],[-93.68,44.4068],[-93.6613,44.4014],[-93.6438,44.3845],[-93.6353,44.3654],[-93.6356,44.3439],[-93.6443,44.3301],[-93.6614,44.3238],[-93.6844,44.3274],[-93.7131,44.3408],[-93.7231,44.36]],[[-93.7059,44.3707],[-93.6953,44.3885],[-93.685,44.3973],[-93.675,44.3971],[-93.6634,44.3846],[-93.6501,44.3599],[-93.6533,44.3439],[-93.6729,44.3368],[-93.6899,44.3403],[-93.7041,44.3546],[-93.7059,44.3707]]]}},{"type":"Feature","properties":{"c":"#fc4e2a","v0":40.0,"v1":50.0},"geometry":{"type":"Polygon","coordinates":[[[-94.1178,44.1773],[-94.0859,44.2381],[-94.05,44.2704],[-94.01,44.2743],[-93.975,44.2879],[-93.945,44.3111],[-93.91,44.3302],[-93.87,44.3452],[-93.8305,44.3514],[-93.7915,44.3488],[-93.7727,44.3225],[-93.774,44.2724],[-93.7935,44.2232],[-93.8312,44.175],[-93.8689,44.1463],[-93.9066,44.1371],[-93.9366,44.1211],[-93.9589,44.0981],[-93.99,44.0802],[-94.03,44.0674],[-94.065,44.0663],[-94.095,44.0768],[-94.1159,44.0982],[-94.1278,44.1307],[-94.1178,44.1773]],[[-94.1082,44.1739],[-94.0827,44.228],[-94.05,44.2575],[-94.01,44.2626],[-93.955,44.2846],[-93.885,44.3235],[-93.835,44.3428],[-93.805,44.3426],[-93.788,44.3223],[-93.7841,44.2818],[-93.7998,44.2365],[-93.8349,44.1864],[-93.8719,44.1566],[-93.9106,44.1473],[-93.9438,44.1294],[-93.9715,44.1028],[-94.0015,44.0847],[-94.0338,44.0752],[-94.0629,44.0752],[-94.0887,44.0847],[-94.1065,44.1038],[-94.1162,44.1325],[-94.1082,44.1739]]]}},{"type":"Feature","properties":{"c":"#fc4e2a","v0":40.0,"v1":50.0},"geometry":{"type":"Polygon","coordinates":[[[-62.9794,42.9876],[-62.9693,43.0168],[-62.9307,43.0381],[-62.8636,43.0514],[-62.7779,43.0514],[-62.6737,43.0381],[-62.6124,43.0241],[-62.594,43.0095],[-62.5803,42.9876],[-62.5711,42.9583],[-62.5724,42.9352],[-62.5841,42.9182],[-62.625,42.8951],[-62.695,42.866],[-62.78,42.8502],[-62.88,42.8476],[-62.9413,42.8524],[-62.964,42.8644],[-62.9775,42.896],[-62.9821,42.9473],[-62.9794,42.9876]],[[-62.9696,42.9873],[-62.9565,43.0161],[-62.92,43.0357],[-62.86,43.0461],[-62.78,43.0455],[-62.68,43.0337],[-62.6212,43.0214],[-62.6036,43.0086],[-62.5902,42.9876],[-62.5807,42.9583],[-62.5811,42.9363],[-62.5913,42.9217],[-62.6298,42.9004],[-62.6966,42.8723],[-62.78,42.8569],[-62.88,42.8542],[-62.9386,42.8572],[-62.9558,42.866],[-62.9673,42.896],[-62.9732,42.9473],[-62.9696,42.9873]]]}},{"type":"Feature","properties":{"c":"#fc4e2a","v0":40.0,"v1":50.0},"geometry":{"type":"Polygon","coordinates":[[[-95.493,37.5558],[-95.4791,37.5796],[-95.4617,37.5973],[-95.4406,37.6089],[-95.405,37.608],[-95.355,37.5948],[-95.305,37.6096],[-95.255,37.6526],[-95.18,37.6858],[-95.08,37.7093],[-95.005,37.7203],[-94.955,37.7188],[-94.9,37.7426],[-94.84,37.7917],[-94.795,37.8169],[-94.765,37.8182],[-94.7431,37.8135],[-94.7293,37.8026],[-94.7232,37.7774],[-94.7249,37.7379],[-94.7539,37.6944],[-94.8103,37.6469],[-94.8463,37.6047],[-94.8621,37.5679],[-94.9162,37.5242],[-95.0087,37.4739],[-95.0568,37.4328],[-95.0605,37.401],[-95.0385,37.3494],[-94.9908,37.2778],[-94.9697,37.23],[-94.975,37.2061],[-94.9858,37.1875],[-95.0019,37.174],[-95.035,37.1732],[-95.085,37.185],[-95.1413,37.2355],[-95.204,37.3247],[-95.2307,37.3891],[-95.2215,37.4288],[-95.1954,37.4804],[-95.1524,37.5439],[-95.1757,37.5682],[-95.2652,37.5535],[-95.335,37.5278],[-95.385,37.4912],[-95.425,37.4766],[-95.455,37.4839],[-95.4775,37.5016],[-95.4925,37.5298],[-95.493,37.5558]],[[-95.2975,37.5875],[-95.2889,37.6113],[-95.271,37.6339],[-95.2437,37.6553],[-95.18,37.6779],[-95.08,37.7017],[-95.005,37.7128],[-94.955,37.7113],[-94.9,37.735],[-94.84,37.7838],[-94.8,37.8098],[-94.78,37.8132],[-94.7607,37.8104],[-94.7422,37.8016],[-94.7337,37.7774],[-94.7352,37.7379],[-94.7644,37.6944],[-94.8215,37.6469],[-94.8557,37.6073],[-94.867,37.5756],[-94.921,37.532],[-95.0174,37.4765],[-95.0673,37.4328],[-95.0706,37.401],[-95.0483,37.3494],[-95.0004,37.2778],[-94.9849,37.2254],[-95.0016,37.1922],[-95.0329,37.1803],[-95.0786,37.1895],[-95.1326,37.238],[-95.1947,37.3255],[-95.2211,37.3891],[-95.2118,37.4288],[-95.1843,37.4804],[-95.1387,37.5439],[-95.1244,37.5797],[-95.1415,37.5878],[-95.175,37.5823],[-95.225,37.5632],[-95.2629,37.5591],[-95.2888,37.5701],[-95.2975,37.5875]],[[-95.4831,37.5558],[-95.4672,37.5796],[-95.4469,37.5961],[-95.4223,37.6054],[-95.3877,37.5975],[-95.343,37.5723],[-95.328,37.5476],[-95.3427,37.5232],[-95.365,37.5033],[-95.395,37.4878],[-95.4248,37.4841],[-95.4545,37.4922],[-95.4747,37.5082],[-95.4856,37.532],[-95.4831,37.5558]]]}},{"type":"Feature","properties":{"c":"#fc4e2a","v0":40.0,"v1":50.0},"geometry":{"type":"Polygon","coordinates":[[[-95.1223,36.8872],[-95.1141,36.9118],[-95.085,36.9291],[-95.035,36.9392],[-94.9706,36.9189],[-94.8919,36.8682],[-94.8571,36.7988],[-94.8662,36.7107],[-94.8856,36.6476],[-94.9152,36.6097],[-94.9431,36.5937],[-94.9693,36.5995],[-94.9874,36.6264],[-94.9974,36.6746],[-95.0201,36.7147],[-95.0556,36.7467],[-95.0866,36.7908],[-95.1131,36.8468],[-95.1223,36.8872]],[[-95.1058,36.8858],[-95.0953,36.9076],[-95.07,36.9211],[-95.03,36.9263],[-94.9736,36.9034],[-94.9009,36.8523],[-94.8703,36.7868],[-94.8819,36.7066],[-94.8983,36.6514],[-94.9194,36.6211],[-94.94,36.6088],[-94.96,36.6145],[-94.9738,36.6376],[-94.9813,36.6783],[-95.0053,36.7187],[-95.0458,36.7587],[-95.0773,36.8028],[-95.0998,36.8508],[-95.1058,36.8858]]]}},{"type":"Feature","properties":{"c":"#fc4e2a","v0":40.0,"v1":50.0},"geometry":{"type":"Polygon","coordinates":[[[-95.0514,36.4621],[-95.0371,36.471],[-95.025,36.4723],[-95.015,36.4661],[-95.0056,36.4496],[-94.9969,36.4228],[-95.0019,36.4098],[-95.0206,36.4105],[-95.0371,36.4225],[-95.0514,36.446],[-95.0514,36.4621]]]}},{"type":"Feature","properties":{"c":"#fc4e2a","v0":40.0,"v1":50.0},"geometry":{"type":"Polygon","coordinates":[[[-94.3343,36.1312],[-94.3224,36.1555],[-94.2748,36.1906],[-94.1916,36.2366],[-94.1169,36.2608],[-94.0507,36.2632],[-93.9987,36.22],[-93.9609,36.1312],[-93.9414,36.0545],[-93.9401,35.9898],[-93.9321,35.9549],[-93.9174,35.9498],[-93.87,35.9542],[-93.79,35.968],[-93.725,35.9722],[-93.675,35.9667],[-93.615,35.9388],[-93.545,35.8887],[-93.4858,35.8668],[-93.4375,35.8732],[-93.4126,35.8683],[-93.4113,35.8521],[-93.4269,35.8318],[-93.4594,35.8075],[-93.4624,35.7791],[-93.436,35.7466],[-93.4246,35.7156],[-93.4282,35.686],[-93.465,35.6588],[-93.535,35.634],[-93.5935,35.6],[-93.6404,35.5569],[-93.6754,35.5355],[-93.6985,35.536],[-93.725,35.5535],[-93.755,35.5881],[-93.8,35.617],[-93.86,35.6402],[-93.905,35.6712],[-93.935,35.7098],[-93.9797,35.7376],[-94.039,35.7544],[-94.0774,35.7994],[-94.0947,35.8723],[-94.1411,35.9291],[-94.2167,35.9695],[-94.276,36.0221],[-94.3188,36.0868],[-94.3343,36.1312]],[[-94.3154,36.1272],[-94.3088,36.1434],[-94.2625,36.1757],[-94.1764,36.2241],[-94.1075,36.2486],[-94.0558,36.2492],[-94.0136,36.2089],[-93.9808,36.1275],[-93.967,36.0626],[-93.9722,36.014],[-93.9698,35.9776],[-93.9598,35.9533],[-93.9436,35.9379],[-93.9212,35.9311],[-93.87,35.9353],[-93.79,35.9504],[-93.7215,35.9538],[-93.6644,35.9454],[-93.6014,35.9129],[-93.5324,35.8561],[-93.4977,35.8156],[-93.4973,35.7913],[-93.4844,35.7669],[-93.4591,35.7426],[-93.4468,35.7182],[-93.4475,35.6939],[-93.4784,35.6721],[-93.5395,35.6529],[-93.59,35.6243],[-93.63,35.586],[-93.6613,35.5631],[-93.6839,35.5554],[-93.7139,35.5705],[-93.7513,35.6084],[-93.7964,35.6369],[-93.8493,35.6559],[-93.8893,35.6837],[-93.9164,35.7203],[-93.96,35.7474],[-94.02,35.7651],[-94.0568,35.8077],[-94.0703,35.8751],[-94.119,35.9331],[-94.2029,35.9817],[-94.2633,36.0343],[-94.3002,36.0909],[-94.3154,36.1272]]]}},{"type":"Feature","properties":{"c":"#fc4e2a","v0":40.0,"v1":50.0},"geometry":{"type":"Polygon","coordinates":[[[-96.7565,35.4987],[-96.7474,35.5231],[-96.7193,35.5516],[-96.6721,35.5841],[-96.6289,35.6248],[-96.5894,35.6736],[-96.5744,35.7304],[-96.5839,35.7953],[-96.6001,35.844],[-96.6229,35.8764],[-96.634,35.9007],[-96.6333,35.9169],[-96.5972,35.9384],[-96.5257,35.9651],[-96.4752,35.9773],[-96.4455,35.9748],[-96.4062,35.925],[-96.3571,35.8278],[-96.3396,35.7466],[-96.3539,35.6817],[-96.3737,35.6329],[-96.3991,35.6004],[-96.4449,35.5719],[-96.5109,35.5475],[-96.5655,35.5098],[-96.6085,35.4587],[-96.65,35.4323],[-96.69,35.4305],[-96.7228,35.4438],[-96.7483,35.4722],[-96.7565,35.4987]],[[-96.7473,35.4987],[-96.737,35.5231],[-96.7083,35.5516],[-96.6613,35.5841],[-96.6186,35.6248],[-96.5802,35.6736],[-96.5657,35.7304],[-96.5753,35.7953],[-96.5912,35.844],[-96.6134,35.8764],[-96.6239,35.9007],[-96.6227,35.9169],[-96.5791,35.9371],[-96.493,35.9612],[-96.4405,35.9652],[-96.4216,35.9492],[-96.3944,35.9007],[-96.3591,35.8197],[-96.3461,35.7507],[-96.3554,35.6939],[-96.3765,35.6451],[-96.4095,35.6045],[-96.4571,35.5732],[-96.519,35.5515],[-96.57,35.5157],[-96.61,35.4661],[-96.65,35.4402],[-96.69,35.4381],[-96.7206,35.4494],[-96.7419,35.4741],[-96.7473,35.4987]]]}},{"type":"Feature","properties":{"c":"#fc4e2a","v0":40.0,"v1":50.0},"geometry":{"type":"Polygon","coordinates":[[[-95.8402,35.5164],[-95.8334,35.5437],[-95.795,35.597],[-95.725,35.6762],[-95.67,35.7241],[-95.63,35.7406],[-95.5956,35.7443],[-95.5668,35.735],[-95.558,35.6695],[-95.5693,35.5475],[-95.5837,35.472],[-95.6012,35.443],[-95.63,35.4219],[-95.67,35.4087],[-95.72,35.4063],[-95.78,35.4148],[-95.8175,35.4278],[-95.8326,35.4452],[-95.841,35.4661],[-95.8428,35.4905],[-95.8402,35.5164]],[[-95.8323,35.515],[-95.8267,35.5394],[-95.7904,35.59],[-95.7235,35.6668],[-95.67,35.7141],[-95.63,35.7321],[-95.5988,35.7384],[-95.5765,35.7331],[-95.5614,35.7223],[-95.5534,35.706],[-95.5646,35.633],[-95.5949,35.5031],[-95.63,35.4309],[-95.67,35.4168],[-95.715,35.4124],[-95.765,35.4176],[-95.8,35.4281],[-95.82,35.4438],[-95.8313,35.4644],[-95.8339,35.49],[-95.8323,35.515]]]}},{"type":"Feature","properties":{"c":"#e31a1c","v0":50.0,"v1":60.0},"geometry":{"type":"Polygon","coordinates":[[[-102.8834,45.6296],[-102.8745,45.6475],[-102.8459,45.6685],[-102.7976,45.6925],[-102.7576,45.7234],[-102.7259,45.7611],[-102.683,45.7855],[-102.6289,45.7966],[-102.5984,45.7848],[-102.5917,45.7499],[-102.6037,45.7144],[-102.6346,45.6781],[-102.675,45.6534],[-102.725,45.6401],[-102.765,45.6224],[-102.795,45.6001],[-102.8284,45.5934],[-102.8651,45.6022],[-102.8846,45.6102],[-102.8868,45.6172],[-102.8834,45.6296]]]}},{"type":"Feature","properties":{"c":"#e31a1c","v0":50.0,"v1":60.0},"geometry":{"type":"Polygon","coordinates":[[[-102.7352,45.4883],[-102.7317,45.5037],[-102.71,45.511],[-102.67,45.5103],[-102.615,45.5174],[-102.545,45.5324],[-102.499,45.5356],[-102.4769,45.527],[-102.4669,45.5111],[-102.469,45.4879],[-102.49,45.4668],[-102.53,45.4479],[-102.5816,45.4385],[-102.6447,45.4385],[-102.6914,45.449],[-102.7218,45.4701],[-102.7352,45.4883]]]}},{"type":"Feature","properties":{"c":"#e31a1c","v0":50.0,"v1":60.0},"geometry":{"type":"Polygon","coordinates":[[[-93.7059,44.3707],[-93.6953,44.3885],[-93.685,44.3973],[-93.675,44.3971],[-93.6634,44.3846],[-93.6501,44.3599],[-93.6533,44.3439],[-93.6729,44.3368],[-93.6899,44.3403],[-93.7041,44.3546],[-93.7059,44.3707]],[[-93.6851,44.3649],[-93.675,44.3712],[-93.6699,44.3676],[-93.6698,44.3542],[-93.6748,44.3511],[-93.6851,44.3582],[-93.6851,44.3649]]]}},{"type":"Feature","properties":{"c":"#e31a1c","v0":50.0,"v1":60.0},"geometry":{"type":"Polygon","coordinates":[[[-94.1082,44.1739],[-94.0827,44.228],[-94.05,44.2575],[-94.01,44.2626],[-93.955,44.2846],[-93.885,44.3235],[-93.835,44.3428],[-93.805,44.3426],[-93.788,44.3223],[-93.7841,44.2818],[-93.7998,44.2365],[-93.8349,44.1864],[-93.8719,44.1566],[-93.9106,44.1473],[-93.9438,44.1294],[-93.9715,44.1028],[-94.0015,44.0847],[-94.0338,44.0752],[-94.0629,44.0752],[-94.0887,44.0847],[-94.1065,44.1038],[-94.1162,44.1325],[-94.1082,44.1739]],[[-94.0917,44.172],[-94.0651,44.2222],[-94.0363,44.2483],[-94.0054,44.2502],[-93.97,44.2653],[-93.93,44.2934],[-93.8841,44.3139],[-93.8324,44.3268],[-93.8047,44.3153],[-93.8011,44.2795],[-93.814,44.2401],[-93.8432,44.1971],[-93.8759,44.171],[-93.912,44.1618],[-93.945,44.1435],[-93.975,44.1159],[-94.005,44.0974],[-94.035,44.0879],[-94.06,44.0869],[-94.08,44.0944],[-94.0938,44.1103],[-94.1013,44.1347],[-94.0917,44.172]]]}},{"type":"Feature","properties":{"c":"#e31a1c","v0":50.0,"v1":60.0},"geometry":{"type":"Polygon","coordinates":[[[-62.9696,42.9873],[-62.9565,43.0161],[-62.92,43.0357],[-62.86,43.0461],[-62.78,43.0455],[-62.68,43.0337],[-62.6212,43.0214],[-62.6036,43.0086],[-62.5902,42.9876],[-62.5807,42.9583],[-62.5811,42.9363],[-62.5913,42.9217],[-62.6298,42.9004],[-62.6966,42.8723],[-62.78,42.8569],[-62.88,42.8542],[-62.9386,42.8572],[-62.9558,42.866],[-62.9673,42.896],[-62.9732,42.9473],[-62.9696,42.9873]],[[-62.9629,42.9851],[-62.9543,43.0093],[-62.92,43.0272],[-62.86,43.0386],[-62.78,43.0384],[-62.68,43.0263],[-62.6189,43.0011],[-62.5966,42.9628],[-62.5916,42.9365],[-62.6039,42.9223],[-62.64,42.9028],[-62.7,42.8779],[-62.775,42.8636],[-62.865,42.86],[-62.9207,42.8613],[-62.942,42.8674],[-62.9563,42.896],[-62.9636,42.9473],[-62.9629,42.9851]]]}},{"type":"Feature","properties":{"c":"#e31a1c","v0":50.0,"v1":60.0},"geometry":{"type":"Polygon","coordinates":[[[-95.2975,37.5875],[-95.2889,37.6113],[-95.271,37.6339],[-95.2437,37.6553],[-95.18,37.6779],[-95.08,37.7017],[-95.005,37.7128],[-94.955,37.7113],[-94.9,37.735],[-94.84,37.7838],[-94.8,37.8098],[-94.78,37.8132],[-94.7607,37.8104],[-94.7422,37.8016],[-94.7337,37.7774],[-94.7352,37.7379],[-94.7644,37.6944],[-94.8215,37.6469],[-94.8557,37.6073],[-94.867,37.5756],[-94.921,37.532],[-95.0174,37.4765],[-95.0673,37.4328],[-95.0706,37.401],[-95.0483,37.3494],[-95.0004,37.2778],[-94.9849,37.2254],[-95.0016,37.1922],[-95.0329,37.1803],[-95.0786,37.1895],[-95.1326,37.238],[-95.1947,37.3255],[-95.2211,37.3891],[-95.2118,37.4288],[-95.1843,37.4804],[-95.1387,37.5439],[-95.1244,37.5797],[-95.1415,37.5878],[-95.175,37.5823],[-95.225,37.5632],[-95.2629,37.5591],[-95.2888,37.5701],[-95.2975,37.5875]],[[-95.272,37.6081],[-95.244,37.6413],[-95.185,37.6692],[-95.095,37.6919],[-95.02,37.7032],[-94.96,37.7032],[-94.9,37.7273],[-94.84,37.7757],[-94.7939,37.7992],[-94.7617,37.7979],[-94.7457,37.7774],[-94.746,37.7379],[-94.775,37.6944],[-94.8327,37.6469],[-94.8674,37.6073],[-94.8791,37.5756],[-94.9329,37.532],[-95.0289,37.4765],[-95.0782,37.4328],[-95.0809,37.401],[-95.0582,37.3494],[-95.01,37.2778],[-94.992,37.2279],[-95.004,37.1998],[-95.03,37.188],[-95.07,37.1923],[-95.1215,37.2382],[-95.1846,37.3256],[-95.2133,37.3851],[-95.2077,37.4169],[-95.1806,37.4645],[-95.132,37.528],[-95.1079,37.5677],[-95.1083,37.5835],[-95.1189,37.5938],[-95.1396,37.5986],[-95.175,37.5911],[-95.225,37.5715],[-95.259,37.5691],[-95.277,37.584],[-95.272,37.6081]]]}},{"type":"Feature","properties":{"c":"#e31a1c","v0":50.0,"v1":60.0},"geometry":{"type":"Polygon","coordinates":[[[-95.4831,37.5558],[-95.4672,37.5796],[-95.4469,37.5961],[-95.4223,37.6054],[-95.3877,37.5975],[-95.343,37.5723],[-95.328,37.5476],[-95.3427,37.5232],[-95.365,37.5033],[-95.395,37.4878],[-95.4248,37.4841],[-95.4545,37.4922],[-95.4747,37.5082],[-95.4856,37.532],[-95.4831,37.5558]],[[-95.4733,37.5549],[-95.4578,37.577],[-95.44,37.5914],[-95.42,37.5982],[-95.3922,37.5911],[-95.3566,37.5702],[-95.3416,37.5507],[-95.3472,37.5326],[-95.365,37.5147],[-95.395,37.497],[-95.4211,37.4902],[-95.4434,37.4943],[-95.4611,37.5082],[-95.4744,37.532],[-95.4733,37.5549]]]}},{"type":"Feature","properties":{"c":"#e31a1c","v0":50.0,"v1":60.0},"geometry":{"type":"Polygon","coordinates":[[[-95.1058,36.8858],[-95.0953,36.9076],[-95.07,36.9211],[-95.03,36.9263],[-94.9736,36.9034],[-94.9009,36.8523],[-94.8703,36.7868],[-94.8819,36.7066],[-94.8983,36.6514],[-94.9194,36.6211],[-94.94,36.6088],[-94.96,36.6145],[-94.9738,36.6376],[-94.9813,36.6783],[-95.0053,36.7187],[-95.0458,36.7587],[-95.0773,36.8028],[-95.0998,36.8508],[-95.1058,36.8858]],[[-95.0664,36.8801],[-95.0555,36.8906],[-95.04,36.8946],[-95.02,36.8921],[-94.9842,36.8709],[-94.9326,36.8308],[-94.9126,36.7774],[-94.9242,36.7105],[-94.955,36.7056],[-95.005,36.7627],[-95.0405,36.8121],[-95.0614,36.8539],[-95.0664,36.8801]]]}},{"type":"Feature","properties":{"c":"#e31a1c","v0":50.0,"v1":60.0},"geometry":{"type":"Polygon","coordinates":[[[-94.3154,36.1272],[-94.3088,36.1434],[-94.2625,36.1757],[-94.1764,36.2241],[-94.1075,36.2486],[-94.0558,36.2492],[-94.0136,36.2089],[-93.9808,36.1275],[-93.967,36.0626],[-93.9722,36.014],[-93.9698,35.9776],[-93.9598,35.9533],[-93.9436,35.9379],[-93.9212,35.9311],[-93.87,35.9353],[-93.79,35.9504],[-93.7215,35.9538],[-93.6644,35.9454],[-93.6014,35.9129],[-93.5324,35.8561],[-93.4977,35.8156],[-93.4973,35.7913],[-93.4844,35.7669],[-93.4591,35.7426],[-93.4468,35.7182],[-93.4475,35.6939],[-93.4784,35.6721],[-93.5395,35.6529],[-93.59,35.6243],[-93.63,35.586],[-93.6613,35.5631],[-93.6839,35.5554],[-93.7139,35.5705],[-93.7513,35.6084],[-93.7964,35.6369],[-93.8493,35.6559],[-93.8893,35.6837],[-93.9164,35.7203],[-93.96,35.7474],[-94.02,35.7651],[-94.0568,35.8077],[-94.0703,35.8751],[-94.119,35.9331],[-94.2029,35.9817],[-94.2633,36.0343],[-94.3002,36.0909],[-94.3154,36.1272]]]}},{"type":"Feature","properties":{"c":"#e31a1c","v0":50.0,"v1":60.0},"geometry":{"type":"Polygon","coordinates":[[[-96.7473,35.4987],[-96.737,35.5231],[-96.7083,35.5516],[-96.6613,35.5841],[-96.6186,35.6248],[-96.5802,35.6736],[-96.5657,35.7304],[-96.5753,35.7953],[-96.5912,35.844],[-96.6134,35.8764],[-96.6239,35.9007],[-96.6227,35.9169],[-96.5791,35.9371],[-96.493,35.9612],[-96.4405,35.9652],[-96.4216,35.9492],[-96.3944,35.9007],[-96.3591,35.8197],[-96.3461,35.7507],[-96.3554,35.6939],[-96.3765,35.6451],[-96.4095,35.6045],[-96.4571,35.5732],[-96.519,35.5515],[-96.57,35.5157],[-96.61,35.4661],[-96.65,35.4402],[-96.69,35.4381],[-96.7206,35.4494],[-96.7419,35.4741],[-96.7473,35.4987]],[[-96.7397,35.4962],[-96.7332,35.5157],[-96.7085,35.5401],[-96.6656,35.5695],[-96.6223,35.6085],[-96.5788,35.6573],[-96.5606,35.7182],[-96.5679,35.7913],[-96.5823,35.844],[-96.6038,35.8764],[-96.6137,35.9007],[-96.6119,35.9169],[-96.5708,35.9349],[-96.4903,35.9547],[-96.4251,35.9183],[-96.3754,35.8255],[-96.3552,35.7507],[-96.3646,35.6939],[-96.3845,35.6469],[-96.4148,35.6099],[-96.46,35.5812],[-96.52,35.561],[-96.57,35.5255],[-96.61,35.4748],[-96.65,35.4485],[-96.69,35.4466],[-96.7182,35.4558],[-96.7347,35.4763],[-96.7397,35.4962]]]}},{"type":"Feature","properties":{"c":"#e31a1c","v0":50.0,"v1":60.0},"geometry":{"type":"Polygon","coordinates":[[[-95.8323,35.515],[-95.8267,35.5394],[-95.7904,35.59],[-95.7235,35.6668],[-95.67,35.7141],[-95.63,35.7321],[-95.5988,35.7384],[-95.5765,35.7331],[-95.5614,35.7223],[-95.5534,35.706],[-95.5646,35.633],[-95.5949,35.5031],[-95.63,35.4309],[-95.67,35.4168],[-95.715,35.4124],[-95.765,35.4176],[-95.8,35.4281],[-95.82,35.4438],[-95.8313,35.4644],[-95.8339,35.49],[-95.8323,35.515]],[[-95.8228,35.515],[-95.8166,35.5394],[-95.7815,35.5882],[-95.7174,35.6614],[-95.6701,35.706],[-95.6395,35.7223],[-95.6107,35.7283],[-95.5836,35.7241],[-95.58,35.6541],[-95.6,35.518],[-95.63,35.4418],[-95.67,35.4255],[-95.715,35.4202],[-95.765,35.426],[-95.7976,35.4351],[-95.8129,35.4476],[-95.8219,35.4661],[-95.8245,35.4905],[-95.8228,35.515]]]}},{"type":"Feature","properties":{"c":"#bd0026","v0":60.0,"v1":75.0},"geometry":{"type":"Polygon","coordinates":[[[-93.6851,44.3649],[-93.675,44.3712],[-93.6699,44.3676],[-93.6698,44.3542],[-93.6748,44.3511],[-93.6851,44.3582],[-93.6851,44.3649]]]}},{"type":"Feature","properties":{"c":"#bd0026","v0":60.0,"v1":75.0},"geometry":{"type":"Polygon","coordinates":[[[-94.0917,44.172],[-94.0651,44.2222],[-94.0363,44.2483],[-94.0054,44.2502],[-93.97,44.2653],[-93.93,44.2934],[-93.8841,44.3139],[-93.8324,44.3268],[-93.8047,44.3153],[-93.8011,44.2795],[-93.814,44.2401],[-93.8432,44.1971],[-93.8759,44.171],[-93.912,44.1618],[-93.945,44.1435],[-93.975,44.1159],[-94.005,44.0974],[-94.035,44.0879],[-94.06,44.0869],[-94.08,44.0944],[-94.0938,44.1103],[-94.1013,44.1347],[-94.0917,44.172]]]}},{"type":"Feature","properties":{"c":"#bd0026","v0":60.0,"v1":75.0},"geometry":{"type":"Polygon","coordinates":[[[-62.9629,42.9851],[-62.9543,43.0093],[-62.92,43.0272],[-62.86,43.0386],[-62.78,43.0384],[-62.68,43.0263],[-62.6189,43.0011],[-62.5966,42.9628],[-62.5916,42.9365],[-62.6039,42.9223],[-62.64,42.9028],[-62.7,42.8779],[-62.775,42.8636],[-62.865,42.86],[-62.9207,42.8613],[-62.942,42.8674],[-62.9563,42.896],[-62.9636,42.9473],[-62.9629,42.9851]],[[-62.9463,42.9835],[-62.9354,43.0046],[-62.905,43.0194],[-62.855,43.0279],[-62.785,43.0275],[-62.695,43.0183],[-62.6409,43.0072],[-62.6226,42.9941],[-62.6111,42.9766],[-62.6063,42.9546],[-62.6354,42.9274],[-62.6985,42.895],[-62.775,42.8766],[-62.865,42.8721],[-62.9169,42.8737],[-62.9308,42.8813],[-62.9412,42.907],[-62.9483,42.951],[-62.9463,42.9835]]]}},{"type":"Feature","properties":{"c":"#bd0026","v0":60.0,"v1":75.0},"geometry":{"type":"Polygon","coordinates":[[[-95.272,37.6081],[-95.244,37.6413],[-95.185,37.6692],[-95.095,37.6919],[-95.02,37.7032],[-94.96,37.7032],[-94.9,37.7273],[-94.84,37.7757],[-94.7939,37.7992],[-94.7617,37.7979],[-94.7457,37.7774],[-94.746,37.7379],[-94.775,37.6944],[-94.8327,37.6469],[-94.8674,37.6073],[-94.8791,37.5756],[-94.9329,37.532],[-95.0289,37.4765],[-95.0782,37.4328],[-95.0809,37.401],[-95.0582,37.3494],[-95.01,37.2778],[-94.992,37.2279],[-95.004,37.1998],[-95.03,37.188],[-95.07,37.1923],[-95.1215,37.2382],[-95.1846,37.3256],[-95.2133,37.3851],[-95.2077,37.4169],[-95.1806,37.4645],[-95.132,37.528],[-95.1079,37.5677],[-95.1083,37.5835],[-95.1189,37.5938],[-95.1396,37.5986],[-95.175,37.5911],[-95.225,37.5715],[-95.259,37.5691],[-95.277,37.584],[-95.272,37.6081]],[[-95.2612,37.5994],[-95.2558,37.6152],[-95.2423,37.6297],[-95.2208,37.6428],[-95.17,37.6592],[-95.09,37.6791],[-95.015,37.6899],[-94.945,37.6919],[-94.885,37.7154],[-94.835,37.7606],[-94.7968,37.7827],[-94.7705,37.7818],[-94.7596,37.7656],[-94.7643,37.734],[-94.7921,37.6984],[-94.8432,37.6588],[-94.8755,37.6231],[-94.8891,37.5914],[-94.9394,37.5521],[-95.0265,37.5052],[-95.0766,37.4735],[-95.0898,37.4569],[-95.0959,37.4288],[-95.0947,37.3891],[-95.0718,37.3374],[-95.027,37.2738],[-95.0109,37.2304],[-95.0236,37.2072],[-95.0427,37.1992],[-95.068,37.2065],[-95.1107,37.2539],[-95.1708,37.3414],[-95.1716,37.4368],[-95.1131,37.5399],[-95.0954,37.5982],[-95.1185,37.6117],[-95.155,37.6087],[-95.205,37.5893],[-95.2385,37.5826],[-95.2555,37.5885],[-95.2612,37.5994]]]}},{"type":"Feature","properties":{"c":"#bd0026","v0":60.0,"v1":75.0},"geometry":{"type":"Polygon","coordinates":[[[-95.4733,37.5549],[-95.4578,37.577],[-95.44,37.5914],[-95.42,37.5982],[-95.3922,37.5911],[-95.3566,37.5702],[-95.3416,37.5507],[-95.3472,37.5326],[-95.365,37.5147],[-95.395,37.497],[-95.4211,37.4902],[-95.4434,37.4943],[-95.4611,37.5082],[-95.4744,37.532],[-95.4733,37.5549]],[[-95.4497,37.5544],[-95.4232,37.5754],[-95.3975,37.5754],[-95.3724,37.5544],[-95.3724,37.5337],[-95.3975,37.5132],[-95.42,37.505],[-95.44,37.5091],[-95.4532,37.5193],[-95.4597,37.5357],[-95.4497,37.5544]]]}},{"type":"Feature","properties":{"c":"#bd0026","v0":60.0,"v1":75.0},"geometry":{"type":"Polygon","coordinates":[[[-95.0664,36.8801],[-95.0555,36.8906],[-95.04,36.8946],[-95.02,36.8921],[-94.9842,36.8709],[-94.9326,36.8308],[-94.9126,36.7774],[-94.9242,36.7105],[-94.955,36.7056],[-95.005,36.7627],[-95.0405,36.8121],[-95.0614,36.8539],[-95.0664,36.8801]]]}},{"type":"Feature","properties":{"c":"#bd0026","v0":60.0,"v1":75.0},"geometry":{"type":"Polygon","coordinates":[[[-96.7397,35.4962],[-96.7332,35.5157],[-96.7085,35.5401],[-96.6656,35.5695],[-96.6223,35.6085],[-96.5788,35.6573],[-96.5606,35.7182],[-96.5679,35.7913],[-96.5823,35.844],[-96.6038,35.8764],[-96.6137,35.9007],[-96.6119,35.9169],[-96.5708,35.9349],[-96.4903,35.9547],[-96.4251,35.9183],[-96.3754,35.8255],[-96.3552,35.7507],[-96.3646,35.6939],[-96.3845,35.6469],[-96.4148,35.6099],[-96.46,35.5812],[-96.52,35.561],[-96.57,35.5255],[-96.61,35.4748],[-96.65,35.4485],[-96.69,35.4466],[-96.7182,35.4558],[-96.7347,35.4763],[-96.7397,35.4962]],[[-96.7242,35.4946],[-96.7186,35.5109],[-96.6926,35.5353],[-96.646,35.5679],[-96.6019,35.6085],[-96.5604,35.6573],[-96.5435,35.7182],[-96.5512,35.7913],[-96.566,35.848],[-96.588,35.8886],[-96.5617,35.9187],[-96.4872,35.9385],[-96.4294,35.9061],[-96.3881,35.8214],[-96.3724,35.7507],[-96.3822,35.6939],[-96.4009,35.6492],[-96.4286,35.6167],[-96.4743,35.5884],[-96.5381,35.5643],[-96.585,35.5306],[-96.615,35.4873],[-96.645,35.4626],[-96.675,35.4566],[-96.6992,35.4618],[-96.7177,35.4783],[-96.7242,35.4946]]]}},{"type":"Feature","properties":{"c":"#bd0026","v0":60.0,"v1":75.0},"geometry":{"type":"Polygon","coordinates":[[[-95.8228,35.515],[-95.8166,35.5394],[-95.7815,35.5882],[-95.7174,35.6614],[-95.6701,35.706],[-95.6395,35.7223],[-95.6107,35.7283],[-95.5836,35.7241],[-95.58,35.6541],[-95.6,35.518],[-95.63,35.4418],[-95.67,35.4255],[-95.715,35.4202],[-95.765,35.426],[-95.7976,35.4351],[-95.8129,35.4476],[-95.8219,35.4661],[-95.8245,35.4905],[-95.8228,35.515]],[[-95.8057,35.515],[-95.7969,35.5394],[-95.7618,35.5864],[-95.7006,35.6559],[-95.6495,35.6965],[-95.6085,35.7083],[-95.5981,35.6492],[-95.6181,35.519],[-95.6436,35.4485],[-95.6745,35.4377],[-95.71,35.4339],[-95.75,35.4371],[-95.7775,35.4425],[-95.7925,35.4501],[-95.8025,35.4661],[-95.8076,35.4905],[-95.8057,35.515]]]}},{"type":"Feature","properties":{"c":"#800026","v0":75.0,"v1":90.0},"geometry":{"type":"Polygon","coordinates":[[[-62.9463,42.9835],[-62.9354,43.0046],[-62.905,43.0194],[-62.855,43.0279],[-62.785,43.0275],[-62.695,43.0183],[-62.6409,43.0072],[-62.6226,42.9941],[-62.6111,42.9766],[-62.6063,42.9546],[-62.6354,42.9274],[-62.6985,42.895],[-62.775,42.8766],[-62.865,42.8721],[-62.9169,42.8737],[-62.9308,42.8813],[-62.9412,42.907],[-62.9483,42.951],[-62.9463,42.9835]],[[-62.8904,42.9793],[-62.8501,42.9921],[-62.792,42.9958],[-62.716,42.9903],[-62.6707,42.9802],[-62.6559,42.9656],[-62.6739,42.946],[-62.7246,42.9215],[-62.78,42.908],[-62.84,42.9056],[-62.875,42.9049],[-62.885,42.9059],[-62.8951,42.9231],[-62.9054,42.9563],[-62.8904,42.9793]]]}},{"type":"Feature","properties":{"c":"#800026","v0":75.0,"v1":90.0},"geometry":{"type":"Polygon","coordinates":[[[-95.2612,37.5994],[-95.2558,37.6152],[-95.2423,37.6297],[-95.2208,37.6428],[-95.17,37.6592],[-95.09,37.6791],[-95.015,37.6899],[-94.945,37.6919],[-94.885,37.7154],[-94.835,37.7606],[-94.7968,37.7827],[-94.7705,37.7818],[-94.7596,37.7656],[-94.7643,37.734],[-94.7921,37.6984],[-94.8432,37.6588],[-94.8755,37.6231],[-94.8891,37.5914],[-94.9394,37.5521],[-95.0265,37.5052],[-95.0766,37.4735],[-95.0898,37.4569],[-95.0959,37.4288],[-95.0947,37.3891],[-95.0718,37.3374],[-95.027,37.2738],[-95.0109,37.2304],[-95.0236,37.2072],[-95.0427,37.1992],[-95.068,37.2065],[-95.1107,37.2539],[-95.1708,37.3414],[-95.1716,37.4368],[-95.1131,37.5399],[-95.0954,37.5982],[-95.1185,37.6117],[-95.155,37.6087],[-95.205,37.5893],[-95.2385,37.5826],[-95.2555,37.5885],[-95.2612,37.5994]]]}},{"type":"Feature","properties":{"c":"#800026","v0":75.0,"v1":90.0},"geometry":{"type":"Polygon","coordinates":[[[-95.4497,37.5544],[-95.4232,37.5754],[-95.3975,37.5754],[-95.3724,37.5544],[-95.3724,37.5337],[-95.3975,37.5132],[-95.42,37.505],[-95.44,37.5091],[-95.4532,37.5193],[-95.4597,37.5357],[-95.4497,37.5544]]]}},{"type":"Feature","properties":{"c":"#800026","v0":75.0,"v1":90.0},"geometry":{"type":"Polygon","coordinates":[[[-96.7242,35.4946],[-96.7186,35.5109],[-96.6926,35.5353],[-96.646,35.5679],[-96.6019,35.6085],[-96.5604,35.6573],[-96.5435,35.7182],[-96.5512,35.7913],[-96.566,35.848],[-96.588,35.8886],[-96.5617,35.9187],[-96.4872,35.9385],[-96.4294,35.9061],[-96.3881,35.8214],[-96.3724,35.7507],[-96.3822,35.6939],[-96.4009,35.6492],[-96.4286,35.6167],[-96.4743,35.5884],[-96.5381,35.5643],[-96.585,35.5306],[-96.615,35.4873],[-96.645,35.4626],[-96.675,35.4566],[-96.6992,35.4618],[-96.7177,35.4783],[-96.7242,35.4946]],[[-96.5307,35.8986],[-96.4902,35.9105],[-96.4531,35.8781],[-96.4192,35.8013],[-96.4042,35.7447],[-96.4081,35.7084],[-96.42,35.6767],[-96.44,35.6497],[-96.47,35.6292],[-96.51,35.6153],[-96.535,35.6104],[-96.5451,35.6146],[-96.5375,35.641],[-96.5122,35.6898],[-96.5124,35.7588],[-96.5381,35.848],[-96.5307,35.8986]],[[-96.6724,35.5068],[-96.6486,35.515],[-96.6419,35.5109],[-96.6525,35.4946],[-96.6645,35.4905],[-96.6777,35.4987],[-96.6724,35.5068]]]}},{"type":"Feature","properties":{"c":"#800026","v0":75.0,"v1":90.0},"geometry":{"type":"Polygon","coordinates":[[[-95.8057,35.515],[-95.7969,35.5394],[-95.7618,35.5864],[-95.7006,35.6559],[-95.6495,35.6965],[-95.6085,35.7083],[-95.5981,35.6492],[-95.6181,35.519],[-95.6436,35.4485],[-95.6745,35.4377],[-95.71,35.4339],[-95.75,35.4371],[-95.7775,35.4425],[-95.7925,35.4501],[-95.8025,35.4661],[-95.8076,35.4905],[-95.8057,35.515]]]}},{"type":"Feature","properties":{"c":"#800026","v0":90.0,"v1":null},"geometry":{"type":"Polygon","coordinates":[[[-62.8904,42.9793],[-62.8501,42.9921],[-62.792,42.9958],[-62.716,42.9903],[-62.6707,42.9802],[-62.6559,42.9656],[-62.6739,42.946],[-62.7246,42.9215],[-62.78,42.908],[-62.84,42.9056],[-62.875,42.9049],[-62.885,42.9059],[-62.8951,42.9231],[-62.9054,42.9563],[-62.8904,42.9793]]]}},{"type":"Feature","properties":{"c":"#800026","v0":90.0,"v1":null},"geometry":{"type":"Polygon","coordinates":[[[-96.5307,35.8986],[-96.4902,35.9105],[-96.4531,35.8781],[-96.4192,35.8013],[-96.4042,35.7447],[-96.4081,35.7084],[-96.42,35.6767],[-96.44,35.6497],[-96.47,35.6292],[-96.51,35.6153],[-96.535,35.6104],[-96.5451,35.6146],[-96.5375,35.641],[-96.5122,35.6898],[-96.5124,35.7588],[-96.5381,35.848],[-96.5307,35.8986]]]}},{"type":"Feature","properties":{"c":"#800026","v0":90.0,"v1":null},"geometry":{"type":"Polygon","coordinates":[[[-96.6724,35.5068],[-96.6486,35.515],[-96.6419,35.5109],[-96.6525,35.4946],[-96.6645,35.4905],[-96.6777,35.4987],[-96.6724,35.5068]]]}}]}