{"type":"FeatureCollection","features":[{"type":"Feature","properties":{"c":"#ffffb2","v0":5.0,"v1":10.0},"geometry":{"type":"Polygon","coordinates":[[[-93.8971,50.8469],[-93.8613,50.8911],[-93.84,50.9306],[-93.8333,50.9655],[-93.8194,50.997],[-93.7981,51.025],[-93.7631,51.05],[-93.7144,51.0719],[-93.665,51.0844],[-93.615,51.0875],[-93.5788,51.0766],[-93.5564,51.0516],[-93.5514,51.0148],[-93.5638,50.9661],[-93.6359,50.9062],[-93.7678,50.8351],[-93.8478,50.7974],[-93.8759,50.7932],[-93.8963,50.7995],[-93.9088,50.8164],[-93.8971,50.8469]]]}},{"type":"Feature","properties":{"c":"#ffffb2","v0":5.0,"v1":10.0},"geometry":{"type":"Polygon","coordinates":[[[-75.6982,32.8473],[-75.6817,32.8641],[-75.6526,32.8798],[-75.6109,32.8943],[-75.565,32.8917],[-75.515,32.8718],[-75.46,32.8657],[-75.4,32.8734],[-75.3626,32.8718],[-75.3478,32.8611],[-75.3405,32.8263],[-75.3407,32.7674],[-75.3686,32.717],[-75.4242,32.6749],[-75.4607,32.6286],[-75.4781,32.578],[-75.4976,32.5447],[-75.5192,32.5285],[-75.555,32.5198],[-75.605,32.5184],[-75.6423,32.5265],[-75.6668,32.544],[-75.6818,32.5655],[-75.6873,32.5911],[-75.6791,32.6333],[-75.6574,32.6919],[-75.6615,32.7506],[-75.6915,32.8095],[-75.6982,32.8473]]]}},{"type":"Feature","properties":{"c":"#ffffb2","v0":5.0,"v1":10.0},"geometry":{"type":"Polygon","coordinates":[[[-81.2142,30.6281],[-81.1847,30.6633],[-81.16,30.682],[-81.14,30.6839],[-81.1228,30.6792],[-81.1084,30.6678],[-81.1134,30.6389],[-81.1378,30.5926],[-81.165,30.569],[-81.195,30.568],[-81.2147,30.5783],[-81.2242,30.5997],[-81.2142,30.6281]]]}},{"type":"Feature","properties":{"c":"#ffffb2","v0":5.0,"v1":10.0},"geometry":{"type":"Polygon","coordinates":[[[-81.1115,30.4859],[-81.0972,30.5125],[-81.07,30.529],[-81.03,30.5355],[-80.955,30.5273],[-80.845,30.5044],[-80.7768,30.4792],[-80.7504,30.4518],[-80.7454,30.4314],[-80.7618,30.4178],[-80.8,30.4157],[-80.86,30.4248],[-80.9141,30.4143],[-80.9622,30.3842],[-80.9972,30.368],[-81.0191,30.3659],[-81.045,30.376],[-81.075,30.3983],[-81.0972,30.4252],[-81.1115,30.4568],[-81.1115,30.4859]]]}},{"type":"Feature","properties":{"c":"#ffffb2","v0":5.0,"v1":10.0},"geometry":{"type":"Polygon","coordinates":[[[-81.3387,30.0814],[-81.3196,30.0937],[-81.295,30.0897],[-81.265,30.0693],[-81.2264,30.0675],[-81.1791,30.0842],[-81.1441,30.1051],[-81.1214,30.1302],[-81.09,30.1427],[-81.05,30.1426],[-81.024,30.1344],[-81.0121,30.1181],[-81.0021,30.0793],[-80.994,30.0181],[-80.93,29.978],[-80.81,29.959],[-80.705,29.9128],[-80.615,29.8392],[-80.55,29.8105],[-80.51,29.8268],[-80.47,29.833],[-80.43,29.8293],[-80.39,29.8466],[-80.35,29.8851],[-80.2904,29.9124],[-80.2113,29.9286],[-80.1113,29.9884],[-79.9904,30.0915],[-79.9138,30.1391],[-79.8815,30.1312],[-79.8565,30.1026],[-79.8388,30.0532],[-79.81,30.0198],[-79.77,30.0021],[-79.735,29.9786],[-79.705,29.9491],[-79.65,29.952],[-79.57,29.9871],[-79.5,29.9995],[-79.44,29.9892],[-79.4029,29.9766],[-79.3887,29.9616],[-79.3866,29.9411],[-79.3964,29.9151],[-79.4177,29.8891],[-79.4505,29.863],[-79.4708,29.8283],[-79.4787,29.785],[-79.4894,29.7557],[-79.5031,29.7407],[-79.528,29.732],[-79.5641,29.7297],[-79.6041,29.7428],[-79.648,29.7713],[-79.68,29.7839],[-79.7,29.7806],[-79.74,29.7503],[-79.8,29.6931],[-79.88,29.6548],[-79.98,29.6353],[-80.0563,29.6122],[-80.1088,29.5855],[-80.1405,29.5677],[-80.1516,29.559],[-80.1419,29.5329],[-80.1114,29.4894],[-80.1096,29.46],[-80.1365,29.4446],[-80.1674,29.4489],[-80.2021,29.473],[-80.2094,29.5068],[-80.1893,29.5503],[-80.1904,29.5982],[-80.2127,29.6503],[-80.2304,29.6802],[-80.2435,29.6877],[-80.285,29.6841],[-80.355,29.6693],[-80.43,29.6765],[-80.51,29.7054],[-80.565,29.713],[-80.595,29.6991],[-80.6425,29.6882],[-80.7074,29.6803],[-80.7874,29.6447],[-80.8825,29.5814],[-80.94,29.5522],[-80.96,29.5572],[-80.98,29.5735],[-81.0,29.6011],[-81.025,29.6041],[-81.055,29.5824],[-81.083,29.5717],[-81.1089,29.572],[-81.1265,29.5808],[-81.1357,29.5982],[-81.1359,29.6286],[-81.127,29.6721],[-81.158,29.7068],[-81.2288,29.7329],[-81.2588,29.7893],[-81.2482,29.876],[-81.2506,29.9411],[-81.2662,29.9844],[-81.2926,30.0234],[-81.3297,30.058],[-81.3387,30.0814]]]}},{"type":"Feature","properties":{"c":"#ffffb2","v0":5.0,"v1":10.0},"geometry":{"type":"Polygon","coordinates":[[[-83.3175,28.3823],[-83.3053,28.4175],[-83.2618,28.4609],[-83.1873,28.5125],[-83.125,28.5404],[-83.075,28.5447],[-83.015,28.519],[-82.9449,28.463],[-82.904,28.3867],[-82.8924,28.2898],[-82.9025,28.2299],[-82.9342,28.2068],[-83.01,28.1918],[-83.13,28.185],[-83.2091,28.1921],[-83.2474,28.2132],[-83.2808,28.259],[-83.3094,28.3295],[-83.3175,28.3823]],[[-83.2966,28.3823],[-83.2804,28.4175],[-83.2417,28.4559],[-83.1806,28.4975],[-83.125,28.5208],[-83.075,28.5259],[-83.0178,28.5007],[-82.9535,28.4452],[-82.9179,28.3735],[-82.9113,28.2854],[-82.9185,28.2342],[-82.9395,28.2198],[-83.01,28.2093],[-83.13,28.2025],[-83.2068,28.2097],[-83.2403,28.2308],[-83.269,28.2722],[-83.2928,28.3339],[-83.2966,28.3823]]]}},{"type":"Feature","properties":{"c":"#ffffb2","v0":5.0,"v1":10.0},"geometry":{"type":"Polygon","coordinates":[[[-84.1018,28.1533],[-84.084,28.1885],[-84.0484,28.2194],[-83.9951,28.2458],[-83.9667,28.2634],[-83.9632,28.2722],[-83.9833,28.2986],[-84.027,28.3427],[-84.0449,28.3779],[-84.0372,28.4043],[-84.0175,28.4264],[-83.9858,28.4443],[-83.93,28.4562],[-83.85,28.4619],[-83.7981,28.453],[-83.7743,28.4293],[-83.7618,28.3911],[-83.7606,28.3383],[-83.7325,28.307],[-83.6775,28.2973],[-83.6405,28.2841],[-83.6215,28.2674],[-83.6139,28.237],[-83.6178,28.1929],[-83.6322,28.1637],[-83.6574,28.1494],[-83.7,28.1465],[-83.76,28.155],[-83.855,28.1404],[-83.985,28.1027],[-84.06,28.0863],[-84.08,28.0911],[-84.0952,28.1041],[-84.1055,28.1251],[-84.1018,28.1533]],[[-84.0761,28.1488],[-84.0636,28.1753],[-84.0254,28.2061],[-83.9617,28.2414],[-83.9293,28.2678],[-83.9283,28.2854],[-83.951,28.3119],[-83.9976,28.3471],[-84.0182,28.3747],[-84.0127,28.3947],[-83.9937,28.4123],[-83.9611,28.4275],[-83.9111,28.4355],[-83.8437,28.4363],[-83.8039,28.4275],[-83.7916,28.4091],[-83.7852,28.3735],[-83.7846,28.3207],[-83.7557,28.2885],[-83.6986,28.277],[-83.6615,28.2638],[-83.6446,28.2489],[-83.6375,28.2282],[-83.6402,28.2017],[-83.6487,28.1834],[-83.6629,28.1731],[-83.7,28.172],[-83.76,28.1801],[-83.855,28.1654],[-83.985,28.1279],[-84.0581,28.1158],[-84.0743,28.129],[-84.0761,28.1488]]]}},{"type":"Feature","properties":{"c":"#ffffb2","v0":5.0,"v1":10.0},"geometry":{"type":"Polygon","coordinates":[[[-78.5754,28.3427],[-78.5628,28.3691],[-78.5399,28.3874],[-78.5066,28.3978],[-78.475,28.3828],[-78.445,28.3425],[-78.4,28.3277],[-78.34,28.3386],[-78.295,28.3387],[-78.265,28.3282],[-78.2404,28.3025],[-78.2212,28.2618],[-78.2262,28.1977],[-78.2554,28.1103],[-78.285,28.0668],[-78.315,28.0672],[-78.35,28.0917],[-78.39,28.1403],[-78.43,28.1647],[-78.47,28.1649],[-78.5,28.1702],[-78.52,28.1805],[-78.5429,28.2216],[-78.5688,28.2935],[-78.5754,28.3427]],[[-78.5284,28.335],[-78.5161,28.3462],[-78.5,28.3375],[-78.48,28.309],[-78.46,28.2903],[-78.44,28.2814],[-78.3933,28.2812],[-78.3199,28.2899],[-78.2775,28.2766],[-78.2662,28.2414],[-78.2729,28.1978],[-78.2976,28.1458],[-78.33,28.1405],[-78.37,28.1817],[-78.415,28.2051],[-78.465,28.2106],[-78.5011,28.2424],[-78.5234,28.3005],[-78.5284,28.335]]]}},{"type":"Feature","properties":{"c":"#ffffb2","v0":5.0,"v1":10.0},"geometry":{"type":"Polygon","coordinates":[[[-88.9509,27.7779],[-88.9451,27.8044],[-88.9271,27.8309],[-88.8969,27.8575],[-88.8818,27.8928],[-88.8817,27.937],[-88.8637,27.9807],[-88.8279,28.0238],[-88.795,28.0536],[-88.765,28.07],[-88.735,28.0749],[-88.705,28.0683],[-88.681,28.0562],[-88.663,28.0386],[-88.648,28.008],[-88.636,27.9645],[-88.6091,27.9557],[-88.5673,27.9815],[-88.5578,28.0253],[-88.5808,28.0871],[-88.5617,28.133],[-88.5006,28.1631],[-88.455,28.1742],[-88.425,28.1662],[-88.3961,28.1423],[-88.3684,28.1026],[-88.3245,28.0606],[-88.2643,28.0165],[-88.2251,27.9812],[-88.2067,27.9547],[-88.1965,27.9282],[-88.1944,27.9017],[-88.1994,27.8796],[-88.2114,27.8619],[-88.2406,27.8333],[-88.2869,27.7939],[-88.345,27.7653],[-88.415,27.7473],[-88.4744,27.7006],[-88.5233,27.6252],[-88.5633,27.58],[-88.5944,27.5652],[-88.63,27.558],[-88.67,27.5583],[-88.75,27.5773],[-88.87,27.6147],[-88.9359,27.6662],[-88.9478,27.7318],[-88.9509,27.7779]],[[-88.9324,27.7823],[-88.918,27.8177],[-88.8952,27.8442],[-88.8638,27.8619],[-88.8524,27.8928],[-88.8608,27.937],[-88.8506,27.9768],[-88.8218,28.0121],[-88.7931,28.0382],[-88.7644,28.055],[-88.7344,28.0594],[-88.7033,28.0514],[-88.681,28.0342],[-88.6675,28.0077],[-88.6636,27.9723],[-88.6691,27.9282],[-88.6664,27.905],[-88.6555,27.9029],[-88.6162,27.925],[-88.5486,27.9713],[-88.5306,28.0165],[-88.5621,28.0606],[-88.5767,28.0915],[-88.5746,28.1092],[-88.5476,28.1294],[-88.4959,28.1523],[-88.455,28.1582],[-88.425,28.1471],[-88.3967,28.1224],[-88.37,28.0842],[-88.3267,28.043],[-88.2667,27.9988],[-88.2296,27.9635],[-88.2152,27.937],[-88.211,27.9105],[-88.2169,27.884],[-88.2396,27.853],[-88.2791,27.8177],[-88.3397,27.7867],[-88.4215,27.7602],[-88.4848,27.7115],[-88.5298,27.6406],[-88.5717,27.5957],[-88.6106,27.5769],[-88.67,27.5761],[-88.75,27.5935],[-88.815,27.6141],[-88.865,27.6381],[-88.9024,27.6787],[-88.9272,27.736],[-88.9324,27.7823]]]}},{"type":"Feature","properties":{"c":"#ffffb2","v0":5.0,"v1":10.0},"geometry":{"type":"Polygon","coordinates":[[[-78.9757,27.937],[-78.9665,27.9635],[-78.9439,27.9861],[-78.908,28.0049],[-78.8829,28.0314],[-78.8686,28.0656],[-78.8536,28.0876],[-78.8379,28.0974],[-78.78,28.0942],[-78.68,28.0779],[-78.605,28.0574],[-78.555,28.0328],[-78.4942,27.9654],[-78.4227,27.8551],[-78.391,27.7779],[-78.3991,27.7336],[-78.3919,27.6893],[-78.3694,27.645],[-78.3646,27.6007],[-78.3773,27.5564],[-78.4052,27.5222],[-78.4484,27.498],[-78.485,27.5082],[-78.515,27.5525],[-78.565,27.5715],[-78.635,27.565],[-78.695,27.5727],[-78.745,27.5945],[-78.7778,27.6231],[-78.7934,27.6584],[-78.7865,27.7115],[-78.757,27.7823],[-78.7491,27.8336],[-78.763,27.8654],[-78.78,27.8835],[-78.8,27.8879],[-78.825,27.8809],[-78.855,27.8626],[-78.88,27.8539],[-78.9,27.8546],[-78.9249,27.8633],[-78.9546,27.88],[-78.9722,27.8972],[-78.9776,27.9149],[-78.9757,27.937]],[[-78.9569,27.9327],[-78.9523,27.9504],[-78.93,27.9704],[-78.89,27.9924],[-78.8648,28.0188],[-78.8543,28.0496],[-78.8393,28.0705],[-78.8198,28.0814],[-78.765,28.0779],[-78.675,28.0599],[-78.605,28.0377],[-78.555,28.0113],[-78.4997,27.9486],[-78.4391,27.8495],[-78.4091,27.7897],[-78.4097,27.7692],[-78.4204,27.747],[-78.4411,27.7233],[-78.4336,27.6938],[-78.3978,27.6583],[-78.3873,27.614],[-78.4022,27.5609],[-78.4247,27.5283],[-78.4549,27.5164],[-78.485,27.5346],[-78.515,27.5827],[-78.56,27.6006],[-78.62,27.5883],[-78.6774,27.5923],[-78.7323,27.6127],[-78.7635,27.645],[-78.771,27.6893],[-78.7696,27.7247],[-78.7593,27.7513],[-78.743,27.7734],[-78.7209,27.7911],[-78.7194,27.8221],[-78.7384,27.8663],[-78.7635,27.8942],[-78.7945,27.9058],[-78.825,27.9022],[-78.855,27.8832],[-78.88,27.8738],[-78.9,27.8739],[-78.9223,27.8864],[-78.9469,27.9113],[-78.9569,27.9327]]]}},{"type":"Feature","properties":{"c":"#ffffb2","v0":5.0,"v1":10.0},"geometry":{"type":"Polygon","coordinates":[[[-94.6022,27.478],[-94.5807,27.5074],[-94.535,27.5333],[-94.465,27.5557],[-94.395,27.5603],[-94.325,27.547],[-94.27,27.5185],[-94.23,27.4749],[-94.19,27.4627],[-94.15,27.4818],[-94.115,27.4895],[-94.085,27.4858],[-94.0569,27.4699],[-94.0307,27.4418],[-94.0081,27.3834],[-93.989,27.2946],[-93.984,27.2323],[-93.993,27.1967],[-94.0156,27.168],[-94.0519,27.146],[-94.14,27.1512],[-94.28,27.1836],[-94.3675,27.2212],[-94.4026,27.2642],[-94.4554,27.299],[-94.526,27.3257],[-94.5742,27.3701],[-94.6,27.4322],[-94.6022,27.478]],[[-94.5885,27.4776],[-94.5628,27.5063],[-94.515,27.5298],[-94.445,27.5482],[-94.38,27.55],[-94.32,27.5352],[-94.27,27.5045],[-94.23,27.4581],[-94.19,27.446],[-94.15,27.4681],[-94.115,27.4775],[-94.085,27.4741],[-94.0604,27.4613],[-94.0411,27.4389],[-94.0225,27.3878],[-94.0045,27.3079],[-93.9997,27.2457],[-94.0081,27.2012],[-94.0267,27.171],[-94.0556,27.155],[-94.135,27.1608],[-94.265,27.1885],[-94.3416,27.2098],[-94.3647,27.2248],[-94.3847,27.2475],[-94.4016,27.2778],[-94.445,27.3058],[-94.515,27.3313],[-94.5628,27.3739],[-94.5885,27.4335],[-94.5885,27.4776]]]}},{"type":"Feature","properties":{"c":"#ffffb2","v0":5.0,"v1":10.0},"geometry":{"type":"Polygon","coordinates":[[[-78.9058,27.3593],[-78.8819,27.4],[-78.85,27.4276],[-78.81,27.4421],[-78.775,27.4645],[-78.745,27.4948],[-78.72,27.5088],[-78.7,27.5064],[-78.691,27.4814],[-78.6929,27.4338],[-78.7111,27.4012],[-78.7456,27.3834],[-78.7677,27.3656],[-78.7774,27.3479],[-78.7702,27.3212],[-78.7461,27.2857],[-78.736,27.259],[-78.7398,27.2412],[-78.7788,27.2398],[-78.8529,27.2547],[-78.8969,27.2813],[-78.9108,27.3198],[-78.9058,27.3593]]]}},{"type":"Feature","properties":{"c":"#ffffb2","v0":5.0,"v1":10.0},"geometry":{"type":"Polygon","coordinates":[[[-93.7437,27.3567],[-93.737,27.3923],[-93.7227,27.4197],[-93.7009,27.439],[-93.65,27.4523],[-93.57,27.4596],[-93.515,27.4694],[-93.485,27.4819],[-93.435,27.48],[-93.365,27.4637],[-93.3162,27.4398],[-93.2885,27.4081],[-93.2758,27.3656],[-93.2779,27.3123],[-93.3018,27.27],[-93.3473,27.2386],[-93.3779,27.1986],[-93.3937,27.1499],[-93.4187,27.1176],[-93.4529,27.1018],[-93.5,27.0994],[-93.56,27.1105],[-93.6024,27.1363],[-93.6273,27.1766],[-93.6605,27.2101],[-93.702,27.2368],[-93.7288,27.2723],[-93.741,27.3168],[-93.7437,27.3567]],[[-93.7322,27.3567],[-93.7244,27.3923],[-93.7129,27.4168],[-93.6976,27.4304],[-93.635,27.4469],[-93.525,27.4665],[-93.435,27.4679],[-93.365,27.4513],[-93.3187,27.4258],[-93.296,27.3916],[-93.29,27.3479],[-93.3006,27.2946],[-93.3244,27.259],[-93.3613,27.2412],[-93.3895,27.2056],[-93.4091,27.1523],[-93.4366,27.1199],[-93.4722,27.1086],[-93.515,27.1101],[-93.565,27.1245],[-93.5981,27.148],[-93.6144,27.1805],[-93.6473,27.2145],[-93.6968,27.2501],[-93.7252,27.2857],[-93.7325,27.3212],[-93.7322,27.3567]]]}},{"type":"Feature","properties":{"c":"#ffffb2","v0":5.0,"v1":10.0},"geometry":{"type":"Polygon","coordinates":[[[-95.1084,27.1235],[-95.0961,27.1548],[-95.06,27.1818],[-95.0,27.2042],[-94.945,27.256],[-94.895,27.3371],[-94.845,27.3846],[-94.795,27.3984],[-94.7542,27.3976],[-94.7225,27.3822],[-94.7015,27.3612],[-94.691,27.3345],[-94.6878,27.3034],[-94.6917,27.2679],[-94.7228,27.2221],[-94.7809,27.166],[-94.865,27.1117],[-94.975,27.0592],[-95.045,27.036],[-95.075,27.042],[-95.0961,27.0607],[-95.1084,27.0921],[-95.1084,27.1235]],[[-95.0848,27.1189],[-95.0749,27.1413],[-95.04,27.1641],[-94.98,27.1873],[-94.925,27.2399],[-94.875,27.3218],[-94.83,27.3674],[-94.79,27.3769],[-94.7585,27.3754],[-94.7355,27.363],[-94.7234,27.3301],[-94.7222,27.2768],[-94.7455,27.2279],[-94.7932,27.1834],[-94.8403,27.1538],[-94.8868,27.139],[-94.935,27.1132],[-94.985,27.0764],[-95.025,27.0593],[-95.055,27.0619],[-95.0749,27.0744],[-95.0848,27.0966],[-95.0848,27.1189]]]}},{"type":"Feature","properties":{"c":"#ffffb2","v0":5.0,"v1":10.0},"geometry":{"type":"Polygon","coordinates":[[[-83.1666,27.122],[-83.0889,27.1861],[-83.03,27.2165],[-82.99,27.2131],[-82.9554,27.1944],[-82.9261,27.1604],[-82.9187,27.1167],[-82.933,27.0632],[-82.9327,26.9964],[-82.9178,26.9162],[-82.9252,26.8535],[-82.9551,26.8084],[-82.9799,26.7548],[-82.9996,26.6928],[-83.0246,26.6487],[-83.0549,26.6227],[-83.085,26.6123],[-83.115,26.6176],[-83.1362,26.6306],[-83.1487,26.6514],[-83.1422,26.702],[-83.1167,26.7824],[-83.1163,26.8448],[-83.141,26.8894],[-83.1264,26.9474],[-83.0725,27.0187],[-83.0716,27.049],[-83.1239,27.0385],[-83.1613,27.0385],[-83.1838,27.049],[-83.1976,27.0632],[-83.2028,27.0811],[-83.1666,27.122]],[[-83.1416,27.1175],[-83.0672,27.1727],[-83.015,27.1967],[-82.985,27.1895],[-82.9605,27.1708],[-82.9416,27.1406],[-82.9407,27.1033],[-82.9579,27.0588],[-82.9583,26.9964],[-82.9419,26.9162],[-82.949,26.8538],[-82.9795,26.8091],[-83.0048,26.7556],[-83.0248,26.693],[-83.0486,26.6535],[-83.0762,26.637],[-83.101,26.6414],[-83.1229,26.6669],[-83.1204,26.7198],[-83.0936,26.8002],[-83.0922,26.8582],[-83.1163,26.8939],[-83.0994,26.9474],[-83.0415,27.0187],[-83.0219,27.0631],[-83.0406,27.0805],[-83.075,27.0807],[-83.125,27.0637],[-83.1572,27.0639],[-83.1716,27.0813],[-83.1416,27.1175]]]}},{"type":"Feature","properties":{"c":"#ffffb2","v0":5.0,"v1":10.0},"geometry":{"type":"Polygon","coordinates":[[[-96.4235,26.7824],[-96.3905,26.8448],[-96.348,26.8834],[-96.296,26.8981],[-96.2376,26.8937],[-96.1727,26.87],[-96.0927,26.862],[-95.9976,26.8696],[-95.93,26.8677],[-95.89,26.8564],[-95.8619,26.8303],[-95.8458,26.7894],[-95.8575,26.7466],[-95.897,26.702],[-95.8801,26.6756],[-95.8067,26.6677],[-95.725,26.6924],[-95.635,26.7498],[-95.5713,26.7717],[-95.5338,26.758],[-95.5052,26.7332],[-95.4855,26.6975],[-95.4957,26.6484],[-95.5357,26.5858],[-95.5793,26.5377],[-95.6264,26.5043],[-95.7,26.4827],[-95.8,26.473],[-95.9,26.4842],[-96.0,26.516],[-96.09,26.5321],[-96.17,26.5323],[-96.2275,26.5513],[-96.2624,26.5892],[-96.3137,26.6305],[-96.3815,26.6752],[-96.4215,26.7109],[-96.4338,26.7377],[-96.4235,26.7824]],[[-96.4141,26.7779],[-96.389,26.8315],[-96.3549,26.8675],[-96.3116,26.8859],[-96.25,26.8834],[-96.17,26.86],[-96.085,26.8521],[-95.995,26.8597],[-95.935,26.8603],[-95.905,26.8539],[-95.8822,26.8436],[-95.8665,26.8296],[-95.8569,26.8091],[-95.8533,26.7824],[-95.8799,26.7466],[-95.9365,26.702],[-95.9611,26.6764],[-95.9537,26.6698],[-95.905,26.6629],[-95.815,26.6557],[-95.725,26.6807],[-95.635,26.738],[-95.575,26.7622],[-95.545,26.7533],[-95.5198,26.7316],[-95.4994,26.697],[-95.5057,26.6528],[-95.5388,26.5992],[-95.574,26.5571],[-95.6113,26.5266],[-95.65,26.5033],[-95.69,26.487],[-95.74,26.4783],[-95.8,26.4774],[-95.88,26.493],[-95.98,26.5252],[-96.075,26.542],[-96.165,26.5434],[-96.225,26.5617],[-96.255,26.597],[-96.3022,26.6353],[-96.3666,26.6768],[-96.4058,26.7109],[-96.4196,26.7377],[-96.4141,26.7779]]]}},{"type":"Feature","properties":{"c":"#ffffb2","v0":5.0,"v1":10.0},"geometry":{"type":"Polygon","coordinates":[[[-94.9272,24.0914],[-94.8916,24.1553],[-94.8879,24.223],[-94.916,24.2947],[-94.93,24.3577],[-94.93,24.4121],[-94.905,24.4321],[-94.855,24.418],[-94.78,24.415],[-94.68,24.4231],[-94.6089,24.4401],[-94.5668,24.4659],[-94.5368,24.4778],[-94.5189,24.4758],[-94.4949,24.444],[-94.4648,24.3822],[-94.4561,24.324],[-94.4689,24.2693],[-94.537,24.1644],[-94.6605,24.0092],[-94.7391,23.9224],[-94.7729,23.9041],[-94.7998,23.8979],[-94.8199,23.9039],[-94.85,23.9223],[-94.89,23.9532],[-94.9188,23.9913],[-94.9363,24.0367],[-94.9272,24.0914]]]}},{"type":"Feature","properties":{"c":"#fed976","v0":10.0,"v1":20.0},"geometry":{"type":"Polygon","coordinates":[[[-83.2966,28.3823],[-83.2804,28.4175],[-83.2417,28.4559],[-83.1806,28.4975],[-83.125,28.5208],[-83.075,28.5259],[-83.0178,28.5007],[-82.9535,28.4452],[-82.9179,28.3735],[-82.9113,28.2854],[-82.9185,28.2342],[-82.9395,28.2198],[-83.01,28.2093],[-83.13,28.2025],[-83.2068,28.2097],[-83.2403,28.2308],[-83.269,28.2722],[-83.2928,28.3339],[-83.2966,28.3823]],[[-83.2641,28.3752],[-83.2547,28.3962],[-83.22,28.4277],[-83.16,28.4699],[-83.115,28.493],[-83.085,28.4972],[-83.043,28.4788],[-82.9891,28.4379],[-82.9582,28.3779],[-82.9504,28.2986],[-82.955,28.2546],[-82.9722,28.2458],[-83.0081,28.2438],[-83.0627,28.2486],[-83.115,28.2468],[-83.165,28.2384],[-83.2,28.2421],[-83.22,28.258],[-83.2397,28.2906],[-83.2591,28.34],[-83.2641,28.3752]]]}},{"type":"Feature","properties":{"c":"#fed976","v0":10.0,"v1":20.0},"geometry":{"type":"Polygon","coordinates":[[[-84.0761,28.1488],[-84.0636,28.1753],[-84.0254,28.2061],[-83.9617,28.2414],[-83.9293,28.2678],[-83.9283,28.2854],[-83.951,28.3119],[-83.9976,28.3471],[-84.0182,28.3747],[-84.0127,28.3947],[-83.9937,28.4123],[-83.9611,28.4275],[-83.9111,28.4355],[-83.8437,28.4363],[-83.8039,28.4275],[-83.7916,28.4091],[-83.7852,28.3735],[-83.7846,28.3207],[-83.7557,28.2885],[-83.6986,28.277],[-83.6615,28.2638],[-83.6446,28.2489],[-83.6375,28.2282],[-83.6402,28.2017],[-83.6487,28.1834],[-83.6629,28.1731],[-83.7,28.172],[-83.76,28.1801],[-83.855,28.1654],[-83.985,28.1279],[-84.0581,28.1158],[-84.0743,28.129],[-84.0761,28.1488]]]}},{"type":"Feature","properties":{"c":"#fed976","v0":10.0,"v1":20.0},"geometry":{"type":"Polygon","coordinates":[[[-78.5284,28.335],[-78.5161,28.3462],[-78.5,28.3375],[-78.48,28.309],[-78.46,28.2903],[-78.44,28.2814],[-78.3933,28.2812],[-78.3199,28.2899],[-78.2775,28.2766],[-78.2662,28.2414],[-78.2729,28.1978],[-78.2976,28.1458],[-78.33,28.1405],[-78.37,28.1817],[-78.415,28.2051],[-78.465,28.2106],[-78.5011,28.2424],[-78.5234,28.3005],[-78.5284,28.335]]]}},{"type":"Feature","properties":{"c":"#fed976","v0":10.0,"v1":20.0},"geometry":{"type":"Polygon","coordinates":[[[-88.9324,27.7823],[-88.918,27.8177],[-88.8952,27.8442],[-88.8638,27.8619],[-88.8524,27.8928],[-88.8608,27.937],[-88.8506,27.9768],[-88.8218,28.0121],[-88.7931,28.0382],[-88.7644,28.055],[-88.7344,28.0594],[-88.7033,28.0514],[-88.681,28.0342],[-88.6675,28.0077],[-88.6636,27.9723],[-88.6691,27.9282],[-88.6664,27.905],[-88.6555,27.9029],[-88.6162,27.925],[-88.5486,27.9713],[-88.5306,28.0165],[-88.5621,28.0606],[-88.5767,28.0915],[-88.5746,28.1092],[-88.5476,28.1294],[-88.4959,28.1523],[-88.455,28.1582],[-88.425,28.1471],[-88.3967,28.1224],[-88.37,28.0842],[-88.3267,28.043],[-88.2667,27.9988],[-88.2296,27.9635],[-88.2152,27.937],[-88.211,27.9105],[-88.2169,27.884],[-88.2396,27.853],[-88.2791,27.8177],[-88.3397,27.7867],[-88.4215,27.7602],[-88.4848,27.7115],[-88.5298,27.6406],[-88.5717,27.5957],[-88.6106,27.5769],[-88.67,27.5761],[-88.75,27.5935],[-88.815,27.6141],[-88.865,27.6381],[-88.9024,27.6787],[-88.9272,27.736],[-88.9324,27.7823]],[[-88.911,27.7795],[-88.897,27.8094],[-88.8697,27.8315],[-88.829,27.8459],[-88.8184,27.8751],[-88.8376,27.9193],[-88.828,27.9646],[-88.7893,28.011],[-88.76,28.0366],[-88.74,28.0414],[-88.72,28.0373],[-88.7,28.0242],[-88.6941,27.9898],[-88.7023,27.934],[-88.6973,27.8991],[-88.6791,27.8851],[-88.66,27.8794],[-88.64,27.882],[-88.61,27.9006],[-88.57,27.9353],[-88.5291,27.9587],[-88.4873,27.9707],[-88.4646,27.9812],[-88.4611,27.99],[-88.4772,28.0077],[-88.5129,28.0342],[-88.5366,28.0606],[-88.5482,28.0871],[-88.533,28.111],[-88.491,28.1324],[-88.46,28.1402],[-88.44,28.1345],[-88.419,28.115],[-88.3971,28.0817],[-88.3558,28.043],[-88.2951,27.9988],[-88.2561,27.9635],[-88.2389,27.937],[-88.2312,27.9149],[-88.233,27.8972],[-88.258,27.8669],[-88.306,27.8239],[-88.3657,27.793],[-88.4372,27.774],[-88.4972,27.728],[-88.5457,27.6547],[-88.585,27.6103],[-88.615,27.5947],[-88.6807,27.6003],[-88.7821,27.6272],[-88.8489,27.6539],[-88.8812,27.6805],[-88.9025,27.7115],[-88.9128,27.7469],[-88.911,27.7795]]]}},{"type":"Feature","properties":{"c":"#fed976","v0":10.0,"v1":20.0},"geometry":{"type":"Polygon","coordinates":[[[-78.9569,27.9327],[-78.9523,27.9504],[-78.93,27.9704],[-78.89,27.9924],[-78.8648,28.0188],[-78.8543,28.0496],[-78.8393,28.0705],[-78.8198,28.0814],[-78.765,28.0779],[-78.675,28.0599],[-78.605,28.0377],[-78.555,28.0113],[-78.4997,27.9486],[-78.4391,27.8495],[-78.4091,27.7897],[-78.4097,27.7692],[-78.4204,27.747],[-78.4411,27.7233],[-78.4336,27.6938],[-78.3978,27.6583],[-78.3873,27.614],[-78.4022,27.5609],[-78.4247,27.5283],[-78.4549,27.5164],[-78.485,27.5346],[-78.515,27.5827],[-78.56,27.6006],[-78.62,27.5883],[-78.6774,27.5923],[-78.7323,27.6127],[-78.7635,27.645],[-78.771,27.6893],[-78.7696,27.7247],[-78.7593,27.7513],[-78.743,27.7734],[-78.7209,27.7911],[-78.7194,27.8221],[-78.7384,27.8663],[-78.7635,27.8942],[-78.7945,27.9058],[-78.825,27.9022],[-78.855,27.8832],[-78.88,27.8738],[-78.9,27.8739],[-78.9223,27.8864],[-78.9469,27.9113],[-78.9569,27.9327]],[[-78.8038,27.99],[-78.788,28.0165],[-78.7426,28.0221],[-78.6675,28.0069],[-78.61,27.9857],[-78.57,27.9583],[-78.5288,27.9041],[-78.4864,27.8229],[-78.4864,27.7693],[-78.5288,27.7435],[-78.5536,27.7125],[-78.5608,27.6764],[-78.5708,27.6546],[-78.5836,27.6471],[-78.605,27.6411],[-78.635,27.6365],[-78.666,27.6402],[-78.698,27.6523],[-78.7147,27.6716],[-78.7161,27.6982],[-78.6999,27.7247],[-78.6659,27.7513],[-78.6475,27.7779],[-78.6448,27.8044],[-78.6601,27.8454],[-78.6934,27.9009],[-78.7354,27.9407],[-78.7862,27.9647],[-78.8038,27.99]]]}},{"type":"Feature","properties":{"c":"#fed976","v0":10.0,"v1":20.0},"geometry":{"type":"Polygon","coordinates":[[[-94.5885,27.4776],[-94.5628,27.5063],[-94.515,27.5298],[-94.445,27.5482],[-94.38,27.55],[-94.32,27.5352],[-94.27,27.5045],[-94.23,27.4581],[-94.19,27.446],[-94.15,27.4681],[-94.115,27.4775],[-94.085,27.4741],[-94.0604,27.4613],[-94.0411,27.4389],[-94.0225,27.3878],[-94.0045,27.3079],[-93.9997,27.2457],[-94.0081,27.2012],[-94.0267,27.171],[-94.0556,27.155],[-94.135,27.1608],[-94.265,27.1885],[-94.3416,27.2098],[-94.3647,27.2248],[-94.3847,27.2475],[-94.4016,27.2778],[-94.445,27.3058],[-94.515,27.3313],[-94.5628,27.3739],[-94.5885,27.4335],[-94.5885,27.4776]],[[-94.5764,27.4605],[-94.5588,27.4905],[-94.52,27.5153],[-94.46,27.5347],[-94.395,27.5361],[-94.325,27.5194],[-94.275,27.4866],[-94.245,27.4376],[-94.205,27.4262],[-94.155,27.4526],[-94.12,27.4656],[-94.1,27.4653],[-94.0777,27.4514],[-94.053,27.4238],[-94.0325,27.3701],[-94.016,27.2901],[-94.0105,27.2368],[-94.016,27.2101],[-94.0316,27.188],[-94.0572,27.1704],[-94.135,27.1755],[-94.265,27.2033],[-94.3469,27.2387],[-94.3808,27.2819],[-94.4341,27.3168],[-94.507,27.3434],[-94.5538,27.379],[-94.5748,27.4233],[-94.5764,27.4605]]]}},{"type":"Feature","properties":{"c":"#fed976","v0":10.0,"v1":20.0},"geometry":{"type":"Polygon","coordinates":[[[-93.7322,27.3567],[-93.7244,27.3923],[-93.7129,27.4168],[-93.6976,27.4304],[-93.635,27.4469],[-93.525,27.4665],[-93.435,27.4679],[-93.365,27.4513],[-93.3187,27.4258],[-93.296,27.3916],[-93.29,27.3479],[-93.3006,27.2946],[-93.3244,27.259],[-93.3613,27.2412],[-93.3895,27.2056],[-93.4091,27.1523],[-93.4366,27.1199],[-93.4722,27.1086],[-93.515,27.1101],[-93.565,27.1245],[-93.5981,27.148],[-93.6144,27.1805],[-93.6473,27.2145],[-93.6968,27.2501],[-93.7252,27.2857],[-93.7325,27.3212],[-93.7322,27.3567]],[[-93.7197,27.3523],[-93.7155,27.379],[-93.7026,27.4019],[-93.6809,27.4212],[-93.615,27.4389],[-93.505,27.4549],[-93.42,27.4541],[-93.36,27.4363],[-93.3222,27.4142],[-93.3067,27.3877],[-93.3019,27.3523],[-93.3077,27.3079],[-93.3305,27.276],[-93.3702,27.2567],[-93.4,27.2191],[-93.42,27.1631],[-93.445,27.1302],[-93.475,27.1205],[-93.513,27.1226],[-93.5589,27.1364],[-93.5889,27.1593],[-93.603,27.191],[-93.6335,27.2221],[-93.6805,27.2526],[-93.7085,27.2857],[-93.7174,27.3212],[-93.7197,27.3523]]]}},{"type":"Feature","properties":{"c":"#fed976","v0":10.0,"v1":20.0},"geometry":{"type":"Polygon","coordinates":[[[-95.0848,27.1189],[-95.0749,27.1413],[-95.04,27.1641],[-94.98,27.1873],[-94.925,27.2399],[-94.875,27.3218],[-94.83,27.3674],[-94.79,27.3769],[-94.7585,27.3754],[-94.7355,27.363],[-94.7234,27.3301],[-94.7222,27.2768],[-94.7455,27.2279],[-94.7932,27.1834],[-94.8403,27.1538],[-94.8868,27.139],[-94.935,27.1132],[-94.985,27.0764],[-95.025,27.0593],[-95.055,27.0619],[-95.0749,27.0744],[-95.0848,27.0966],[-95.0848,27.1189]]]}},{"type":"Feature","properties":{"c":"#fed976","v0":10.0,"v1":20.0},"geometry":{"type":"Polygon","coordinates":[[[-83.1416,27.1175],[-83.0672,27.1727],[-83.015,27.1967],[-82.985,27.1895],[-82.9605,27.1708],[-82.9416,27.1406],[-82.9407,27.1033],[-82.9579,27.0588],[-82.9583,26.9964],[-82.9419,26.9162],[-82.949,26.8538],[-82.9795,26.8091],[-83.0048,26.7556],[-83.0248,26.693],[-83.0486,26.6535],[-83.0762,26.637],[-83.101,26.6414],[-83.1229,26.6669],[-83.1204,26.7198],[-83.0936,26.8002],[-83.0922,26.8582],[-83.1163,26.8939],[-83.0994,26.9474],[-83.0415,27.0187],[-83.0219,27.0631],[-83.0406,27.0805],[-83.075,27.0807],[-83.125,27.0637],[-83.1572,27.0639],[-83.1716,27.0813],[-83.1416,27.1175]]]}},{"type":"Feature","properties":{"c":"#fed976","v0":10.0,"v1":20.0},"geometry":{"type":"Polygon","coordinates":[[[-96.4141,26.7779],[-96.389,26.8315],[-96.3549,26.8675],[-96.3116,26.8859],[-96.25,26.8834],[-96.17,26.86],[-96.085,26.8521],[-95.995,26.8597],[-95.935,26.8603],[-95.905,26.8539],[-95.8822,26.8436],[-95.8665,26.8296],[-95.8569,26.8091],[-95.8533,26.7824],[-95.8799,26.7466],[-95.9365,26.702],[-95.9611,26.6764],[-95.9537,26.6698],[-95.905,26.6629],[-95.815,26.6557],[-95.725,26.6807],[-95.635,26.738],[-95.575,26.7622],[-95.545,26.7533],[-95.5198,26.7316],[-95.4994,26.697],[-95.5057,26.6528],[-95.5388,26.5992],[-95.574,26.5571],[-95.6113,26.5266],[-95.65,26.5033],[-95.69,26.487],[-95.74,26.4783],[-95.8,26.4774],[-95.88,26.493],[-95.98,26.5252],[-96.075,26.542],[-96.165,26.5434],[-96.225,26.5617],[-96.255,26.597],[-96.3022,26.6353],[-96.3666,26.6768],[-96.4058,26.7109],[-96.4196,26.7377],[-96.4141,26.7779]],[[-96.397,26.7779],[-96.3697,26.8315],[-96.3396,26.8645],[-96.3065,26.8769],[-96.255,26.8717],[-96.185,26.8488],[-96.1,26.8407],[-96.0,26.8475],[-95.935,26.8467],[-95.905,26.8384],[-95.8841,26.818],[-95.8723,26.7853],[-95.8931,26.7511],[-95.9466,26.7154],[-95.9725,26.685],[-95.9708,26.66],[-95.92,26.6448],[-95.82,26.6393],[-95.725,26.6658],[-95.635,26.724],[-95.5755,26.7482],[-95.5465,26.7382],[-95.5246,26.7198],[-95.51,26.693],[-95.5203,26.6528],[-95.5556,26.5992],[-95.5974,26.5553],[-95.6458,26.5213],[-95.715,26.501],[-95.805,26.4944],[-95.895,26.5081],[-95.985,26.542],[-96.07,26.5568],[-96.15,26.5524],[-96.208,26.5691],[-96.2439,26.6071],[-96.2862,26.6394],[-96.3348,26.6662],[-96.3719,26.6975],[-96.3977,26.7332],[-96.397,26.7779]]]}},{"type":"Feature","properties":{"c":"#feb24c","v0":20.0,"v1":30.0},"geometry":{"type":"Polygon","coordinates":[[[-83.2641,28.3752],[-83.2547,28.3962],[-83.22,28.4277],[-83.16,28.4699],[-83.115,28.493],[-83.085,28.4972],[-83.043,28.4788],[-82.9891,28.4379],[-82.9582,28.3779],[-82.9504,28.2986],[-82.955,28.2546],[-82.9722,28.2458],[-83.0081,28.2438],[-83.0627,28.2486],[-83.115,28.2468],[-83.165,28.2384],[-83.2,28.2421],[-83.22,28.258],[-83.2397,28.2906],[-83.2591,28.34],[-83.2641,28.3752]]]}},{"type":"Feature","properties":{"c":"#feb24c","v0":20.0,"v1":30.0},"geometry":{"type":"Polygon","coordinates":[[[-88.911,27.7795],[-88.897,27.8094],[-88.8697,27.8315],[-88.829,27.8459],[-88.8184,27.8751],[-88.8376,27.9193],[-88.828,27.9646],[-88.7893,28.011],[-88.76,28.0366],[-88.74,28.0414],[-88.72,28.0373],[-88.7,28.0242],[-88.6941,27.9898],[-88.7023,27.934],[-88.6973,27.8991],[-88.6791,27.8851],[-88.66,27.8794],[-88.64,27.882],[-88.61,27.9006],[-88.57,27.9353],[-88.5291,27.9587],[-88.4873,27.9707],[-88.4646,27.9812],[-88.4611,27.99],[-88.4772,28.0077],[-88.5129,28.0342],[-88.5366,28.0606],[-88.5482,28.0871],[-88.533,28.111],[-88.491,28.1324],[-88.46,28.1402],[-88.44,28.1345],[-88.419,28.115],[-88.3971,28.0817],[-88.3558,28.043],[-88.2951,27.9988],[-88.2561,27.9635],[-88.2389,27.937],[-88.2312,27.9149],[-88.233,27.8972],[-88.258,27.8669],[-88.306,27.8239],[-88.3657,27.793],[-88.4372,27.774],[-88.4972,27.728],[-88.5457,27.6547],[-88.585,27.6103],[-88.615,27.5947],[-88.6807,27.6003],[-88.7821,27.6272],[-88.8489,27.6539],[-88.8812,27.6805],[-88.9025,27.7115],[-88.9128,27.7469],[-88.911,27.7795]],[[-88.8925,27.7734],[-88.8857,27.7911],[-88.8556,27.8132],[-88.8021,27.8398],[-88.7874,27.8751],[-88.8114,27.9193],[-88.8051,27.9611],[-88.7684,28.0004],[-88.739,28.0136],[-88.7169,28.0008],[-88.7138,27.9723],[-88.7297,27.9282],[-88.7208,27.8936],[-88.6869,27.8685],[-88.66,27.8561],[-88.64,27.8562],[-88.605,27.8771],[-88.555,27.9188],[-88.505,27.9456],[-88.455,27.9575],[-88.43,27.9753],[-88.43,27.999],[-88.4541,28.0288],[-88.5022,28.0647],[-88.5172,28.0915],[-88.4991,28.1092],[-88.4798,28.118],[-88.4593,28.118],[-88.4369,28.1003],[-88.4125,28.065],[-88.3637,28.0165],[-88.2904,27.9547],[-88.2559,27.9149],[-88.2601,27.8972],[-88.2831,27.8707],[-88.3249,27.8354],[-88.3818,27.8076],[-88.4539,27.7874],[-88.515,27.7402],[-88.565,27.666],[-88.6,27.6234],[-88.62,27.6126],[-88.6784,27.6199],[-88.7751,27.6455],[-88.8384,27.6716],[-88.8683,27.6982],[-88.8864,27.7247],[-88.8927,27.7513],[-88.8925,27.7734]]]}},{"type":"Feature","properties":{"c":"#feb24c","v0":20.0,"v1":30.0},"geometry":{"type":"Polygon","coordinates":[[[-78.8038,27.99],[-78.788,28.0165],[-78.7426,28.0221],[-78.6675,28.0069],[-78.61,27.9857],[-78.57,27.9583],[-78.5288,27.9041],[-78.4864,27.8229],[-78.4864,27.7693],[-78.5288,27.7435],[-78.5536,27.7125],[-78.5608,27.6764],[-78.5708,27.6546],[-78.5836,27.6471],[-78.605,27.6411],[-78.635,27.6365],[-78.666,27.6402],[-78.698,27.6523],[-78.7147,27.6716],[-78.7161,27.6982],[-78.6999,27.7247],[-78.6659,27.7513],[-78.6475,27.7779],[-78.6448,27.8044],[-78.6601,27.8454],[-78.6934,27.9009],[-78.7354,27.9407],[-78.7862,27.9647],[-78.8038,27.99]]]}},{"type":"Feature","properties":{"c":"#feb24c","v0":20.0,"v1":30.0},"geometry":{"type":"Polygon","coordinates":[[[-94.5764,27.4605],[-94.5588,27.4905],[-94.52,27.5153],[-94.46,27.5347],[-94.395,27.5361],[-94.325,27.5194],[-94.275,27.4866],[-94.245,27.4376],[-94.205,27.4262],[-94.155,27.4526],[-94.12,27.4656],[-94.1,27.4653],[-94.0777,27.4514],[-94.053,27.4238],[-94.0325,27.3701],[-94.016,27.2901],[-94.0105,27.2368],[-94.016,27.2101],[-94.0316,27.188],[-94.0572,27.1704],[-94.135,27.1755],[-94.265,27.2033],[-94.3469,27.2387],[-94.3808,27.2819],[-94.4341,27.3168],[-94.507,27.3434],[-94.5538,27.379],[-94.5748,27.4233],[-94.5764,27.4605]],[[-94.563,27.4604],[-94.541,27.4902],[-94.5,27.5125],[-94.44,27.5273],[-94.3802,27.5258],[-94.3207,27.5078],[-94.2757,27.4726],[-94.2452,27.4201],[-94.205,27.4093],[-94.155,27.4401],[-94.12,27.4553],[-94.1,27.4548],[-94.0806,27.4435],[-94.0618,27.4212],[-94.0439,27.3701],[-94.027,27.2901],[-94.0219,27.2368],[-94.0285,27.2101],[-94.0464,27.1908],[-94.0755,27.179],[-94.15,27.1868],[-94.27,27.2141],[-94.345,27.2487],[-94.375,27.2905],[-94.425,27.3232],[-94.495,27.3468],[-94.541,27.3803],[-94.563,27.4238],[-94.563,27.4604]]]}},{"type":"Feature","properties":{"c":"#feb24c","v0":20.0,"v1":30.0},"geometry":{"type":"Polygon","coordinates":[[[-93.7197,27.3523],[-93.7155,27.379],[-93.7026,27.4019],[-93.6809,27.4212],[-93.615,27.4389],[-93.505,27.4549],[-93.42,27.4541],[-93.36,27.4363],[-93.3222,27.4142],[-93.3067,27.3877],[-93.3019,27.3523],[-93.3077,27.3079],[-93.3305,27.276],[-93.3702,27.2567],[-93.4,27.2191],[-93.42,27.1631],[-93.445,27.1302],[-93.475,27.1205],[-93.513,27.1226],[-93.5589,27.1364],[-93.5889,27.1593],[-93.603,27.191],[-93.6335,27.2221],[-93.6805,27.2526],[-93.7085,27.2857],[-93.7174,27.3212],[-93.7197,27.3523]],[[-93.7083,27.3523],[-93.7037,27.379],[-93.6935,27.3992],[-93.6778,27.4132],[-93.615,27.4284],[-93.505,27.445],[-93.42,27.4437],[-93.36,27.4244],[-93.3251,27.4048],[-93.3154,27.3846],[-93.3141,27.3523],[-93.3212,27.3079],[-93.3445,27.2768],[-93.3839,27.259],[-93.4102,27.2255],[-93.4234,27.1763],[-93.445,27.1452],[-93.475,27.1323],[-93.51,27.131],[-93.55,27.1414],[-93.5778,27.1636],[-93.5935,27.1976],[-93.6237,27.2279],[-93.6683,27.2546],[-93.6956,27.2857],[-93.7056,27.3212],[-93.7083,27.3523]]]}},{"type":"Feature","properties":{"c":"#feb24c","v0":20.0,"v1":30.0},"geometry":{"type":"Polygon","coordinates":[[[-96.397,26.7779],[-96.3697,26.8315],[-96.3396,26.8645],[-96.3065,26.8769],[-96.255,26.8717],[-96.185,26.8488],[-96.1,26.8407],[-96.0,26.8475],[-95.935,26.8467],[-95.905,26.8384],[-95.8841,26.818],[-95.8723,26.7853],[-95.8931,26.7511],[-95.9466,26.7154],[-95.9725,26.685],[-95.9708,26.66],[-95.92,26.6448],[-95.82,26.6393],[-95.725,26.6658],[-95.635,26.724],[-95.5755,26.7482],[-95.5465,26.7382],[-95.5246,26.7198],[-95.51,26.693],[-95.5203,26.6528],[-95.5556,26.5992],[-95.5974,26.5553],[-95.6458,26.5213],[-95.715,26.501],[-95.805,26.4944],[-95.895,26.5081],[-95.985,26.542],[-96.07,26.5568],[-96.15,26.5524],[-96.208,26.5691],[-96.2439,26.6071],[-96.2862,26.6394],[-96.3348,26.6662],[-96.3719,26.6975],[-96.3977,26.7332],[-96.397,26.7779]],[[-96.3892,26.7734],[-96.3684,26.8181],[-96.341,26.8485],[-96.307,26.8649],[-96.255,26.8618],[-96.185,26.8393],[-96.1,26.8313],[-96.0,26.8377],[-95.9355,26.8363],[-95.9064,26.8271],[-95.8875,26.8136],[-95.8789,26.7958],[-95.8784,26.778],[-95.8861,26.7605],[-95.9171,26.7337],[-95.9713,26.6977],[-95.9913,26.6675],[-95.9771,26.6432],[-95.945,26.6346],[-95.895,26.6417],[-95.845,26.6402],[-95.795,26.6301],[-95.725,26.6546],[-95.635,26.7138],[-95.5797,26.7409],[-95.559,26.7358],[-95.54,26.7198],[-95.5228,26.693],[-95.5322,26.6528],[-95.5682,26.5992],[-95.6021,26.5608],[-95.634,26.5378],[-95.665,26.5201],[-95.695,26.5078],[-95.74,26.501],[-95.8,26.4999],[-95.865,26.508],[-95.935,26.5252],[-95.9847,26.5435],[-96.014,26.5627],[-96.069,26.5695],[-96.1497,26.5637],[-96.205,26.5779],[-96.235,26.6122],[-96.275,26.6433],[-96.325,26.6712],[-96.3624,26.7016],[-96.3872,26.7346],[-96.3892,26.7734]]]}},{"type":"Feature","properties":{"c":"#fd8d3c","v0":30.0,"v1":40.0},"geometry":{"type":"Polygon","coordinates":[[[-88.8925,27.7734],[-88.8857,27.7911],[-88.8556,27.8132],[-88.8021,27.8398],[-88.7874,27.8751],[-88.8114,27.9193],[-88.8051,27.9611],[-88.7684,28.0004],[-88.739,28.0136],[-88.7169,28.0008],[-88.7138,27.9723],[-88.7297,27.9282],[-88.7208,27.8936],[-88.6869,27.8685],[-88.66,27.8561],[-88.64,27.8562],[-88.605,27.8771],[-88.555,27.9188],[-88.505,27.9456],[-88.455,27.9575],[-88.43,27.9753],[-88.43,27.999],[-88.4541,28.0288],[-88.5022,28.0647],[-88.5172,28.0915],[-88.4991,28.1092],[-88.4798,28.118],[-88.4593,28.118],[-88.4369,28.1003],[-88.4125,28.065],[-88.3637,28.0165],[-88.2904,27.9547],[-88.2559,27.9149],[-88.2601,27.8972],[-88.2831,27.8707],[-88.3249,27.8354],[-88.3818,27.8076],[-88.4539,27.7874],[-88.515,27.7402],[-88.565,27.666],[-88.6,27.6234],[-88.62,27.6126],[-88.6784,27.6199],[-88.7751,27.6455],[-88.8384,27.6716],[-88.8683,27.6982],[-88.8864,27.7247],[-88.8927,27.7513],[-88.8925,27.7734]]]}},{"type":"Feature","properties":{"c":"#fd8d3c","v0":30.0,"v1":40.0},"geometry":{"type":"Polygon","coordinates":[[[-94.563,27.4604],[-94.541,27.4902],[-94.5,27.5125],[-94.44,27.5273],[-94.3802,27.5258],[-94.3207,27.5078],[-94.2757,27.4726],[-94.2452,27.4201],[-94.205,27.4093],[-94.155,27.4401],[-94.12,27.4553],[-94.1,27.4548],[-94.0806,27.4435],[-94.0618,27.4212],[-94.0439,27.3701],[-94.027,27.2901],[-94.0219,27.2368],[-94.0285,27.2101],[-94.0464,27.1908],[-94.0755,27.179],[-94.15,27.1868],[-94.27,27.2141],[-94.345,27.2487],[-94.375,27.2905],[-94.425,27.3232],[-94.495,27.3468],[-94.541,27.3803],[-94.563,27.4238],[-94.563,27.4604]],[[-94.5553,27.4579],[-94.5384,27.4825],[-94.5,27.5028],[-94.44,27.5187],[-94.3838,27.5197],[-94.3314,27.5058],[-94.2864,27.4694],[-94.2488,27.4107],[-94.205,27.3975],[-94.155,27.4298],[-94.12,27.4456],[-94.1,27.4449],[-94.083,27.4359],[-94.069,27.4186],[-94.0537,27.3701],[-94.0369,27.2901],[-94.0324,27.2368],[-94.0402,27.2101],[-94.0556,27.1932],[-94.0785,27.1861],[-94.1469,27.195],[-94.2608,27.2199],[-94.335,27.2546],[-94.3697,27.299],[-94.4227,27.3336],[-94.4942,27.3584],[-94.5384,27.3895],[-94.5553,27.4269],[-94.5553,27.4579]]]}},{"type":"Feature","properties":{"c":"#fd8d3c","v0":30.0,"v1":40.0},"geometry":{"type":"Polygon","coordinates":[[[-93.7083,27.3523],[-93.7037,27.379],[-93.6935,27.3992],[-93.6778,27.4132],[-93.615,27.4284],[-93.505,27.445],[-93.42,27.4437],[-93.36,27.4244],[-93.3251,27.4048],[-93.3154,27.3846],[-93.3141,27.3523],[-93.3212,27.3079],[-93.3445,27.2768],[-93.3839,27.259],[-93.4102,27.2255],[-93.4234,27.1763],[-93.445,27.1452],[-93.475,27.1323],[-93.51,27.131],[-93.55,27.1414],[-93.5778,27.1636],[-93.5935,27.1976],[-93.6237,27.2279],[-93.6683,27.2546],[-93.6956,27.2857],[-93.7056,27.3212],[-93.7083,27.3523]],[[-93.6936,27.3568],[-93.6779,27.3924],[-93.615,27.4186],[-93.505,27.4353],[-93.425,27.4366],[-93.375,27.4226],[-93.3425,27.4053],[-93.3274,27.3848],[-93.3224,27.3548],[-93.3275,27.3153],[-93.35,27.2863],[-93.39,27.2678],[-93.4163,27.2342],[-93.429,27.1855],[-93.449,27.1544],[-93.4763,27.1408],[-93.51,27.1407],[-93.55,27.1541],[-93.575,27.1747],[-93.585,27.2026],[-93.615,27.2331],[-93.665,27.2664],[-93.6929,27.297],[-93.6986,27.325],[-93.6936,27.3568]]]}},{"type":"Feature","properties":{"c":"#fd8d3c","v0":30.0,"v1":40.0},"geometry":{"type":"Polygon","coordinates":[[[-96.3892,26.7734],[-96.3684,26.8181],[-96.341,26.8485],[-96.307,26.8649],[-96.255,26.8618],[-96.185,26.8393],[-96.1,26.8313],[-96.0,26.8377],[-95.9355,26.8363],[-95.9064,26.8271],[-95.8875,26.8136],[-95.8789,26.7958],[-95.8784,26.778],[-95.8861,26.7605],[-95.9171,26.7337],[-95.9713,26.6977],[-95.9913,26.6675],[-95.9771,26.6432],[-95.945,26.6346],[-95.895,26.6417],[-95.845,26.6402],[-95.795,26.6301],[-95.725,26.6546],[-95.635,26.7138],[-95.5797,26.7409],[-95.559,26.7358],[-95.54,26.7198],[-95.5228,26.693],[-95.5322,26.6528],[-95.5682,26.5992],[-95.6021,26.5608],[-95.634,26.5378],[-95.665,26.5201],[-95.695,26.5078],[-95.74,26.501],[-95.8,26.4999],[-95.865,26.508],[-95.935,26.5252],[-95.9847,26.5435],[-96.014,26.5627],[-96.069,26.5695],[-96.1497,26.5637],[-96.205,26.5779],[-96.235,26.6122],[-96.275,26.6433],[-96.325,26.6712],[-96.3624,26.7016],[-96.3872,26.7346],[-96.3892,26.7734]],[[-96.3781,26.7734],[-96.3563,26.8181],[-96.3316,26.8465],[-96.3039,26.8587],[-96.255,26.8534],[-96.185,26.8308],[-96.0893,26.8202],[-95.9678,26.8218],[-95.9028,26.8087],[-95.8943,26.7809],[-95.9198,26.7452],[-95.9793,26.7015],[-96.0043,26.6606],[-95.9948,26.6225],[-95.97,26.6118],[-95.93,26.6285],[-95.875,26.6316],[-95.805,26.6212],[-95.725,26.6456],[-95.635,26.7048],[-95.58,26.7317],[-95.56,26.7263],[-95.5434,26.7127],[-95.5303,26.6906],[-95.5424,26.6528],[-95.5797,26.5992],[-95.6162,26.5604],[-95.6521,26.5365],[-95.71,26.5203],[-95.79,26.5117],[-95.865,26.5168],[-95.935,26.5355],[-95.98,26.5567],[-96.0,26.5805],[-96.035,26.585],[-96.085,26.5702],[-96.13,26.5647],[-96.17,26.5684],[-96.2397,26.6155],[-96.3392,26.7059],[-96.3781,26.7734]]]}},{"type":"Feature","properties":{"c":"#fc4e2a","v0":40.0,"v1":50.0},"geometry":{"type":"Polygon","coordinates":[[[-94.5553,27.4579],[-94.5384,27.4825],[-94.5,27.5028],[-94.44,27.5187],[-94.3838,27.5197],[-94.3314,27.5058],[-94.2864,27.4694],[-94.2488,27.4107],[-94.205,27.3975],[-94.155,27.4298],[-94.12,27.4456],[-94.1,27.4449],[-94.083,27.4359],[-94.069,27.4186],[-94.0537,27.3701],[-94.0369,27.2901],[-94.0324,27.2368],[-94.0402,27.2101],[-94.0556,27.1932],[-94.0785,27.1861],[-94.1469,27.195],[-94.2608,27.2199],[-94.335,27.2546],[-94.3697,27.299],[-94.4227,27.3336],[-94.4942,27.3584],[-94.5384,27.3895],[-94.5553,27.4269],[-94.5553,27.4579]],[[-94.5412,27.4588],[-94.5157,27.4855],[-94.4747,27.5036],[-94.4182,27.5134],[-94.3671,27.5089],[-94.3213,27.4903],[-94.2813,27.4532],[-94.2471,27.3977],[-94.205,27.3865],[-94.155,27.4197],[-94.12,27.4357],[-94.1,27.4343],[-94.0786,27.3789],[-94.0559,27.2693],[-94.0559,27.2088],[-94.0786,27.1972],[-94.145,27.2032],[-94.255,27.2267],[-94.3251,27.2592],[-94.3552,27.3005],[-94.4078,27.3345],[-94.483,27.3612],[-94.5289,27.3923],[-94.5456,27.4278],[-94.5412,27.4588]]]}},{"type":"Feature","properties":{"c":"#fc4e2a","v0":40.0,"v1":50.0},"geometry":{"type":"Polygon","coordinates":[[[-93.6936,27.3568],[-93.6779,27.3924],[-93.615,27.4186],[-93.505,27.4353],[-93.425,27.4366],[-93.375,27.4226],[-93.3425,27.4053],[-93.3274,27.3848],[-93.3224,27.3548],[-93.3275,27.3153],[-93.35,27.2863],[-93.39,27.2678],[-93.4163,27.2342],[-93.429,27.1855],[-93.449,27.1544],[-93.4763,27.1408],[-93.51,27.1407],[-93.55,27.1541],[-93.575,27.1747],[-93.585,27.2026],[-93.615,27.2331],[-93.665,27.2664],[-93.6929,27.297],[-93.6986,27.325],[-93.6936,27.3568]],[[-93.6888,27.3523],[-93.6815,27.379],[-93.6709,27.3963],[-93.657,27.4043],[-93.6,27.4149],[-93.5,27.428],[-93.425,27.4271],[-93.375,27.4123],[-93.3448,27.3973],[-93.3344,27.3821],[-93.3311,27.3567],[-93.3347,27.3212],[-93.3563,27.2946],[-93.3956,27.2768],[-93.4233,27.2412],[-93.4392,27.1879],[-93.4578,27.1564],[-93.4793,27.147],[-93.507,27.147],[-93.5409,27.1564],[-93.5659,27.1789],[-93.582,27.2144],[-93.6127,27.2455],[-93.658,27.2723],[-93.6837,27.299],[-93.6895,27.3257],[-93.6888,27.3523]]]}},{"type":"Feature","properties":{"c":"#fc4e2a","v0":40.0,"v1":50.0},"geometry":{"type":"Polygon","coordinates":[[[-96.3781,26.7734],[-96.3563,26.8181],[-96.3316,26.8465],[-96.3039,26.8587],[-96.255,26.8534],[-96.185,26.8308],[-96.0893,26.8202],[-95.9678,26.8218],[-95.9028,26.8087],[-95.8943,26.7809],[-95.9198,26.7452],[-95.9793,26.7015],[-96.0043,26.6606],[-95.9948,26.6225],[-95.97,26.6118],[-95.93,26.6285],[-95.875,26.6316],[-95.805,26.6212],[-95.725,26.6456],[-95.635,26.7048],[-95.58,26.7317],[-95.56,26.7263],[-95.5434,26.7127],[-95.5303,26.6906],[-95.5424,26.6528],[-95.5797,26.5992],[-95.6162,26.5604],[-95.6521,26.5365],[-95.71,26.5203],[-95.79,26.5117],[-95.865,26.5168],[-95.935,26.5355],[-95.98,26.5567],[-96.0,26.5805],[-96.035,26.585],[-96.085,26.5702],[-96.13,26.5647],[-96.17,26.5684],[-96.2397,26.6155],[-96.3392,26.7059],[-96.3781,26.7734]],[[-95.966,26.5858],[-95.9395,26.6126],[-95.8821,26.6232],[-95.794,26.6176],[-95.715,26.641],[-95.645,26.6936],[-95.6,26.7208],[-95.58,26.7228],[-95.5621,26.7172],[-95.5462,26.7041],[-95.5381,26.6886],[-95.5378,26.6707],[-95.5557,26.6394],[-95.5919,26.5948],[-95.635,26.5588],[-95.685,26.5314],[-95.745,26.5175],[-95.815,26.5173],[-95.8823,26.5309],[-95.947,26.5586],[-95.966,26.5858]],[[-96.3672,26.7734],[-96.3443,26.8181],[-96.3221,26.8444],[-96.3007,26.8524],[-96.255,26.8452],[-96.185,26.8227],[-96.095,26.8143],[-95.985,26.82],[-95.9212,26.8138],[-95.9035,26.7958],[-95.9005,26.7779],[-95.9123,26.76],[-95.942,26.7377],[-95.9896,26.7109],[-96.0148,26.6752],[-96.0176,26.6305],[-96.0468,26.5983],[-96.1023,26.5787],[-96.145,26.5718],[-96.175,26.5776],[-96.2372,26.6231],[-96.3315,26.7085],[-96.3672,26.7734]]]}},{"type":"Feature","properties":{"c":"#e31a1c","v0":50.0,"v1":60.0},"geometry":{"type":"Polygon","coordinates":[[[-94.5412,27.4588],[-94.5157,27.4855],[-94.4747,27.5036],[-94.4182,27.5134],[-94.3671,27.5089],[-94.3213,27.4903],[-94.2813,27.4532],[-94.2471,27.3977],[-94.205,27.3865],[-94.155,27.4197],[-94.12,27.4357],[-94.1,27.4343],[-94.0786,27.3789],[-94.0559,27.2693],[-94.0559,27.2088],[-94.0786,27.1972],[-94.145,27.2032],[-94.255,27.2267],[-94.3251,27.2592],[-94.3552,27.3005],[-94.4078,27.3345],[-94.483,27.3612],[-94.5289,27.3923],[-94.5456,27.4278],[-94.5412,27.4588]],[[-94.5245,27.4596],[-94.4882,27.4879],[-94.44,27.5019],[-94.38,27.5018],[-94.34,27.4962],[-94.32,27.4851],[-94.2981,27.4533],[-94.2743,27.4008],[-94.2543,27.3707],[-94.2381,27.363],[-94.1985,27.3763],[-94.1355,27.4106],[-94.0909,27.3878],[-94.0648,27.3079],[-94.0533,27.2546],[-94.0564,27.2279],[-94.066,27.2113],[-94.082,27.2048],[-94.145,27.2131],[-94.255,27.2364],[-94.325,27.2695],[-94.355,27.3122],[-94.405,27.3447],[-94.475,27.3668],[-94.5182,27.3948],[-94.5345,27.4286],[-94.5245,27.4596]]]}},{"type":"Feature","properties":{"c":"#e31a1c","v0":50.0,"v1":60.0},"geometry":{"type":"Polygon","coordinates":[[[-93.6888,27.3523],[-93.6815,27.379],[-93.6709,27.3963],[-93.657,27.4043],[-93.6,27.4149],[-93.5,27.428],[-93.425,27.4271],[-93.375,27.4123],[-93.3448,27.3973],[-93.3344,27.3821],[-93.3311,27.3567],[-93.3347,27.3212],[-93.3563,27.2946],[-93.3956,27.2768],[-93.4233,27.2412],[-93.4392,27.1879],[-93.4578,27.1564],[-93.4793,27.147],[-93.507,27.147],[-93.5409,27.1564],[-93.5659,27.1789],[-93.582,27.2144],[-93.6127,27.2455],[-93.658,27.2723],[-93.6837,27.299],[-93.6895,27.3257],[-93.6888,27.3523]],[[-93.6739,27.3538],[-93.658,27.3834],[-93.6,27.4048],[-93.5,27.4179],[-93.425,27.4166],[-93.375,27.4008],[-93.3471,27.3839],[-93.3412,27.3658],[-93.3411,27.3434],[-93.3469,27.3168],[-93.3699,27.2946],[-93.4103,27.2768],[-93.4354,27.2451],[-93.4451,27.1996],[-93.46,27.1706],[-93.48,27.1583],[-93.505,27.1561],[-93.535,27.164],[-93.5566,27.184],[-93.5697,27.2162],[-93.5995,27.2457],[-93.6462,27.2723],[-93.6726,27.299],[-93.6788,27.3257],[-93.6739,27.3538]]]}},{"type":"Feature","properties":{"c":"#e31a1c","v0":50.0,"v1":60.0},"geometry":{"type":"Polygon","coordinates":[[[-96.3672,26.7734],[-96.3443,26.8181],[-96.3221,26.8444],[-96.3007,26.8524],[-96.255,26.8452],[-96.185,26.8227],[-96.095,26.8143],[-95.985,26.82],[-95.9212,26.8138],[-95.9035,26.7958],[-95.9005,26.7779],[-95.9123,26.76],[-95.942,26.7377],[-95.9896,26.7109],[-96.0148,26.6752],[-96.0176,26.6305],[-96.0468,26.5983],[-96.1023,26.5787],[-96.145,26.5718],[-96.175,26.5776],[-96.2372,26.6231],[-96.3315,26.7085],[-96.3672,26.7734]],[[-96.3585,26.7705],[-96.3395,26.8092],[-96.32,26.8332],[-96.3,26.8426],[-96.25,26.8358],[-96.17,26.8128],[-96.085,26.805],[-95.995,26.8124],[-95.9389,26.8087],[-95.9166,26.7941],[-95.932,26.769],[-95.985,26.7332],[-96.0175,26.6886],[-96.0295,26.635],[-96.0592,26.6005],[-96.1064,26.5853],[-96.1447,26.5808],[-96.1741,26.5871],[-96.1991,26.6043],[-96.2197,26.6325],[-96.2535,26.6593],[-96.3006,26.6848],[-96.335,26.7109],[-96.357,26.7377],[-96.3585,26.7705]]]}},{"type":"Feature","properties":{"c":"#e31a1c","v0":50.0,"v1":60.0},"geometry":{"type":"Polygon","coordinates":[[[-95.966,26.5858],[-95.9395,26.6126],[-95.8821,26.6232],[-95.794,26.6176],[-95.715,26.641],[-95.645,26.6936],[-95.6,26.7208],[-95.58,26.7228],[-95.5621,26.7172],[-95.5462,26.7041],[-95.5381,26.6886],[-95.5378,26.6707],[-95.5557,26.6394],[-95.5919,26.5948],[-95.635,26.5588],[-95.685,26.5314],[-95.745,26.5175],[-95.815,26.5173],[-95.8823,26.5309],[-95.947,26.5586],[-95.966,26.5858]],[[-95.9507,26.5843],[-95.9236,26.608],[-95.875,26.6143],[-95.805,26.603],[-95.73,26.6254],[-95.65,26.6815],[-95.5947,26.7066],[-95.5642,26.7005],[-95.5487,26.6886],[-95.5482,26.6707],[-95.5635,26.6426],[-95.5945,26.6041],[-95.635,26.5704],[-95.685,26.5414],[-95.745,26.5267],[-95.815,26.5263],[-95.8786,26.5377],[-95.9357,26.5608],[-95.9507,26.5843]]]}},{"type":"Feature","properties":{"c":"#bd0026","v0":60.0,"v1":75.0},"geometry":{"type":"Polygon","coordinates":[[[-94.5245,27.4596],[-94.4882,27.4879],[-94.44,27.5019],[-94.38,27.5018],[-94.34,27.4962],[-94.32,27.4851],[-94.2981,27.4533],[-94.2743,27.4008],[-94.2543,27.3707],[-94.2381,27.363],[-94.1985,27.3763],[-94.1355,27.4106],[-94.0909,27.3878],[-94.0648,27.3079],[-94.0533,27.2546],[-94.0564,27.2279],[-94.066,27.2113],[-94.082,27.2048],[-94.145,27.2131],[-94.255,27.2364],[-94.325,27.2695],[-94.355,27.3122],[-94.405,27.3447],[-94.475,27.3668],[-94.5182,27.3948],[-94.5345,27.4286],[-94.5245,27.4596]],[[-94.5017,27.456],[-94.4672,27.4768],[-94.425,27.4859],[-94.375,27.4833],[-94.34,27.4734],[-94.32,27.4563],[-94.3017,27.4249],[-94.285,27.3795],[-94.265,27.3523],[-94.2417,27.3433],[-94.2,27.3551],[-94.14,27.3874],[-94.1013,27.3608],[-94.084,27.2752],[-94.1326,27.2412],[-94.2471,27.259],[-94.3158,27.2873],[-94.3386,27.326],[-94.385,27.3563],[-94.455,27.378],[-94.4972,27.4031],[-94.5117,27.4314],[-94.5017,27.456]]]}},{"type":"Feature","properties":{"c":"#bd0026","v0":60.0,"v1":75.0},"geometry":{"type":"Polygon","coordinates":[[[-93.6739,27.3538],[-93.658,27.3834],[-93.6,27.4048],[-93.5,27.4179],[-93.425,27.4166],[-93.375,27.4008],[-93.3471,27.3839],[-93.3412,27.3658],[-93.3411,27.3434],[-93.3469,27.3168],[-93.3699,27.2946],[-93.4103,27.2768],[-93.4354,27.2451],[-93.4451,27.1996],[-93.46,27.1706],[-93.48,27.1583],[-93.505,27.1561],[-93.535,27.164],[-93.5566,27.184],[-93.5697,27.2162],[-93.5995,27.2457],[-93.6462,27.2723],[-93.6726,27.299],[-93.6788,27.3257],[-93.6739,27.3538]],[[-93.653,27.3499],[-93.6377,27.3716],[-93.585,27.3876],[-93.495,27.398],[-93.43,27.3972],[-93.39,27.3853],[-93.3675,27.3737],[-93.3625,27.3624],[-93.3625,27.3469],[-93.3675,27.3273],[-93.392,27.305],[-93.4359,27.2803],[-93.4659,27.2441],[-93.482,27.1966],[-93.5003,27.1743],[-93.521,27.1774],[-93.5392,27.1967],[-93.555,27.2323],[-93.582,27.259],[-93.6201,27.2768],[-93.6446,27.299],[-93.6553,27.3257],[-93.653,27.3499]]]}},{"type":"Feature","properties":{"c":"#bd0026","v0":60.0,"v1":75.0},"geometry":{"type":"Polygon","coordinates":[[[-96.3585,26.7705],[-96.3395,26.8092],[-96.32,26.8332],[-96.3,26.8426],[-96.25,26.8358],[-96.17,26.8128],[-96.085,26.805],[-95.995,26.8124],[-95.9389,26.8087],[-95.9166,26.7941],[-95.932,26.769],[-95.985,26.7332],[-96.0175,26.6886],[-96.0295,26.635],[-96.0592,26.6005],[-96.1064,26.5853],[-96.1447,26.5808],[-96.1741,26.5871],[-96.1991,26.6043],[-96.2197,26.6325],[-96.2535,26.6593],[-96.3006,26.6848],[-96.335,26.7109],[-96.357,26.7377],[-96.3585,26.7705]],[[-96.3322,26.7707],[-96.3041,26.8099],[-96.255,26.8191],[-96.185,26.7982],[-96.0948,26.7876],[-95.9843,26.7871],[-95.9555,26.769],[-96.0085,26.7332],[-96.0387,26.6922],[-96.0462,26.6459],[-96.07,26.6153],[-96.11,26.6005],[-96.14,26.5949],[-96.16,26.5983],[-96.2141,26.6378],[-96.3022,26.7134],[-96.3322,26.7707]]]}},{"type":"Feature","properties":{"c":"#bd0026","v0":60.0,"v1":75.0},"geometry":{"type":"Polygon","coordinates":[[[-95.9507,26.5843],[-95.9236,26.608],[-95.875,26.6143],[-95.805,26.603],[-95.73,26.6254],[-95.65,26.6815],[-95.5947,26.7066],[-95.5642,26.7005],[-95.5487,26.6886],[-95.5482,26.6707],[-95.5635,26.6426],[-95.5945,26.6041],[-95.635,26.5704],[-95.685,26.5414],[-95.745,26.5267],[-95.815,26.5263],[-95.8786,26.5377],[-95.9357,26.5608],[-95.9507,26.5843]],[[-95.9325,26.5775],[-95.9308,26.5879],[-95.92,26.5962],[-95.9,26.6025],[-95.86,26.5989],[-95.8,26.5856],[-95.73,26.6065],[-95.65,26.6616],[-95.5988,26.6868],[-95.5763,26.682],[-95.5808,26.6573],[-95.6123,26.6126],[-95.6485,26.5787],[-95.6895,26.5556],[-95.74,26.5429],[-95.8,26.5407],[-95.8558,26.5478],[-95.9075,26.5642],[-95.9325,26.5775]]]}},{"type":"Feature","properties":{"c":"#800026","v0":75.0,"v1":90.0},"geometry":{"type":"Polygon","coordinates":[[[-94.5017,27.456],[-94.4672,27.4768],[-94.425,27.4859],[-94.375,27.4833],[-94.34,27.4734],[-94.32,27.4563],[-94.3017,27.4249],[-94.285,27.3795],[-94.265,27.3523],[-94.2417,27.3433],[-94.2,27.3551],[-94.14,27.3874],[-94.1013,27.3608],[-94.084,27.2752],[-94.1326,27.2412],[-94.2471,27.259],[-94.3158,27.2873],[-94.3386,27.326],[-94.385,27.3563],[-94.455,27.378],[-94.4972,27.4031],[-94.5117,27.4314],[-94.5017,27.456]]]}},{"type":"Feature","properties":{"c":"#800026","v0":75.0,"v1":90.0},"geometry":{"type":"Polygon","coordinates":[[[-93.653,27.3499],[-93.6377,27.3716],[-93.585,27.3876],[-93.495,27.398],[-93.43,27.3972],[-93.39,27.3853],[-93.3675,27.3737],[-93.3625,27.3624],[-93.3625,27.3469],[-93.3675,27.3273],[-93.392,27.305],[-93.4359,27.2803],[-93.4659,27.2441],[-93.482,27.1966],[-93.5003,27.1743],[-93.521,27.1774],[-93.5392,27.1967],[-93.555,27.2323],[-93.582,27.259],[-93.6201,27.2768],[-93.6446,27.299],[-93.6553,27.3257],[-93.653,27.3499]]]}},{"type":"Feature","properties":{"c":"#800026","v0":75.0,"v1":90.0},"geometry":{"type":"Polygon","coordinates":[[[-96.3322,26.7707],[-96.3041,26.8099],[-96.255,26.8191],[-96.185,26.7982],[-96.0948,26.7876],[-95.9843,26.7871],[-95.9555,26.769],[-96.0085,26.7332],[-96.0387,26.6922],[-96.0462,26.6459],[-96.07,26.6153],[-96.11,26.6005],[-96.14,26.5949],[-96.16,26.5983],[-96.2141,26.6378],[-96.3022,26.7134],[-96.3322,26.7707]]]}},{"type":"Feature","properties":{"c":"#800026","v0":75.0,"v1":90.0},"geometry":{"type":"Polygon","coordinates":[[[-95.9325,26.5775],[-95.9308,26.5879],[-95.92,26.5962],[-95.9,26.6025],[-95.86,26.5989],[-95.8,26.5856],[-95.73,26.6065],[-95.65,26.6616],[-95.5988,26.6868],[-95.5763,26.682],[-95.5808,26.6573],[-95.6123,26.6126],[-95.6485,26.5787],[-95.6895,26.5556],[-95.74,26.5429],[-95.8,26.5407],[-95.8558,26.5478],[-95.9075,26.5642],[-95.9325,26.5775]]]}}]}