{"type":"FeatureCollection","features":[{"type":"Feature","properties":{"c":"#c8f500","v0":0.2,"v1":0.25},"geometry":{"type":"Polygon","coordinates":[[[-84.295,33.4967],[-84.2917,33.5062],[-84.2829,33.5104],[-84.2686,33.5092],[-84.2636,33.5038],[-84.2679,33.4942],[-84.2767,33.4901],[-84.29,33.4913],[-84.295,33.4967]]]}},{"type":"Feature","properties":{"c":"#c8f500","v0":0.2,"v1":0.25},"geometry":{"type":"Polygon","coordinates":[[[-84.2239,24.5964],[-84.2146,24.6132],[-84.205,24.6201],[-84.195,24.6171],[-84.19,24.6053],[-84.19,24.5845],[-84.1996,24.5776],[-84.2189,24.5845],[-84.2239,24.5964]],[[-84.2169,24.5943],[-84.2123,24.6071],[-84.2053,24.6116],[-84.1958,24.608],[-84.1908,24.6013],[-84.1903,24.5915],[-84.1973,24.587],[-84.2119,24.5876],[-84.2169,24.5943]]]}},{"type":"Feature","properties":{"c":"#c8f500","v0":0.25,"v1":0.5},"geometry":{"type":"Polygon","coordinates":[[[-84.2169,24.5943],[-84.2123,24.6071],[-84.2053,24.6116],[-84.1958,24.608],[-84.1908,24.6013],[-84.1903,24.5915],[-84.1973,24.587],[-84.2119,24.5876],[-84.2169,24.5943]]]}}]}