{"type":"FeatureCollection","features":[{"type":"Feature","properties":{"c":"#c8f500","v0":0.2,"v1":0.25},"geometry":{"type":"Polygon","coordinates":[[[-76.1777,46.5818],[-76.1726,46.5903],[-76.1624,46.5937],[-76.1472,46.5921],[-76.1422,46.5861],[-76.1474,46.5756],[-76.1576,46.5722],[-76.1727,46.5758],[-76.1777,46.5818]]]}},{"type":"Feature","properties":{"c":"#c8f500","v0":0.2,"v1":0.25},"geometry":{"type":"Polygon","coordinates":[[[-77.3955,46.3779],[-77.3881,46.3917],[-77.3659,46.4092],[-77.3286,46.4303],[-77.3,46.4377],[-77.28,46.4314],[-77.2681,46.4208],[-77.2642,46.406],[-77.2792,46.3865],[-77.3131,46.3624],[-77.34,46.3501],[-77.36,46.3495],[-77.3773,46.3546],[-77.3918,46.3655],[-77.3955,46.3779]],[[-77.3899,46.3779],[-77.3821,46.3917],[-77.3612,46.4072],[-77.3271,46.4243],[-77.3,46.429],[-77.28,46.4211],[-77.2723,46.4091],[-77.277,46.3929],[-77.292,46.3769],[-77.3173,46.3612],[-77.34,46.353],[-77.36,46.3525],[-77.376,46.3569],[-77.3879,46.3663],[-77.3899,46.3779]]]}},{"type":"Feature","properties":{"c":"#c8f500","v0":0.2,"v1":0.25},"geometry":{"type":"Polygon","coordinates":[[[-81.0451,43.1191],[-81.0192,43.1191],[-81.0122,43.115],[-81.0241,43.1068],[-81.037,43.1068],[-81.0511,43.115],[-81.0451,43.1191]]]}},{"type":"Feature","properties":{"c":"#c8f500","v0":0.25,"v1":0.5},"geometry":{"type":"Polygon","coordinates":[[[-77.3899,46.3779],[-77.3821,46.3917],[-77.3612,46.4072],[-77.3271,46.4243],[-77.3,46.429],[-77.28,46.4211],[-77.2723,46.4091],[-77.277,46.3929],[-77.292,46.3769],[-77.3173,46.3612],[-77.34,46.353],[-77.36,46.3525],[-77.376,46.3569],[-77.3879,46.3663],[-77.3899,46.3779]],[[-77.3638,46.378],[-77.3546,46.3919],[-77.3378,46.3988],[-77.3134,46.3986],[-77.3084,46.3907],[-77.3228,46.375],[-77.3396,46.3681],[-77.3588,46.37],[-77.3638,46.378]]]}},{"type":"Feature","properties":{"c":"#ffff00","v0":0.5,"v1":0.75},"geometry":{"type":"Polygon","coordinates":[[[-77.3638,46.378],[-77.3546,46.3919],[-77.3378,46.3988],[-77.3134,46.3986],[-77.3084,46.3907],[-77.3228,46.375],[-77.3396,46.3681],[-77.3588,46.37],[-77.3638,46.378]]]}}]}