{"type":"FeatureCollection","features":[{"type":"Feature","properties":{"c":"#c8f500","v0":0.2,"v1":0.25},"geometry":{"type":"Polygon","coordinates":[[[-100.7969,29.7349],[-100.779,29.7477],[-100.7639,29.7477],[-100.7516,29.7349],[-100.7516,29.7219],[-100.7639,29.7087],[-100.779,29.7087],[-100.7969,29.7219],[-100.7969,29.7349]],[[-100.7935,29.7338],[-100.7778,29.7443],[-100.7652,29.7443],[-100.7556,29.7338],[-100.7556,29.7229],[-100.7652,29.7117],[-100.7778,29.7117],[-100.7935,29.7229],[-100.7935,29.7338]]]}},{"type":"Feature","properties":{"c":"#c8f500","v0":0.25,"v1":0.5},"geometry":{"type":"Polygon","coordinates":[[[-100.7935,29.7338],[-100.7778,29.7443],[-100.7652,29.7443],[-100.7556,29.7338],[-100.7556,29.7229],[-100.7652,29.7117],[-100.7778,29.7117],[-100.7935,29.7229],[-100.7935,29.7338]]]}}]}