{"type":"FeatureCollection","features":[{"type":"Feature","properties":{"c":"#c8f500","v0":0.2,"v1":0.25},"geometry":{"type":"Polygon","coordinates":[[[-102.5223,47.508],[-102.5141,47.5152],[-102.5077,47.5152],[-102.5032,47.508],[-102.5072,47.5045],[-102.52,47.5045],[-102.5223,47.508]]]}},{"type":"Feature","properties":{"c":"#c8f500","v0":0.2,"v1":0.25},"geometry":{"type":"Polygon","coordinates":[[[-102.4529,47.4809],[-102.4376,47.4879],[-102.4255,47.4879],[-102.4164,47.4809],[-102.424,47.4774],[-102.4484,47.4774],[-102.4529,47.4809]]]}},{"type":"Feature","properties":{"c":"#c8f500","v0":0.2,"v1":0.25},"geometry":{"type":"Polygon","coordinates":[[[-102.5384,47.3562],[-102.5195,47.3844],[-102.4952,47.3912],[-102.4656,47.3765],[-102.4507,47.3624],[-102.4505,47.3489],[-102.4603,47.3355],[-102.4801,47.3222],[-102.5,47.3163],[-102.52,47.3177],[-102.5345,47.3243],[-102.5434,47.3362],[-102.5384,47.3562]],[[-102.5344,47.3535],[-102.5181,47.3765],[-102.4952,47.3798],[-102.4657,47.3637],[-102.4607,47.3466],[-102.4802,47.3284],[-102.5,47.3203],[-102.52,47.3222],[-102.5331,47.3279],[-102.5394,47.3374],[-102.5344,47.3535]]]}},{"type":"Feature","properties":{"c":"#c8f500","v0":0.2,"v1":0.25},"geometry":{"type":"Polygon","coordinates":[[[-103.3933,45.9649],[-103.3778,45.9838],[-103.36,45.9921],[-103.34,45.9897],[-103.335,45.975],[-103.345,45.948],[-103.36,45.9338],[-103.38,45.9324],[-103.3928,45.9376],[-103.3983,45.9495],[-103.3933,45.9649]],[[-103.3899,45.9639],[-103.3766,45.981],[-103.3607,45.988],[-103.342,45.9848],[-103.337,45.9721],[-103.3457,45.95],[-103.36,45.9385],[-103.38,45.9377],[-103.3916,45.9419],[-103.3949,45.9509],[-103.3899,45.9639]]]}},{"type":"Feature","properties":{"c":"#c8f500","v0":0.2,"v1":0.25},"geometry":{"type":"Polygon","coordinates":[[[-103.6163,45.722],[-103.6085,45.7569],[-103.5909,45.7779],[-103.5636,45.7851],[-103.545,45.7677],[-103.5349,45.7256],[-103.5399,45.6992],[-103.56,45.6886],[-103.5825,45.6886],[-103.6076,45.6992],[-103.6163,45.722]],[[-103.6117,45.722],[-103.6034,45.7569],[-103.587,45.7766],[-103.5623,45.7812],[-103.546,45.7637],[-103.5379,45.7243],[-103.5429,45.6999],[-103.561,45.6907],[-103.5815,45.6907],[-103.6044,45.6999],[-103.6117,45.722]]]}},{"type":"Feature","properties":{"c":"#c8f500","v0":0.25,"v1":0.5},"geometry":{"type":"Polygon","coordinates":[[[-102.5344,47.3535],[-102.5181,47.3765],[-102.4952,47.3798],[-102.4657,47.3637],[-102.4607,47.3466],[-102.4802,47.3284],[-102.5,47.3203],[-102.52,47.3222],[-102.5331,47.3279],[-102.5394,47.3374],[-102.5344,47.3535]]]}},{"type":"Feature","properties":{"c":"#c8f500","v0":0.25,"v1":0.5},"geometry":{"type":"Polygon","coordinates":[[[-103.3899,45.9639],[-103.3766,45.981],[-103.3607,45.988],[-103.342,45.9848],[-103.337,45.9721],[-103.3457,45.95],[-103.36,45.9385],[-103.38,45.9377],[-103.3916,45.9419],[-103.3949,45.9509],[-103.3899,45.9639]]]}},{"type":"Feature","properties":{"c":"#c8f500","v0":0.25,"v1":0.5},"geometry":{"type":"Polygon","coordinates":[[[-103.6117,45.722],[-103.6034,45.7569],[-103.587,45.7766],[-103.5623,45.7812],[-103.546,45.7637],[-103.5379,45.7243],[-103.5429,45.6999],[-103.561,45.6907],[-103.5815,45.6907],[-103.6044,45.6999],[-103.6117,45.722]],[[-103.5889,45.7246],[-103.5763,45.7368],[-103.5641,45.7368],[-103.5524,45.7246],[-103.5524,45.7138],[-103.5641,45.7044],[-103.5763,45.7044],[-103.5889,45.7138],[-103.5889,45.7246]]]}},{"type":"Feature","properties":{"c":"#ffff00","v0":0.5,"v1":0.75},"geometry":{"type":"Polygon","coordinates":[[[-103.5889,45.7246],[-103.5763,45.7368],[-103.5641,45.7368],[-103.5524,45.7246],[-103.5524,45.7138],[-103.5641,45.7044],[-103.5763,45.7044],[-103.5889,45.7138],[-103.5889,45.7246]]]}}]}