{"type":"FeatureCollection","features":[{"type":"Feature","properties":{"c":"#c8f500","v0":0.2,"v1":0.25},"geometry":{"type":"Polygon","coordinates":[[[-101.068,45.3472],[-101.064,45.3613],[-101.0541,45.3715],[-101.038,45.3779],[-101.0079,45.3779],[-100.9636,45.3715],[-100.9338,45.3578],[-100.9184,45.3367],[-100.9155,45.3117],[-100.9252,45.2829],[-100.95,45.2594],[-100.99,45.2413],[-101.0145,45.2346],[-101.0234,45.2393],[-101.0239,45.2522],[-101.0158,45.2734],[-101.0263,45.298],[-101.0554,45.3261],[-101.068,45.3472]],[[-101.0556,45.3493],[-101.0385,45.3676],[-101.01,45.3745],[-100.97,45.3699],[-100.9414,45.3573],[-100.9242,45.3365],[-100.9204,45.3121],[-100.9301,45.2839],[-100.9487,45.264],[-100.9762,45.2522],[-101.0085,45.2698],[-101.0456,45.3167],[-101.0556,45.3493]]]}},{"type":"Feature","properties":{"c":"#c8f500","v0":0.25,"v1":0.5},"geometry":{"type":"Polygon","coordinates":[[[-101.0556,45.3493],[-101.0385,45.3676],[-101.01,45.3745],[-100.97,45.3699],[-100.9414,45.3573],[-100.9242,45.3365],[-100.9204,45.3121],[-100.9301,45.2839],[-100.9487,45.264],[-100.9762,45.2522],[-101.0085,45.2698],[-101.0456,45.3167],[-101.0556,45.3493]],[[-101.0275,45.3445],[-101.0158,45.3531],[-100.995,45.354],[-100.965,45.3473],[-100.95,45.3314],[-100.95,45.3064],[-100.955,45.2912],[-100.965,45.2858],[-100.9858,45.2974],[-101.0175,45.3259],[-101.0275,45.3445]]]}},{"type":"Feature","properties":{"c":"#ffff00","v0":0.5,"v1":0.75},"geometry":{"type":"Polygon","coordinates":[[[-101.0275,45.3445],[-101.0158,45.3531],[-100.995,45.354],[-100.965,45.3473],[-100.95,45.3314],[-100.95,45.3064],[-100.955,45.2912],[-100.965,45.2858],[-100.9858,45.2974],[-101.0175,45.3259],[-101.0275,45.3445]]]}}]}