{"type":"FeatureCollection","features":[{"type":"Feature","properties":{"c":"#c8f500","v0":0.2,"v1":0.25},"geometry":{"type":"Polygon","coordinates":[[[-102.7552,36.5745],[-102.7251,36.583],[-102.7044,36.579],[-102.6933,36.5624],[-102.7033,36.5524],[-102.7344,36.5488],[-102.7551,36.5528],[-102.7652,36.5644],[-102.7552,36.5745]],[[-102.7498,36.5731],[-102.7233,36.5788],[-102.7066,36.5747],[-102.6998,36.561],[-102.7098,36.5534],[-102.7366,36.552],[-102.7533,36.556],[-102.7598,36.5655],[-102.7498,36.5731]]]}},{"type":"Feature","properties":{"c":"#c8f500","v0":0.2,"v1":0.25},"geometry":{"type":"Polygon","coordinates":[[[-99.4339,34.816],[-99.4225,34.816],[-99.4201,34.8106],[-99.4267,34.7998],[-99.4324,34.7998],[-99.4372,34.8106],[-99.4339,34.816]]]}},{"type":"Feature","properties":{"c":"#c8f500","v0":0.2,"v1":0.25},"geometry":{"type":"Polygon","coordinates":[[[-99.9464,32.4747],[-99.9355,32.4873],[-99.9223,32.4873],[-99.9068,32.4747],[-99.9068,32.4633],[-99.9223,32.4531],[-99.9355,32.4531],[-99.9464,32.4633],[-99.9464,32.4747]],[[-99.9417,32.4736],[-99.9339,32.4841],[-99.9235,32.4841],[-99.9105,32.4736],[-99.9105,32.4646],[-99.9235,32.457],[-99.9339,32.457],[-99.9417,32.4646],[-99.9417,32.4736]]]}},{"type":"Feature","properties":{"c":"#c8f500","v0":0.2,"v1":0.25},"geometry":{"type":"Polygon","coordinates":[[[-102.2501,31.1843],[-102.2367,31.1992],[-102.2235,31.2035],[-102.2105,31.1971],[-102.2078,31.1854],[-102.2153,31.1683],[-102.2285,31.164],[-102.2474,31.1725],[-102.2501,31.1843]],[[-102.2484,31.1811],[-102.2479,31.1897],[-102.2382,31.1939],[-102.2192,31.1939],[-102.2098,31.1883],[-102.2099,31.1771],[-102.2197,31.1728],[-102.239,31.1755],[-102.2484,31.1811]]]}},{"type":"Feature","properties":{"c":"#c8f500","v0":0.2,"v1":0.25},"geometry":{"type":"Polygon","coordinates":[[[-101.9904,30.231],[-101.9872,30.2655],[-101.9612,30.3044],[-101.9123,30.3475],[-101.8734,30.3704],[-101.8445,30.3729],[-101.806,30.3643],[-101.7581,30.3445],[-101.7353,30.326],[-101.7378,30.3087],[-101.7599,30.2871],[-101.8018,30.2612],[-101.8395,30.2276],[-101.8732,30.1862],[-101.91,30.1619],[-101.95,30.1545],[-101.9755,30.1665],[-101.9865,30.198],[-101.9904,30.231]],[[-101.9868,30.231],[-101.9828,30.2655],[-101.9535,30.3044],[-101.8986,30.3475],[-101.8383,30.3605],[-101.7723,30.3432],[-101.7405,30.326],[-101.7428,30.3087],[-101.7652,30.2871],[-101.8078,30.2612],[-101.8443,30.2283],[-101.8748,30.1883],[-101.91,30.1654],[-101.95,30.1595],[-101.9747,30.1708],[-101.9841,30.1994],[-101.9868,30.231]]]}},{"type":"Feature","properties":{"c":"#c8f500","v0":0.2,"v1":0.25},"geometry":{"type":"Polygon","coordinates":[[[-101.5397,27.5769],[-101.5199,27.5913],[-101.5014,27.5913],[-101.4841,27.5769],[-101.475,27.5609],[-101.4742,27.5431],[-101.4847,27.5298],[-101.5065,27.5209],[-101.5255,27.5298],[-101.5416,27.5564],[-101.5397,27.5769]],[[-101.5367,27.5757],[-101.5189,27.5876],[-101.5025,27.5876],[-101.4875,27.5757],[-101.4797,27.5609],[-101.4791,27.5431],[-101.4915,27.5328],[-101.5172,27.53],[-101.5339,27.5389],[-101.5417,27.5594],[-101.5367,27.5757]]]}},{"type":"Feature","properties":{"c":"#c8f500","v0":0.2,"v1":0.25},"geometry":{"type":"Polygon","coordinates":[[[-101.6641,27.3291],[-101.6547,27.3449],[-101.635,27.3558],[-101.605,27.3619],[-101.5776,27.3584],[-101.5529,27.3455],[-101.5374,27.3301],[-101.531,27.3123],[-101.5483,27.2893],[-101.5894,27.261],[-101.6247,27.2654],[-101.6541,27.3026],[-101.6641,27.3291]],[[-101.6618,27.328],[-101.6539,27.3417],[-101.635,27.3517],[-101.605,27.358],[-101.5788,27.3557],[-101.5565,27.3445],[-101.5418,27.3301],[-101.5349,27.3123],[-101.5511,27.2906],[-101.5904,27.2648],[-101.6239,27.2692],[-101.6518,27.3039],[-101.6618,27.328]]]}},{"type":"Feature","properties":{"c":"#c8f500","v0":0.2,"v1":0.25},"geometry":{"type":"Polygon","coordinates":[[[-101.5355,27.2051],[-101.5185,27.2218],[-101.48,27.2285],[-101.42,27.2251],[-101.386,27.2301],[-101.3781,27.2434],[-101.3792,27.259],[-101.3894,27.2768],[-101.3883,27.2908],[-101.3761,27.301],[-101.3609,27.301],[-101.3426,27.2908],[-101.3201,27.2634],[-101.2935,27.219],[-101.2827,27.1834],[-101.2877,27.1567],[-101.3002,27.1406],[-101.3201,27.135],[-101.345,27.1419],[-101.375,27.1611],[-101.42,27.1655],[-101.48,27.155],[-101.5185,27.1615],[-101.5355,27.185],[-101.5355,27.2051]],[[-101.5324,27.2041],[-101.5175,27.2188],[-101.48,27.2236],[-101.42,27.2185],[-101.3835,27.2245],[-101.3705,27.2416],[-101.3696,27.259],[-101.3809,27.2768],[-101.3825,27.2889],[-101.3742,27.2953],[-101.3493,27.2776],[-101.3078,27.2355],[-101.2928,27.1957],[-101.3043,27.1579],[-101.33,27.1487],[-101.37,27.1681],[-101.42,27.1718],[-101.48,27.1598],[-101.5175,27.1646],[-101.5324,27.186],[-101.5324,27.2041]]]}},{"type":"Feature","properties":{"c":"#c8f500","v0":0.2,"v1":0.25},"geometry":{"type":"Polygon","coordinates":[[[-101.2363,27.2648],[-101.2188,27.2941],[-101.19,27.3049],[-101.15,27.297],[-101.1238,27.2868],[-101.1114,27.2742],[-101.1085,27.259],[-101.1151,27.2412],[-101.1263,27.2301],[-101.1421,27.2257],[-101.1738,27.2301],[-101.2213,27.2435],[-101.2363,27.2648]],[[-101.2311,27.2626],[-101.217,27.2877],[-101.1853,27.2921],[-101.1358,27.276],[-101.1208,27.2578],[-101.1403,27.2377],[-101.172,27.2332],[-101.2161,27.2445],[-101.2311,27.2626]]]}},{"type":"Feature","properties":{"c":"#c8f500","v0":0.2,"v1":0.25},"geometry":{"type":"Polygon","coordinates":[[[-99.3043,25.5029],[-99.2814,25.5207],[-99.2572,25.5207],[-99.2316,25.5029],[-99.2248,25.4715],[-99.2367,25.4263],[-99.2398,25.3857],[-99.2342,25.3495],[-99.236,25.3268],[-99.2453,25.3175],[-99.2628,25.3175],[-99.2883,25.3268],[-99.3024,25.345],[-99.3051,25.3721],[-99.3001,25.3947],[-99.2876,25.4128],[-99.2899,25.4399],[-99.3071,25.476],[-99.3043,25.5029]],[[-99.301,25.5023],[-99.2803,25.5188],[-99.2581,25.5188],[-99.2344,25.5023],[-99.2294,25.45],[-99.2431,25.3619],[-99.26,25.3195],[-99.28,25.3228],[-99.2935,25.3307],[-99.3004,25.3433],[-99.296,25.3676],[-99.2802,25.4037],[-99.2821,25.4399],[-99.3016,25.476],[-99.301,25.5023]]]}},{"type":"Feature","properties":{"c":"#c8f500","v0":0.2,"v1":0.25},"geometry":{"type":"Polygon","coordinates":[[[-99.2346,25.2275],[-99.2241,25.2365],[-99.2167,25.2274],[-99.2122,25.2001],[-99.2175,25.1956],[-99.2324,25.2138],[-99.2346,25.2275]]]}},{"type":"Feature","properties":{"c":"#c8f500","v0":0.2,"v1":0.25},"geometry":{"type":"Polygon","coordinates":[[[-98.7937,24.3331],[-98.7734,24.3331],[-98.7699,24.328],[-98.7833,24.3179],[-98.7935,24.3179],[-98.8004,24.328],[-98.7937,24.3331]]]}},{"type":"Feature","properties":{"c":"#c8f500","v0":0.2,"v1":0.25},"geometry":{"type":"Polygon","coordinates":[[[-98.8746,24.2838],[-98.8715,24.2945],[-98.86,24.3012],[-98.84,24.3038],[-98.8237,24.2939],[-98.8112,24.2714],[-98.8112,24.2551],[-98.8237,24.2451],[-98.8415,24.2496],[-98.8646,24.2688],[-98.8746,24.2838]],[[-98.8607,24.2836],[-98.8402,24.294],[-98.8251,24.2895],[-98.8154,24.2699],[-98.8154,24.2565],[-98.8251,24.2492],[-98.8402,24.2537],[-98.8607,24.2702],[-98.8607,24.2836]]]}},{"type":"Feature","properties":{"c":"#c8f500","v0":0.2,"v1":0.25},"geometry":{"type":"Polygon","coordinates":[[[-100.2468,23.2035],[-100.2356,23.2143],[-100.2232,23.2097],[-100.2096,23.1897],[-100.2096,23.1784],[-100.2232,23.1755],[-100.2356,23.1801],[-100.2468,23.1921],[-100.2468,23.2035]],[[-100.2352,23.1982],[-100.2203,23.1982],[-100.2171,23.1939],[-100.2257,23.1854],[-100.2332,23.1854],[-100.2395,23.1939],[-100.2352,23.1982]]]}},{"type":"Feature","properties":{"c":"#c8f500","v0":0.25,"v1":0.5},"geometry":{"type":"Polygon","coordinates":[[[-102.7498,36.5731],[-102.7233,36.5788],[-102.7066,36.5747],[-102.6998,36.561],[-102.7098,36.5534],[-102.7366,36.552],[-102.7533,36.556],[-102.7598,36.5655],[-102.7498,36.5731]]]}},{"type":"Feature","properties":{"c":"#c8f500","v0":0.25,"v1":0.5},"geometry":{"type":"Polygon","coordinates":[[[-99.9417,32.4736],[-99.9339,32.4841],[-99.9235,32.4841],[-99.9105,32.4736],[-99.9105,32.4646],[-99.9235,32.457],[-99.9339,32.457],[-99.9417,32.4646],[-99.9417,32.4736]]]}},{"type":"Feature","properties":{"c":"#c8f500","v0":0.25,"v1":0.5},"geometry":{"type":"Polygon","coordinates":[[[-102.2484,31.1811],[-102.2479,31.1897],[-102.2382,31.1939],[-102.2192,31.1939],[-102.2098,31.1883],[-102.2099,31.1771],[-102.2197,31.1728],[-102.239,31.1755],[-102.2484,31.1811]]]}},{"type":"Feature","properties":{"c":"#c8f500","v0":0.25,"v1":0.5},"geometry":{"type":"Polygon","coordinates":[[[-101.9868,30.231],[-101.9828,30.2655],[-101.9535,30.3044],[-101.8986,30.3475],[-101.8383,30.3605],[-101.7723,30.3432],[-101.7405,30.326],[-101.7428,30.3087],[-101.7652,30.2871],[-101.8078,30.2612],[-101.8443,30.2283],[-101.8748,30.1883],[-101.91,30.1654],[-101.95,30.1595],[-101.9747,30.1708],[-101.9841,30.1994],[-101.9868,30.231]],[[-101.9748,30.2266],[-101.9692,30.2526],[-101.9473,30.2812],[-101.9091,30.3126],[-101.8593,30.3298],[-101.798,30.333],[-101.7673,30.326],[-101.7673,30.3087],[-101.7854,30.2914],[-101.8214,30.2742],[-101.853,30.2439],[-101.8804,30.2007],[-101.9081,30.1768],[-101.936,30.1721],[-101.9569,30.1807],[-101.9707,30.2027],[-101.9748,30.2266]]]}},{"type":"Feature","properties":{"c":"#c8f500","v0":0.25,"v1":0.5},"geometry":{"type":"Polygon","coordinates":[[[-101.5367,27.5757],[-101.5189,27.5876],[-101.5025,27.5876],[-101.4875,27.5757],[-101.4797,27.5609],[-101.4791,27.5431],[-101.4915,27.5328],[-101.5172,27.53],[-101.5339,27.5389],[-101.5417,27.5594],[-101.5367,27.5757]]]}},{"type":"Feature","properties":{"c":"#c8f500","v0":0.25,"v1":0.5},"geometry":{"type":"Polygon","coordinates":[[[-101.6618,27.328],[-101.6539,27.3417],[-101.635,27.3517],[-101.605,27.358],[-101.5788,27.3557],[-101.5565,27.3445],[-101.5418,27.3301],[-101.5349,27.3123],[-101.5511,27.2906],[-101.5904,27.2648],[-101.6239,27.2692],[-101.6518,27.3039],[-101.6618,27.328]],[[-101.6354,27.3279],[-101.6051,27.3413],[-101.5786,27.3368],[-101.5559,27.3146],[-101.5609,27.2954],[-101.5936,27.2794],[-101.6201,27.2838],[-101.6404,27.3087],[-101.6354,27.3279]]]}},{"type":"Feature","properties":{"c":"#c8f500","v0":0.25,"v1":0.5},"geometry":{"type":"Polygon","coordinates":[[[-101.5324,27.2041],[-101.5175,27.2188],[-101.48,27.2236],[-101.42,27.2185],[-101.3835,27.2245],[-101.3705,27.2416],[-101.3696,27.259],[-101.3809,27.2768],[-101.3825,27.2889],[-101.3742,27.2953],[-101.3493,27.2776],[-101.3078,27.2355],[-101.2928,27.1957],[-101.3043,27.1579],[-101.33,27.1487],[-101.37,27.1681],[-101.42,27.1718],[-101.48,27.1598],[-101.5175,27.1646],[-101.5324,27.186],[-101.5324,27.2041]],[[-101.5039,27.1971],[-101.4813,27.1978],[-101.469,27.1933],[-101.4671,27.1837],[-101.4771,27.1784],[-101.499,27.1772],[-101.5113,27.1817],[-101.5139,27.1917],[-101.5039,27.1971]]]}},{"type":"Feature","properties":{"c":"#c8f500","v0":0.25,"v1":0.5},"geometry":{"type":"Polygon","coordinates":[[[-101.2311,27.2626],[-101.217,27.2877],[-101.1853,27.2921],[-101.1358,27.276],[-101.1208,27.2578],[-101.1403,27.2377],[-101.172,27.2332],[-101.2161,27.2445],[-101.2311,27.2626]]]}},{"type":"Feature","properties":{"c":"#c8f500","v0":0.25,"v1":0.5},"geometry":{"type":"Polygon","coordinates":[[[-99.301,25.5023],[-99.2803,25.5188],[-99.2581,25.5188],[-99.2344,25.5023],[-99.2294,25.45],[-99.2431,25.3619],[-99.26,25.3195],[-99.28,25.3228],[-99.2935,25.3307],[-99.3004,25.3433],[-99.296,25.3676],[-99.2802,25.4037],[-99.2821,25.4399],[-99.3016,25.476],[-99.301,25.5023]],[[-99.2852,25.4974],[-99.2617,25.504],[-99.2461,25.4995],[-99.2384,25.4838],[-99.2384,25.4678],[-99.2461,25.4515],[-99.2617,25.456],[-99.2852,25.4814],[-99.2852,25.4974]],[[-99.2804,25.3568],[-99.2735,25.3712],[-99.2666,25.3712],[-99.2597,25.3568],[-99.2597,25.3461],[-99.2666,25.3392],[-99.2735,25.3392],[-99.2804,25.3461],[-99.2804,25.3568]]]}},{"type":"Feature","properties":{"c":"#c8f500","v0":0.25,"v1":0.5},"geometry":{"type":"Polygon","coordinates":[[[-98.8607,24.2836],[-98.8402,24.294],[-98.8251,24.2895],[-98.8154,24.2699],[-98.8154,24.2565],[-98.8251,24.2492],[-98.8402,24.2537],[-98.8607,24.2702],[-98.8607,24.2836]]]}},{"type":"Feature","properties":{"c":"#c8f500","v0":0.25,"v1":0.5},"geometry":{"type":"Polygon","coordinates":[[[-100.2352,23.1982],[-100.2203,23.1982],[-100.2171,23.1939],[-100.2257,23.1854],[-100.2332,23.1854],[-100.2395,23.1939],[-100.2352,23.1982]]]}},{"type":"Feature","properties":{"c":"#ffff00","v0":0.5,"v1":0.75},"geometry":{"type":"Polygon","coordinates":[[[-101.9748,30.2266],[-101.9692,30.2526],[-101.9473,30.2812],[-101.9091,30.3126],[-101.8593,30.3298],[-101.798,30.333],[-101.7673,30.326],[-101.7673,30.3087],[-101.7854,30.2914],[-101.8214,30.2742],[-101.853,30.2439],[-101.8804,30.2007],[-101.9081,30.1768],[-101.936,30.1721],[-101.9569,30.1807],[-101.9707,30.2027],[-101.9748,30.2266]],[[-101.8438,30.3044],[-101.806,30.313],[-101.7929,30.3122],[-101.8043,30.302],[-101.8232,30.2977],[-101.8495,30.2993],[-101.8438,30.3044]],[[-101.9622,30.2245],[-101.9541,30.2462],[-101.93,30.2648],[-101.89,30.2804],[-101.875,30.2649],[-101.885,30.2181],[-101.902,30.1909],[-101.9261,30.183],[-101.9452,30.1877],[-101.9592,30.205],[-101.9622,30.2245]]]}},{"type":"Feature","properties":{"c":"#ffff00","v0":0.5,"v1":0.75},"geometry":{"type":"Polygon","coordinates":[[[-101.6354,27.3279],[-101.6051,27.3413],[-101.5786,27.3368],[-101.5559,27.3146],[-101.5609,27.2954],[-101.5936,27.2794],[-101.6201,27.2838],[-101.6404,27.3087],[-101.6354,27.3279]],[[-101.6255,27.3251],[-101.6018,27.3328],[-101.5818,27.3283],[-101.5654,27.3117],[-101.5704,27.2986],[-101.5968,27.2888],[-101.6168,27.2933],[-101.6305,27.3119],[-101.6255,27.3251]]]}},{"type":"Feature","properties":{"c":"#ffff00","v0":0.5,"v1":0.75},"geometry":{"type":"Polygon","coordinates":[[[-101.5039,27.1971],[-101.4813,27.1978],[-101.469,27.1933],[-101.4671,27.1837],[-101.4771,27.1784],[-101.499,27.1772],[-101.5113,27.1817],[-101.5139,27.1917],[-101.5039,27.1971]]]}},{"type":"Feature","properties":{"c":"#ffff00","v0":0.5,"v1":0.75},"geometry":{"type":"Polygon","coordinates":[[[-99.2852,25.4974],[-99.2617,25.504],[-99.2461,25.4995],[-99.2384,25.4838],[-99.2384,25.4678],[-99.2461,25.4515],[-99.2617,25.456],[-99.2852,25.4814],[-99.2852,25.4974]],[[-99.2715,25.4889],[-99.2572,25.4787],[-99.255,25.4717],[-99.265,25.468],[-99.2722,25.4732],[-99.2765,25.4871],[-99.2715,25.4889]]]}},{"type":"Feature","properties":{"c":"#ffff00","v0":0.5,"v1":0.75},"geometry":{"type":"Polygon","coordinates":[[[-99.2804,25.3568],[-99.2735,25.3712],[-99.2666,25.3712],[-99.2597,25.3568],[-99.2597,25.3461],[-99.2666,25.3392],[-99.2735,25.3392],[-99.2804,25.3461],[-99.2804,25.3568]]]}},{"type":"Feature","properties":{"c":"#ffd700","v0":0.75,"v1":1.0},"geometry":{"type":"Polygon","coordinates":[[[-101.8438,30.3044],[-101.806,30.313],[-101.7929,30.3122],[-101.8043,30.302],[-101.8232,30.2977],[-101.8495,30.2993],[-101.8438,30.3044]]]}},{"type":"Feature","properties":{"c":"#ffd700","v0":0.75,"v1":1.0},"geometry":{"type":"Polygon","coordinates":[[[-101.9622,30.2245],[-101.9541,30.2462],[-101.93,30.2648],[-101.89,30.2804],[-101.875,30.2649],[-101.885,30.2181],[-101.902,30.1909],[-101.9261,30.183],[-101.9452,30.1877],[-101.9592,30.205],[-101.9622,30.2245]],[[-101.9485,30.2217],[-101.9362,30.2379],[-101.921,30.2422],[-101.9029,30.2347],[-101.8979,30.2212],[-101.906,30.2016],[-101.92,30.193],[-101.94,30.1952],[-101.9512,30.2007],[-101.9535,30.2093],[-101.9485,30.2217]]]}},{"type":"Feature","properties":{"c":"#ffd700","v0":0.75,"v1":1.0},"geometry":{"type":"Polygon","coordinates":[[[-101.6255,27.3251],[-101.6018,27.3328],[-101.5818,27.3283],[-101.5654,27.3117],[-101.5704,27.2986],[-101.5968,27.2888],[-101.6168,27.2933],[-101.6305,27.3119],[-101.6255,27.3251]],[[-101.6129,27.3224],[-101.5976,27.3247],[-101.5849,27.3203],[-101.5747,27.3091],[-101.5797,27.3017],[-101.5999,27.2982],[-101.6126,27.3026],[-101.6179,27.315],[-101.6129,27.3224]]]}},{"type":"Feature","properties":{"c":"#ffd700","v0":0.75,"v1":1.0},"geometry":{"type":"Polygon","coordinates":[[[-99.2715,25.4889],[-99.2572,25.4787],[-99.255,25.4717],[-99.265,25.468],[-99.2722,25.4732],[-99.2765,25.4871],[-99.2715,25.4889]]]}},{"type":"Feature","properties":{"c":"#ff8c00","v0":1.0,"v1":1.5},"geometry":{"type":"Polygon","coordinates":[[[-101.9485,30.2217],[-101.9362,30.2379],[-101.921,30.2422],[-101.9029,30.2347],[-101.8979,30.2212],[-101.906,30.2016],[-101.92,30.193],[-101.94,30.1952],[-101.9512,30.2007],[-101.9535,30.2093],[-101.9485,30.2217]]]}},{"type":"Feature","properties":{"c":"#ff8c00","v0":1.0,"v1":1.5},"geometry":{"type":"Polygon","coordinates":[[[-101.6129,27.3224],[-101.5976,27.3247],[-101.5849,27.3203],[-101.5747,27.3091],[-101.5797,27.3017],[-101.5999,27.2982],[-101.6126,27.3026],[-101.6179,27.315],[-101.6129,27.3224]]]}}]}