{"type":"FeatureCollection","features":[{"type":"Feature","properties":{"c":"#c8f500","v0":0.2,"v1":0.25},"geometry":{"type":"Polygon","coordinates":[[[-108.5036,42.8483],[-108.4812,42.8626],[-108.4624,42.8626],[-108.4472,42.8483],[-108.4472,42.834],[-108.4624,42.8198],[-108.4812,42.8198],[-108.5036,42.834],[-108.5036,42.8483]],[[-108.4996,42.8473],[-108.4799,42.8597],[-108.4635,42.8597],[-108.4505,42.8473],[-108.4505,42.8349],[-108.4635,42.8225],[-108.4799,42.8225],[-108.4996,42.8349],[-108.4996,42.8473]]]}},{"type":"Feature","properties":{"c":"#c8f500","v0":0.2,"v1":0.25},"geometry":{"type":"Polygon","coordinates":[[[-103.0471,42.5295],[-103.0357,42.5533],[-103.0164,42.5644],[-102.9892,42.5626],[-102.9842,42.5495],[-103.0014,42.5249],[-103.02,42.5099],[-103.04,42.5045],[-103.0507,42.5058],[-103.0521,42.5136],[-103.0471,42.5295]],[[-103.0387,42.5397],[-103.0309,42.5544],[-103.0166,42.5618],[-102.9958,42.5618],[-102.9915,42.551],[-103.0038,42.5295],[-103.015,42.5167],[-103.025,42.5128],[-103.0332,42.5162],[-103.0395,42.5269],[-103.0387,42.5397]]]}},{"type":"Feature","properties":{"c":"#c8f500","v0":0.2,"v1":0.25},"geometry":{"type":"Polygon","coordinates":[[[-109.2329,40.2404],[-109.2171,40.2481],[-109.2094,40.2471],[-109.2098,40.2375],[-109.2177,40.2337],[-109.2331,40.2357],[-109.2329,40.2404]]]}},{"type":"Feature","properties":{"c":"#c8f500","v0":0.2,"v1":0.25},"geometry":{"type":"Polygon","coordinates":[[[-103.5267,39.3003],[-103.5022,39.3343],[-103.465,39.352],[-103.415,39.3533],[-103.3636,39.3402],[-103.3108,39.3126],[-103.278,39.2834],[-103.2652,39.2524],[-103.2666,39.2287],[-103.2822,39.2124],[-103.32,39.2026],[-103.38,39.1994],[-103.4371,39.2037],[-103.4913,39.2155],[-103.5236,39.2369],[-103.5338,39.2679],[-103.5267,39.3003]],[[-103.5206,39.2992],[-103.5002,39.3309],[-103.465,39.3478],[-103.415,39.3499],[-103.3651,39.3379],[-103.3152,39.3118],[-103.2834,39.2834],[-103.2698,39.2524],[-103.2747,39.2284],[-103.2982,39.2113],[-103.335,39.2022],[-103.385,39.201],[-103.435,39.2065],[-103.485,39.2188],[-103.5152,39.2395],[-103.5256,39.2687],[-103.5206,39.2992]]]}},{"type":"Feature","properties":{"c":"#c8f500","v0":0.2,"v1":0.25},"geometry":{"type":"Polygon","coordinates":[[[-97.931,38.5285],[-97.927,38.5441],[-97.9163,38.5566],[-97.8988,38.5658],[-97.88,38.5692],[-97.86,38.5668],[-97.8426,38.5583],[-97.8278,38.5436],[-97.8328,38.5257],[-97.8576,38.5045],[-97.8857,38.5005],[-97.9172,38.5139],[-97.931,38.5285]],[[-97.9271,38.5285],[-97.9234,38.5441],[-97.9137,38.5558],[-97.8979,38.5634],[-97.88,38.5662],[-97.86,38.5641],[-97.8436,38.5564],[-97.8307,38.543],[-97.8357,38.5263],[-97.8586,38.5062],[-97.8847,38.5023],[-97.9142,38.5145],[-97.9271,38.5285]]]}},{"type":"Feature","properties":{"c":"#c8f500","v0":0.2,"v1":0.25},"geometry":{"type":"Polygon","coordinates":[[[-98.1478,38.4796],[-98.1226,38.4914],[-98.1002,38.4875],[-98.0807,38.4678],[-98.0857,38.4527],[-98.1152,38.442],[-98.1376,38.4459],[-98.1528,38.4644],[-98.1478,38.4796]],[[-98.1444,38.4786],[-98.1215,38.4883],[-98.1023,38.4844],[-98.0868,38.4668],[-98.0918,38.4536],[-98.1173,38.4448],[-98.1365,38.4487],[-98.1494,38.4654],[-98.1444,38.4786]]]}},{"type":"Feature","properties":{"c":"#c8f500","v0":0.2,"v1":0.25},"geometry":{"type":"Polygon","coordinates":[[[-98.4024,37.9645],[-98.3808,37.9834],[-98.3577,37.9873],[-98.3331,37.9763],[-98.3227,37.963],[-98.3263,37.9472],[-98.3386,37.9317],[-98.3595,37.9166],[-98.3791,37.9127],[-98.3972,37.9199],[-98.408,37.9314],[-98.4114,37.9472],[-98.4024,37.9645]],[[-98.3994,37.9637],[-98.3798,37.981],[-98.3588,37.9849],[-98.3364,37.9755],[-98.3364,37.9562],[-98.3588,37.927],[-98.378,37.9152],[-98.3939,37.9208],[-98.4037,37.9314],[-98.4074,37.9472],[-98.3994,37.9637]]]}},{"type":"Feature","properties":{"c":"#c8f500","v0":0.2,"v1":0.25},"geometry":{"type":"Polygon","coordinates":[[[-103.7811,37.6909],[-103.7604,37.6998],[-103.7459,37.6998],[-103.7377,37.6909],[-103.7427,37.6824],[-103.7609,37.6741],[-103.7754,37.6741],[-103.7861,37.6824],[-103.7811,37.6909]]]}},{"type":"Feature","properties":{"c":"#c8f500","v0":0.2,"v1":0.25},"geometry":{"type":"Polygon","coordinates":[[[-98.6224,37.6762],[-98.6008,37.6873],[-98.5837,37.6873],[-98.571,37.6762],[-98.5658,37.6627],[-98.5682,37.6469],[-98.5796,37.6368],[-98.5999,37.6323],[-98.6158,37.6402],[-98.6274,37.6605],[-98.6224,37.6762]],[[-98.6175,37.6746],[-98.5962,37.6825],[-98.5832,37.6746],[-98.5785,37.6509],[-98.5846,37.6379],[-98.6015,37.6356],[-98.6145,37.6435],[-98.6236,37.6616],[-98.6175,37.6746]]]}},{"type":"Feature","properties":{"c":"#c8f500","v0":0.2,"v1":0.25},"geometry":{"type":"Polygon","coordinates":[[[-98.7974,37.6615],[-98.7791,37.675],[-98.7622,37.675],[-98.7467,37.6615],[-98.7467,37.6441],[-98.7622,37.6226],[-98.7775,37.6146],[-98.7924,37.6203],[-98.8015,37.6311],[-98.8048,37.6469],[-98.7974,37.6615]],[[-98.7946,37.6607],[-98.7782,37.6726],[-98.7632,37.6726],[-98.7497,37.6607],[-98.7497,37.6452],[-98.7632,37.6261],[-98.7761,37.6182],[-98.7884,37.6215],[-98.7966,37.6311],[-98.8008,37.6469],[-98.7946,37.6607]]]}},{"type":"Feature","properties":{"c":"#c8f500","v0":0.2,"v1":0.25},"geometry":{"type":"Polygon","coordinates":[[[-103.6256,37.2481],[-103.6152,37.2604],[-103.6049,37.2643],[-103.5947,37.26],[-103.5947,37.2515],[-103.6049,37.2388],[-103.6152,37.2348],[-103.6256,37.2396],[-103.6256,37.2481]]]}},{"type":"Feature","properties":{"c":"#c8f500","v0":0.2,"v1":0.25},"geometry":{"type":"Polygon","coordinates":[[[-103.6108,37.1521],[-103.5969,37.1635],[-103.5845,37.1596],[-103.5734,37.1401],[-103.5734,37.1279],[-103.5845,37.1229],[-103.5969,37.1269],[-103.6108,37.1399],[-103.6108,37.1521]],[[-103.5989,37.1464],[-103.5828,37.1464],[-103.5785,37.1418],[-103.5862,37.1328],[-103.5942,37.1328],[-103.6027,37.1418],[-103.5989,37.1464]]]}},{"type":"Feature","properties":{"c":"#c8f500","v0":0.2,"v1":0.25},"geometry":{"type":"Polygon","coordinates":[[[-99.4337,36.9606],[-99.4179,36.9721],[-99.4017,36.9721],[-99.3851,36.9606],[-99.3851,36.9494],[-99.4017,36.9387],[-99.4179,36.9387],[-99.4337,36.9494],[-99.4337,36.9606]],[[-99.4283,36.9592],[-99.4161,36.9679],[-99.404,36.9679],[-99.3919,36.9592],[-99.3919,36.9506],[-99.404,36.9422],[-99.4161,36.9422],[-99.4283,36.9506],[-99.4283,36.9592]]]}},{"type":"Feature","properties":{"c":"#c8f500","v0":0.2,"v1":0.25},"geometry":{"type":"Polygon","coordinates":[[[-103.6696,36.9439],[-103.6565,36.9542],[-103.6387,36.9542],[-103.6161,36.9439],[-103.6111,36.9347],[-103.6237,36.9265],[-103.6415,36.9265],[-103.6646,36.9347],[-103.6696,36.9439]],[[-103.6592,36.9423],[-103.6531,36.9493],[-103.6421,36.9493],[-103.6264,36.9423],[-103.6294,36.9388],[-103.6513,36.9388],[-103.6592,36.9423]]]}},{"type":"Feature","properties":{"c":"#c8f500","v0":0.2,"v1":0.25},"geometry":{"type":"Polygon","coordinates":[[[-98.7274,36.7501],[-98.7158,36.7568],[-98.7004,36.7568],[-98.6812,36.7501],[-98.6762,36.7416],[-98.6854,36.7313],[-98.7008,36.7313],[-98.7224,36.7416],[-98.7274,36.7501]],[[-98.7099,36.7467],[-98.6918,36.7467],[-98.6846,36.7433],[-98.6882,36.7363],[-98.6972,36.7363],[-98.7117,36.7433],[-98.7099,36.7467]]]}},{"type":"Feature","properties":{"c":"#c8f500","v0":0.2,"v1":0.25},"geometry":{"type":"Polygon","coordinates":[[[-98.8047,36.641],[-98.7949,36.654],[-98.7794,36.658],[-98.7582,36.653],[-98.7532,36.6431],[-98.7644,36.6284],[-98.7799,36.6244],[-98.7997,36.6311],[-98.8047,36.641]],[[-98.7994,36.6399],[-98.7931,36.6509],[-98.7817,36.6549],[-98.765,36.652],[-98.76,36.6444],[-98.7667,36.6321],[-98.7781,36.6281],[-98.7944,36.6323],[-98.7994,36.6399]]]}},{"type":"Feature","properties":{"c":"#c8f500","v0":0.2,"v1":0.25},"geometry":{"type":"Polygon","coordinates":[[[-99.2294,36.4819],[-99.2031,36.5304],[-99.1329,36.5585],[-99.0186,36.5663],[-98.9603,36.5622],[-98.9581,36.5461],[-98.9952,36.503],[-99.0717,36.4327],[-99.13,36.3985],[-99.17,36.4003],[-99.2031,36.4153],[-99.2294,36.4436],[-99.2294,36.4819]],[[-99.224,36.4818],[-99.1933,36.5301],[-99.131,36.5598],[-99.037,36.5711],[-98.9819,36.5711],[-98.9658,36.5598],[-98.9958,36.5162],[-99.0719,36.4401],[-99.13,36.4026],[-99.17,36.4038],[-99.2024,36.4177],[-99.2271,36.4444],[-99.224,36.4818]]]}},{"type":"Feature","properties":{"c":"#c8f500","v0":0.2,"v1":0.25},"geometry":{"type":"Polygon","coordinates":[[[-106.8826,36.1773],[-106.8609,36.1968],[-106.8403,36.1968],[-106.8208,36.1773],[-106.8208,36.1596],[-106.8403,36.1435],[-106.8609,36.1435],[-106.8826,36.1596],[-106.8826,36.1773]],[[-106.8792,36.1764],[-106.8597,36.194],[-106.8412,36.194],[-106.8235,36.1764],[-106.8235,36.1602],[-106.8412,36.1456],[-106.8597,36.1456],[-106.8792,36.1602],[-106.8792,36.1764]]]}},{"type":"Feature","properties":{"c":"#c8f500","v0":0.2,"v1":0.25},"geometry":{"type":"Polygon","coordinates":[[[-107.2031,35.7691],[-107.1944,35.7816],[-107.1783,35.7856],[-107.155,35.7813],[-107.15,35.7719],[-107.1633,35.7574],[-107.1794,35.7534],[-107.1981,35.7597],[-107.2031,35.7691]],[[-107.1974,35.7676],[-107.1925,35.777],[-107.1802,35.781],[-107.1606,35.7797],[-107.1556,35.7731],[-107.1652,35.7611],[-107.1775,35.7571],[-107.1924,35.7609],[-107.1974,35.7676]]]}},{"type":"Feature","properties":{"c":"#c8f500","v0":0.2,"v1":0.25},"geometry":{"type":"Polygon","coordinates":[[[-106.2893,35.5291],[-106.2764,35.5493],[-106.2591,35.5574],[-106.2373,35.5535],[-106.2256,35.5435],[-106.2242,35.5272],[-106.2302,35.5133],[-106.2434,35.5019],[-106.2614,35.5019],[-106.2843,35.5133],[-106.2893,35.5291]],[[-106.2853,35.528],[-106.2751,35.546],[-106.2609,35.5542],[-106.2427,35.5524],[-106.2365,35.5394],[-106.2424,35.515],[-106.2566,35.5068],[-106.2791,35.515],[-106.2853,35.528]]]}},{"type":"Feature","properties":{"c":"#c8f500","v0":0.2,"v1":0.25},"geometry":{"type":"Polygon","coordinates":[[[-106.3456,35.4739],[-106.3352,35.4812],[-106.3252,35.4812],[-106.3157,35.4739],[-106.3157,35.466],[-106.3252,35.4575],[-106.3352,35.4575],[-106.3456,35.466],[-106.3456,35.4739]]]}},{"type":"Feature","properties":{"c":"#c8f500","v0":0.2,"v1":0.25},"geometry":{"type":"Polygon","coordinates":[[[-108.159,34.7712],[-108.153,34.7802],[-108.1431,34.7802],[-108.1293,34.7712],[-108.1293,34.7618],[-108.1431,34.7519],[-108.153,34.7519],[-108.159,34.7618],[-108.159,34.7712]]]}},{"type":"Feature","properties":{"c":"#c8f500","v0":0.2,"v1":0.25},"geometry":{"type":"Polygon","coordinates":[[[-84.3324,34.7371],[-84.3175,34.7436],[-84.3032,34.7395],[-84.2897,34.7248],[-84.2947,34.7152],[-84.3182,34.7109],[-84.3325,34.715],[-84.3374,34.7275],[-84.3324,34.7371]],[[-84.3287,34.7362],[-84.3162,34.741],[-84.3045,34.7369],[-84.2936,34.7239],[-84.2986,34.7163],[-84.3195,34.7141],[-84.3312,34.7182],[-84.3337,34.7286],[-84.3287,34.7362]]]}},{"type":"Feature","properties":{"c":"#c8f500","v0":0.2,"v1":0.25},"geometry":{"type":"Polygon","coordinates":[[[-106.9944,34.5157],[-106.9779,34.5405],[-106.9547,34.5604],[-106.9249,34.5755],[-106.9,34.5818],[-106.88,34.5792],[-106.8621,34.5675],[-106.8462,34.5467],[-106.8385,34.524],[-106.8392,34.4993],[-106.8571,34.4754],[-106.8924,34.4523],[-106.9283,34.4441],[-106.9648,34.4506],[-106.988,34.4663],[-106.9978,34.491],[-106.9944,34.5157]],[[-106.9902,34.5157],[-106.9742,34.5405],[-106.9521,34.5598],[-106.924,34.5739],[-106.9,34.5793],[-106.88,34.5761],[-106.863,34.565],[-106.8489,34.5459],[-106.8422,34.524],[-106.8429,34.4993],[-106.8599,34.4759],[-106.8933,34.4538],[-106.927,34.4455],[-106.9611,34.4511],[-106.9832,34.4663],[-106.9932,34.491],[-106.9902,34.5157]]]}},{"type":"Feature","properties":{"c":"#c8f500","v0":0.2,"v1":0.25},"geometry":{"type":"Polygon","coordinates":[[[-107.1992,34.3549],[-107.1978,34.3879],[-107.1887,34.4168],[-107.1717,34.4415],[-107.1549,34.4597],[-107.1383,34.4714],[-107.1157,34.4755],[-107.0871,34.4721],[-107.0749,34.4539],[-107.0792,34.4209],[-107.0976,34.3838],[-107.1301,34.3425],[-107.1572,34.3203],[-107.1791,34.3172],[-107.1925,34.3214],[-107.1974,34.3327],[-107.1992,34.3549]],[[-107.1843,34.4064],[-107.1614,34.4432],[-107.1328,34.4639],[-107.0983,34.4682],[-107.0801,34.458],[-107.0781,34.4333],[-107.0965,34.3962],[-107.1352,34.3466],[-107.1635,34.3219],[-107.1815,34.3219],[-107.1918,34.3384],[-107.1945,34.3714],[-107.1843,34.4064]]]}},{"type":"Feature","properties":{"c":"#c8f500","v0":0.2,"v1":0.25},"geometry":{"type":"Polygon","coordinates":[[[-106.4095,34.4598],[-106.3965,34.4715],[-106.3854,34.4715],[-106.3763,34.4598],[-106.3763,34.4495],[-106.3854,34.4406],[-106.3965,34.4406],[-106.4095,34.4495],[-106.4095,34.4598]],[[-106.4044,34.458],[-106.3936,34.4663],[-106.3886,34.464],[-106.3895,34.4512],[-106.395,34.4471],[-106.4049,34.4516],[-106.4044,34.458]]]}},{"type":"Feature","properties":{"c":"#c8f500","v0":0.2,"v1":0.25},"geometry":{"type":"Polygon","coordinates":[[[-102.2597,34.3954],[-102.2399,34.4104],[-102.2173,34.4104],[-102.1918,34.3954],[-102.1835,34.3714],[-102.1922,34.3384],[-102.188,34.3136],[-102.1708,34.2971],[-102.1741,34.2803],[-102.198,34.2632],[-102.2168,34.259],[-102.2303,34.2679],[-102.231,34.2847],[-102.2189,34.3095],[-102.227,34.3384],[-102.2554,34.3714],[-102.2597,34.3954]],[[-102.2614,34.3937],[-102.2538,34.4052],[-102.2365,34.4093],[-102.2095,34.4061],[-102.1945,34.3876],[-102.1915,34.3541],[-102.2,34.3361],[-102.22,34.3338],[-102.2388,34.3464],[-102.2564,34.3741],[-102.2614,34.3937]],[[-102.2253,34.28],[-102.2151,34.2953],[-102.2018,34.3036],[-102.1855,34.3048],[-102.1805,34.2964],[-102.1868,34.2787],[-102.2001,34.2704],[-102.2203,34.2717],[-102.2253,34.28]]]}},{"type":"Feature","properties":{"c":"#c8f500","v0":0.2,"v1":0.25},"geometry":{"type":"Polygon","coordinates":[[[-106.9928,34.317],[-106.9643,34.3404],[-106.93,34.3546],[-106.89,34.3597],[-106.8635,34.3563],[-106.8506,34.3443],[-106.8468,34.3301],[-106.8522,34.3136],[-106.8687,34.2955],[-106.8962,34.2759],[-106.925,34.267],[-106.955,34.2687],[-106.9793,34.2785],[-106.9978,34.2964],[-106.9928,34.317]],[[-106.9897,34.3166],[-106.9632,34.339],[-106.93,34.3523],[-106.89,34.3564],[-106.8647,34.3534],[-106.8542,34.3434],[-106.8513,34.3301],[-106.856,34.3136],[-106.8713,34.2962],[-106.8971,34.278],[-106.925,34.2699],[-106.955,34.2718],[-106.9782,34.2809],[-106.9947,34.2972],[-106.9897,34.3166]]]}},{"type":"Feature","properties":{"c":"#c8f500","v0":0.2,"v1":0.25},"geometry":{"type":"Polygon","coordinates":[[[-84.7743,34.0764],[-84.7581,34.0817],[-84.75,34.0751],[-84.75,34.0567],[-84.7581,34.0541],[-84.7743,34.0672],[-84.7743,34.0764]]]}},{"type":"Feature","properties":{"c":"#c8f500","v0":0.2,"v1":0.25},"geometry":{"type":"Polygon","coordinates":[[[-105.1305,33.8651],[-105.1168,33.8793],[-105.1015,33.8793],[-105.0844,33.8651],[-105.0844,33.851],[-105.1015,33.8368],[-105.1168,33.8368],[-105.1305,33.851],[-105.1305,33.8651]],[[-105.1268,33.8641],[-105.1156,33.8762],[-105.1026,33.8762],[-105.0877,33.8641],[-105.0877,33.852],[-105.1026,33.84],[-105.1156,33.84],[-105.1268,33.852],[-105.1268,33.8641]]]}},{"type":"Feature","properties":{"c":"#c8f500","v0":0.2,"v1":0.25},"geometry":{"type":"Polygon","coordinates":[[[-102.8487,33.6655],[-102.8362,33.6794],[-102.824,33.6835],[-102.812,33.6779],[-102.812,33.6651],[-102.824,33.6449],[-102.8362,33.6407],[-102.8487,33.6526],[-102.8487,33.6655]],[[-102.8442,33.664],[-102.8347,33.6748],[-102.825,33.6748],[-102.8149,33.664],[-102.8149,33.6538],[-102.825,33.6443],[-102.8347,33.6443],[-102.8442,33.6538],[-102.8442,33.664]]]}},{"type":"Feature","properties":{"c":"#c8f500","v0":0.2,"v1":0.25},"geometry":{"type":"Polygon","coordinates":[[[-86.5323,33.6627],[-86.5212,33.671],[-86.515,33.671],[-86.5135,33.6627],[-86.519,33.6585],[-86.5315,33.6585],[-86.5323,33.6627]]]}},{"type":"Feature","properties":{"c":"#c8f500","v0":0.2,"v1":0.25},"geometry":{"type":"Polygon","coordinates":[[[-102.967,33.5803],[-102.9557,33.5904],[-102.9436,33.5904],[-102.9309,33.5803],[-102.9309,33.5708],[-102.9436,33.5619],[-102.9557,33.5619],[-102.967,33.5708],[-102.967,33.5803]],[[-102.9603,33.5786],[-102.9534,33.5854],[-102.9456,33.5854],[-102.9368,33.5786],[-102.9402,33.5752],[-102.9559,33.5752],[-102.9603,33.5786]]]}},{"type":"Feature","properties":{"c":"#c8f500","v0":0.2,"v1":0.25},"geometry":{"type":"Polygon","coordinates":[[[-107.4894,33.3666],[-107.4631,33.3831],[-107.4429,33.3873],[-107.4287,33.3791],[-107.4205,33.3667],[-107.4186,33.35],[-107.4307,33.3348],[-107.4569,33.3213],[-107.4781,33.3254],[-107.4944,33.3474],[-107.4894,33.3666]],[[-107.4865,33.3658],[-107.4622,33.3808],[-107.4429,33.3766],[-107.4286,33.3533],[-107.4336,33.3359],[-107.4579,33.3245],[-107.4772,33.3287],[-107.4915,33.3484],[-107.4865,33.3658]]]}},{"type":"Feature","properties":{"c":"#c8f500","v0":0.2,"v1":0.25},"geometry":{"type":"Polygon","coordinates":[[[-86.2317,33.2664],[-86.2266,33.2831],[-86.2106,33.2913],[-86.1835,33.2909],[-86.1442,33.27],[-86.0925,33.2285],[-86.0975,33.2065],[-86.1592,33.2039],[-86.2011,33.2165],[-86.2232,33.2442],[-86.2317,33.2664]],[[-86.2249,33.2662],[-86.215,33.2824],[-86.2,33.29],[-86.18,33.2891],[-86.146,33.2684],[-86.098,33.228],[-86.103,33.2075],[-86.161,33.2067],[-86.2,33.2193],[-86.2199,33.2451],[-86.2249,33.2662]]]}},{"type":"Feature","properties":{"c":"#c8f500","v0":0.2,"v1":0.25},"geometry":{"type":"Polygon","coordinates":[[[-83.7299,32.9451],[-83.7166,32.9561],[-83.7078,32.9519],[-83.7034,32.9325],[-83.7101,32.9271],[-83.7277,32.9355],[-83.7299,32.9451]],[[-83.7257,32.9427],[-83.7152,32.9487],[-83.7099,32.9445],[-83.7097,32.9301],[-83.7149,32.9271],[-83.7256,32.9355],[-83.7257,32.9427]]]}},{"type":"Feature","properties":{"c":"#c8f500","v0":0.2,"v1":0.25},"geometry":{"type":"Polygon","coordinates":[[[-85.9466,32.8981],[-85.9355,32.9159],[-85.9185,32.9201],[-85.8956,32.9107],[-85.8906,32.8963],[-85.9035,32.8767],[-85.9205,32.8725],[-85.9416,32.8837],[-85.9466,32.8981]],[[-85.9428,32.8969],[-85.9343,32.9122],[-85.9198,32.9164],[-85.8994,32.9095],[-85.8944,32.8973],[-85.9048,32.8796],[-85.9193,32.8754],[-85.9378,32.8847],[-85.9428,32.8969]]]}},{"type":"Feature","properties":{"c":"#c8f500","v0":0.2,"v1":0.25},"geometry":{"type":"Polygon","coordinates":[[[-85.5665,31.6426],[-85.5555,31.6523],[-85.5467,31.6523],[-85.5402,31.6426],[-85.5457,31.6377],[-85.5633,31.6377],[-85.5665,31.6426]]]}},{"type":"Feature","properties":{"c":"#c8f500","v0":0.2,"v1":0.25},"geometry":{"type":"Polygon","coordinates":[[[-102.9504,30.9803],[-102.9368,30.9985],[-102.915,31.0035],[-102.885,30.9954],[-102.855,30.9952],[-102.825,31.0027],[-102.7993,30.9977],[-102.7778,30.9801],[-102.7659,30.9584],[-102.7636,30.9326],[-102.7693,30.9129],[-102.7831,30.8992],[-102.8,30.8917],[-102.82,30.8906],[-102.845,30.9015],[-102.875,30.9246],[-102.901,30.9363],[-102.923,30.9367],[-102.9398,30.9455],[-102.9514,30.9627],[-102.9504,30.9803]],[[-102.9407,30.9797],[-102.9202,30.9965],[-102.9,30.9998],[-102.88,30.9895],[-102.855,30.9887],[-102.825,30.9973],[-102.8005,30.994],[-102.7815,30.9788],[-102.7707,30.9584],[-102.7681,30.9326],[-102.7826,30.9133],[-102.8142,30.9002],[-102.8602,30.9131],[-102.9207,30.9519],[-102.9407,30.9797]]]}},{"type":"Feature","properties":{"c":"#c8f500","v0":0.2,"v1":0.25},"geometry":{"type":"Polygon","coordinates":[[[-102.8904,30.7553],[-102.8768,30.7697],[-102.865,30.7755],[-102.855,30.7724],[-102.8444,30.7523],[-102.8331,30.7151],[-102.8381,30.6963],[-102.8594,30.6959],[-102.8768,30.7088],[-102.8904,30.735],[-102.8904,30.7553]],[[-102.8865,30.7538],[-102.8755,30.7654],[-102.865,30.7692],[-102.855,30.7653],[-102.8469,30.7467],[-102.8408,30.7132],[-102.8458,30.6978],[-102.8619,30.7005],[-102.8755,30.7134],[-102.8865,30.7365],[-102.8865,30.7538]]]}},{"type":"Feature","properties":{"c":"#c8f500","v0":0.2,"v1":0.25},"geometry":{"type":"Polygon","coordinates":[[[-102.5651,30.5349],[-102.555,30.5562],[-102.54,30.5704],[-102.52,30.5775],[-102.5028,30.5755],[-102.4885,30.5643],[-102.4782,30.5415],[-102.4719,30.5071],[-102.4741,30.4837],[-102.4847,30.4716],[-102.5,30.4652],[-102.52,30.4648],[-102.54,30.4795],[-102.5601,30.5094],[-102.5651,30.5349]],[[-102.5621,30.5331],[-102.554,30.5507],[-102.54,30.5638],[-102.52,30.5723],[-102.504,30.5721],[-102.4921,30.5632],[-102.4828,30.5415],[-102.4762,30.5071],[-102.4872,30.4844],[-102.5157,30.4736],[-102.539,30.4822],[-102.5571,30.5103],[-102.5621,30.5331]]]}},{"type":"Feature","properties":{"c":"#c8f500","v0":0.2,"v1":0.25},"geometry":{"type":"Polygon","coordinates":[[[-108.305,30.4781],[-108.295,30.4891],[-108.2819,30.4891],[-108.2656,30.4781],[-108.2656,30.4674],[-108.2819,30.4571],[-108.295,30.4571],[-108.305,30.4674],[-108.305,30.4781]],[[-108.3,30.4769],[-108.2933,30.4856],[-108.2832,30.4856],[-108.2697,30.4769],[-108.2697,30.4689],[-108.2832,30.4614],[-108.2933,30.4614],[-108.3,30.4689],[-108.3,30.4769]]]}},{"type":"Feature","properties":{"c":"#c8f500","v0":0.2,"v1":0.25},"geometry":{"type":"Polygon","coordinates":[[[-102.8719,30.3346],[-102.8628,30.3691],[-102.8399,30.3907],[-102.8032,30.3993],[-102.7811,30.3902],[-102.7737,30.3633],[-102.79,30.3397],[-102.83,30.3195],[-102.8566,30.3114],[-102.8698,30.3153],[-102.8719,30.3346]],[[-102.8651,30.3482],[-102.855,30.3755],[-102.84,30.3932],[-102.82,30.4013],[-102.8009,30.4006],[-102.7826,30.3911],[-102.7776,30.3741],[-102.7859,30.3494],[-102.805,30.3319],[-102.835,30.3214],[-102.855,30.3208],[-102.8651,30.33],[-102.8651,30.3482]]]}},{"type":"Feature","properties":{"c":"#c8f500","v0":0.2,"v1":0.25},"geometry":{"type":"Polygon","coordinates":[[[-108.2836,30.3441],[-108.2612,30.363],[-108.2369,30.3587],[-108.2108,30.3311],[-108.2108,30.3117],[-108.2369,30.3005],[-108.2612,30.3048],[-108.2836,30.3247],[-108.2836,30.3441]],[[-108.2799,30.3429],[-108.26,30.3594],[-108.238,30.3551],[-108.2141,30.3299],[-108.2141,30.3128],[-108.238,30.3038],[-108.26,30.3081],[-108.2799,30.3258],[-108.2799,30.3429]]]}},{"type":"Feature","properties":{"c":"#c8f500","v0":0.2,"v1":0.25},"geometry":{"type":"Polygon","coordinates":[[[-108.1438,29.8017],[-108.1213,29.8092],[-108.1037,29.8005],[-108.091,29.7757],[-108.096,29.7635],[-108.1187,29.7641],[-108.1363,29.7728],[-108.1488,29.7896],[-108.1438,29.8017]],[[-108.138,29.8002],[-108.1193,29.8046],[-108.105,29.7976],[-108.095,29.7792],[-108.1,29.7701],[-108.12,29.7705],[-108.1343,29.7775],[-108.143,29.7912],[-108.138,29.8002]]]}},{"type":"Feature","properties":{"c":"#c8f500","v0":0.2,"v1":0.25},"geometry":{"type":"Polygon","coordinates":[[[-102.4614,28.7909],[-102.4405,28.8001],[-102.4221,28.7957],[-102.4064,28.7777],[-102.4064,28.7618],[-102.4221,28.748],[-102.4405,28.7524],[-102.4614,28.775],[-102.4614,28.7909]],[[-102.4565,28.7894],[-102.4388,28.7958],[-102.4238,28.7914],[-102.4113,28.7763],[-102.4158,28.7643],[-102.4373,28.7556],[-102.4524,28.7599],[-102.461,28.7775],[-102.4565,28.7894]]]}},{"type":"Feature","properties":{"c":"#c8f500","v0":0.2,"v1":0.25},"geometry":{"type":"Polygon","coordinates":[[[-102.2309,28.2295],[-102.217,28.241],[-102.2006,28.241],[-102.1819,28.2295],[-102.1819,28.2151],[-102.2006,28.1976],[-102.217,28.1976],[-102.2309,28.2151],[-102.2309,28.2295]],[[-102.2272,28.2283],[-102.2157,28.2374],[-102.202,28.2374],[-102.1859,28.2283],[-102.1859,28.2162],[-102.202,28.2011],[-102.2157,28.2011],[-102.2272,28.2162],[-102.2272,28.2283]]]}},{"type":"Feature","properties":{"c":"#c8f500","v0":0.2,"v1":0.25},"geometry":{"type":"Polygon","coordinates":[[[-102.3877,27.5209],[-102.3873,27.5298],[-102.3778,27.5364],[-102.3593,27.5408],[-102.3438,27.5319],[-102.3313,27.5098],[-102.3363,27.4968],[-102.3588,27.4929],[-102.3745,27.4973],[-102.3834,27.5101],[-102.3877,27.5209]],[[-102.38,27.5226],[-102.3733,27.5347],[-102.3593,27.5347],[-102.3379,27.5226],[-102.3329,27.51],[-102.3443,27.4969],[-102.3583,27.4969],[-102.375,27.51],[-102.38,27.5226]]]}},{"type":"Feature","properties":{"c":"#c8f500","v0":0.25,"v1":0.5},"geometry":{"type":"Polygon","coordinates":[[[-108.4996,42.8473],[-108.4799,42.8597],[-108.4635,42.8597],[-108.4505,42.8473],[-108.4505,42.8349],[-108.4635,42.8225],[-108.4799,42.8225],[-108.4996,42.8349],[-108.4996,42.8473]]]}},{"type":"Feature","properties":{"c":"#c8f500","v0":0.25,"v1":0.5},"geometry":{"type":"Polygon","coordinates":[[[-103.0387,42.5397],[-103.0309,42.5544],[-103.0166,42.5618],[-102.9958,42.5618],[-102.9915,42.551],[-103.0038,42.5295],[-103.015,42.5167],[-103.025,42.5128],[-103.0332,42.5162],[-103.0395,42.5269],[-103.0387,42.5397]]]}},{"type":"Feature","properties":{"c":"#c8f500","v0":0.25,"v1":0.5},"geometry":{"type":"Polygon","coordinates":[[[-103.5206,39.2992],[-103.5002,39.3309],[-103.465,39.3478],[-103.415,39.3499],[-103.3651,39.3379],[-103.3152,39.3118],[-103.2834,39.2834],[-103.2698,39.2524],[-103.2747,39.2284],[-103.2982,39.2113],[-103.335,39.2022],[-103.385,39.201],[-103.435,39.2065],[-103.485,39.2188],[-103.5152,39.2395],[-103.5256,39.2687],[-103.5206,39.2992]],[[-103.4776,39.3209],[-103.4592,39.334],[-103.435,39.3397],[-103.405,39.3379],[-103.37,39.3272],[-103.33,39.3076],[-103.3032,39.2825],[-103.2895,39.2521],[-103.2945,39.231],[-103.3182,39.2193],[-103.355,39.2139],[-103.405,39.2149],[-103.4399,39.2208],[-103.4596,39.2315],[-103.4738,39.2563],[-103.4825,39.295],[-103.4776,39.3209]]]}},{"type":"Feature","properties":{"c":"#c8f500","v0":0.25,"v1":0.5},"geometry":{"type":"Polygon","coordinates":[[[-97.9271,38.5285],[-97.9234,38.5441],[-97.9137,38.5558],[-97.8979,38.5634],[-97.88,38.5662],[-97.86,38.5641],[-97.8436,38.5564],[-97.8307,38.543],[-97.8357,38.5263],[-97.8586,38.5062],[-97.8847,38.5023],[-97.9142,38.5145],[-97.9271,38.5285]],[[-97.9049,38.5418],[-97.8816,38.5527],[-97.8626,38.5527],[-97.8478,38.5418],[-97.8528,38.5288],[-97.8776,38.5139],[-97.8966,38.5139],[-97.9099,38.5288],[-97.9049,38.5418]]]}},{"type":"Feature","properties":{"c":"#c8f500","v0":0.25,"v1":0.5},"geometry":{"type":"Polygon","coordinates":[[[-98.1444,38.4786],[-98.1215,38.4883],[-98.1023,38.4844],[-98.0868,38.4668],[-98.0918,38.4536],[-98.1173,38.4448],[-98.1365,38.4487],[-98.1494,38.4654],[-98.1444,38.4786]]]}},{"type":"Feature","properties":{"c":"#c8f500","v0":0.25,"v1":0.5},"geometry":{"type":"Polygon","coordinates":[[[-98.3994,37.9637],[-98.3798,37.981],[-98.3588,37.9849],[-98.3364,37.9755],[-98.3364,37.9562],[-98.3588,37.927],[-98.378,37.9152],[-98.3939,37.9208],[-98.4037,37.9314],[-98.4074,37.9472],[-98.3994,37.9637]],[[-98.3892,37.9605],[-98.3764,37.9713],[-98.3641,37.9752],[-98.3522,37.9723],[-98.3522,37.9604],[-98.3641,37.9396],[-98.3764,37.9357],[-98.3892,37.9486],[-98.3892,37.9605]]]}},{"type":"Feature","properties":{"c":"#c8f500","v0":0.25,"v1":0.5},"geometry":{"type":"Polygon","coordinates":[[[-98.6175,37.6746],[-98.5962,37.6825],[-98.5832,37.6746],[-98.5785,37.6509],[-98.5846,37.6379],[-98.6015,37.6356],[-98.6145,37.6435],[-98.6236,37.6616],[-98.6175,37.6746]]]}},{"type":"Feature","properties":{"c":"#c8f500","v0":0.25,"v1":0.5},"geometry":{"type":"Polygon","coordinates":[[[-98.7946,37.6607],[-98.7782,37.6726],[-98.7632,37.6726],[-98.7497,37.6607],[-98.7497,37.6452],[-98.7632,37.6261],[-98.7761,37.6182],[-98.7884,37.6215],[-98.7966,37.6311],[-98.8008,37.6469],[-98.7946,37.6607]]]}},{"type":"Feature","properties":{"c":"#c8f500","v0":0.25,"v1":0.5},"geometry":{"type":"Polygon","coordinates":[[[-103.5989,37.1464],[-103.5828,37.1464],[-103.5785,37.1418],[-103.5862,37.1328],[-103.5942,37.1328],[-103.6027,37.1418],[-103.5989,37.1464]]]}},{"type":"Feature","properties":{"c":"#c8f500","v0":0.25,"v1":0.5},"geometry":{"type":"Polygon","coordinates":[[[-99.4283,36.9592],[-99.4161,36.9679],[-99.404,36.9679],[-99.3919,36.9592],[-99.3919,36.9506],[-99.404,36.9422],[-99.4161,36.9422],[-99.4283,36.9506],[-99.4283,36.9592]]]}},{"type":"Feature","properties":{"c":"#c8f500","v0":0.25,"v1":0.5},"geometry":{"type":"Polygon","coordinates":[[[-103.6592,36.9423],[-103.6531,36.9493],[-103.6421,36.9493],[-103.6264,36.9423],[-103.6294,36.9388],[-103.6513,36.9388],[-103.6592,36.9423]]]}},{"type":"Feature","properties":{"c":"#c8f500","v0":0.25,"v1":0.5},"geometry":{"type":"Polygon","coordinates":[[[-98.7099,36.7467],[-98.6918,36.7467],[-98.6846,36.7433],[-98.6882,36.7363],[-98.6972,36.7363],[-98.7117,36.7433],[-98.7099,36.7467]]]}},{"type":"Feature","properties":{"c":"#c8f500","v0":0.25,"v1":0.5},"geometry":{"type":"Polygon","coordinates":[[[-98.7994,36.6399],[-98.7931,36.6509],[-98.7817,36.6549],[-98.765,36.652],[-98.76,36.6444],[-98.7667,36.6321],[-98.7781,36.6281],[-98.7944,36.6323],[-98.7994,36.6399]]]}},{"type":"Feature","properties":{"c":"#c8f500","v0":0.25,"v1":0.5},"geometry":{"type":"Polygon","coordinates":[[[-99.224,36.4818],[-99.1933,36.5301],[-99.131,36.5598],[-99.037,36.5711],[-98.9819,36.5711],[-98.9658,36.5598],[-98.9958,36.5162],[-99.0719,36.4401],[-99.13,36.4026],[-99.17,36.4038],[-99.2024,36.4177],[-99.2271,36.4444],[-99.224,36.4818]],[[-99.212,36.4765],[-99.184,36.514],[-99.1231,36.5381],[-99.0294,36.5488],[-99.0194,36.5188],[-99.0931,36.4481],[-99.145,36.4137],[-99.175,36.4155],[-99.199,36.4268],[-99.217,36.4474],[-99.212,36.4765]]]}},{"type":"Feature","properties":{"c":"#c8f500","v0":0.25,"v1":0.5},"geometry":{"type":"Polygon","coordinates":[[[-106.8792,36.1764],[-106.8597,36.194],[-106.8412,36.194],[-106.8235,36.1764],[-106.8235,36.1602],[-106.8412,36.1456],[-106.8597,36.1456],[-106.8792,36.1602],[-106.8792,36.1764]],[[-106.8654,36.1718],[-106.8551,36.1802],[-106.8463,36.1802],[-106.8389,36.1718],[-106.8389,36.1638],[-106.8463,36.1561],[-106.8551,36.1561],[-106.8654,36.1638],[-106.8654,36.1718]]]}},{"type":"Feature","properties":{"c":"#c8f500","v0":0.25,"v1":0.5},"geometry":{"type":"Polygon","coordinates":[[[-107.1974,35.7676],[-107.1925,35.777],[-107.1802,35.781],[-107.1606,35.7797],[-107.1556,35.7731],[-107.1652,35.7611],[-107.1775,35.7571],[-107.1924,35.7609],[-107.1974,35.7676]]]}},{"type":"Feature","properties":{"c":"#c8f500","v0":0.25,"v1":0.5},"geometry":{"type":"Polygon","coordinates":[[[-106.2853,35.528],[-106.2751,35.546],[-106.2609,35.5542],[-106.2427,35.5524],[-106.2365,35.5394],[-106.2424,35.515],[-106.2566,35.5068],[-106.2791,35.515],[-106.2853,35.528]]]}},{"type":"Feature","properties":{"c":"#c8f500","v0":0.25,"v1":0.5},"geometry":{"type":"Polygon","coordinates":[[[-84.3287,34.7362],[-84.3162,34.741],[-84.3045,34.7369],[-84.2936,34.7239],[-84.2986,34.7163],[-84.3195,34.7141],[-84.3312,34.7182],[-84.3337,34.7286],[-84.3287,34.7362]]]}},{"type":"Feature","properties":{"c":"#c8f500","v0":0.25,"v1":0.5},"geometry":{"type":"Polygon","coordinates":[[[-106.9902,34.5157],[-106.9742,34.5405],[-106.9521,34.5598],[-106.924,34.5739],[-106.9,34.5793],[-106.88,34.5761],[-106.863,34.565],[-106.8489,34.5459],[-106.8422,34.524],[-106.8429,34.4993],[-106.8599,34.4759],[-106.8933,34.4538],[-106.927,34.4455],[-106.9611,34.4511],[-106.9832,34.4663],[-106.9932,34.491],[-106.9902,34.5157]],[[-106.9777,34.4993],[-106.9702,34.524],[-106.9573,34.5433],[-106.9391,34.5573],[-106.9137,34.5615],[-106.8811,34.5557],[-106.8617,34.5405],[-106.8555,34.5157],[-106.8618,34.4923],[-106.8806,34.4702],[-106.905,34.4575],[-106.935,34.4542],[-106.9579,34.4611],[-106.9736,34.4783],[-106.9777,34.4993]]]}},{"type":"Feature","properties":{"c":"#c8f500","v0":0.25,"v1":0.5},"geometry":{"type":"Polygon","coordinates":[[[-107.1843,34.4064],[-107.1614,34.4432],[-107.1328,34.4639],[-107.0983,34.4682],[-107.0801,34.458],[-107.0781,34.4333],[-107.0965,34.3962],[-107.1352,34.3466],[-107.1635,34.3219],[-107.1815,34.3219],[-107.1918,34.3384],[-107.1945,34.3714],[-107.1843,34.4064]],[[-107.1695,34.4044],[-107.146,34.4374],[-107.1249,34.4539],[-107.1062,34.4539],[-107.1039,34.4333],[-107.118,34.392],[-107.1363,34.3684],[-107.1588,34.3622],[-107.1728,34.3664],[-107.1784,34.3807],[-107.1695,34.4044]]]}},{"type":"Feature","properties":{"c":"#c8f500","v0":0.25,"v1":0.5},"geometry":{"type":"Polygon","coordinates":[[[-106.4044,34.458],[-106.3936,34.4663],[-106.3886,34.464],[-106.3895,34.4512],[-106.395,34.4471],[-106.4049,34.4516],[-106.4044,34.458]]]}},{"type":"Feature","properties":{"c":"#c8f500","v0":0.25,"v1":0.5},"geometry":{"type":"Polygon","coordinates":[[[-102.2614,34.3937],[-102.2538,34.4052],[-102.2365,34.4093],[-102.2095,34.4061],[-102.1945,34.3876],[-102.1915,34.3541],[-102.2,34.3361],[-102.22,34.3338],[-102.2388,34.3464],[-102.2564,34.3741],[-102.2614,34.3937]],[[-102.2315,34.3879],[-102.2154,34.3879],[-102.208,34.3788],[-102.2093,34.3604],[-102.2174,34.3604],[-102.2321,34.3788],[-102.2315,34.3879]]]}},{"type":"Feature","properties":{"c":"#c8f500","v0":0.25,"v1":0.5},"geometry":{"type":"Polygon","coordinates":[[[-106.9897,34.3166],[-106.9632,34.339],[-106.93,34.3523],[-106.89,34.3564],[-106.8647,34.3534],[-106.8542,34.3434],[-106.8513,34.3301],[-106.856,34.3136],[-106.8713,34.2962],[-106.8971,34.278],[-106.925,34.2699],[-106.955,34.2718],[-106.9782,34.2809],[-106.9947,34.2972],[-106.9897,34.3166]],[[-106.9774,34.3143],[-106.9591,34.3322],[-106.9298,34.3404],[-106.8894,34.3391],[-106.8703,34.3301],[-106.8727,34.3136],[-106.8829,34.2985],[-106.901,34.2848],[-106.925,34.279],[-106.955,34.2812],[-106.9741,34.288],[-106.9824,34.2996],[-106.9774,34.3143]]]}},{"type":"Feature","properties":{"c":"#c8f500","v0":0.25,"v1":0.5},"geometry":{"type":"Polygon","coordinates":[[[-102.2253,34.28],[-102.2151,34.2953],[-102.2018,34.3036],[-102.1855,34.3048],[-102.1805,34.2964],[-102.1868,34.2787],[-102.2001,34.2704],[-102.2203,34.2717],[-102.2253,34.28]]]}},{"type":"Feature","properties":{"c":"#c8f500","v0":0.25,"v1":0.5},"geometry":{"type":"Polygon","coordinates":[[[-105.1268,33.8641],[-105.1156,33.8762],[-105.1026,33.8762],[-105.0877,33.8641],[-105.0877,33.852],[-105.1026,33.84],[-105.1156,33.84],[-105.1268,33.852],[-105.1268,33.8641]]]}},{"type":"Feature","properties":{"c":"#c8f500","v0":0.25,"v1":0.5},"geometry":{"type":"Polygon","coordinates":[[[-102.8442,33.664],[-102.8347,33.6748],[-102.825,33.6748],[-102.8149,33.664],[-102.8149,33.6538],[-102.825,33.6443],[-102.8347,33.6443],[-102.8442,33.6538],[-102.8442,33.664]]]}},{"type":"Feature","properties":{"c":"#c8f500","v0":0.25,"v1":0.5},"geometry":{"type":"Polygon","coordinates":[[[-102.9603,33.5786],[-102.9534,33.5854],[-102.9456,33.5854],[-102.9368,33.5786],[-102.9402,33.5752],[-102.9559,33.5752],[-102.9603,33.5786]]]}},{"type":"Feature","properties":{"c":"#c8f500","v0":0.25,"v1":0.5},"geometry":{"type":"Polygon","coordinates":[[[-107.4865,33.3658],[-107.4622,33.3808],[-107.4429,33.3766],[-107.4286,33.3533],[-107.4336,33.3359],[-107.4579,33.3245],[-107.4772,33.3287],[-107.4915,33.3484],[-107.4865,33.3658]],[[-107.4714,33.3614],[-107.4571,33.3677],[-107.4484,33.3635],[-107.4452,33.3489],[-107.4502,33.3409],[-107.4634,33.3395],[-107.4721,33.3436],[-107.4764,33.3534],[-107.4714,33.3614]]]}},{"type":"Feature","properties":{"c":"#c8f500","v0":0.25,"v1":0.5},"geometry":{"type":"Polygon","coordinates":[[[-86.2249,33.2662],[-86.215,33.2824],[-86.2,33.29],[-86.18,33.2891],[-86.146,33.2684],[-86.098,33.228],[-86.103,33.2075],[-86.161,33.2067],[-86.2,33.2193],[-86.2199,33.2451],[-86.2249,33.2662]],[[-86.207,33.263],[-86.1823,33.2731],[-86.1609,33.2647],[-86.1427,33.238],[-86.1477,33.2227],[-86.1759,33.2191],[-86.1973,33.2275],[-86.212,33.2478],[-86.207,33.263]]]}},{"type":"Feature","properties":{"c":"#c8f500","v0":0.25,"v1":0.5},"geometry":{"type":"Polygon","coordinates":[[[-83.7257,32.9427],[-83.7152,32.9487],[-83.7099,32.9445],[-83.7097,32.9301],[-83.7149,32.9271],[-83.7256,32.9355],[-83.7257,32.9427]]]}},{"type":"Feature","properties":{"c":"#c8f500","v0":0.25,"v1":0.5},"geometry":{"type":"Polygon","coordinates":[[[-85.9428,32.8969],[-85.9343,32.9122],[-85.9198,32.9164],[-85.8994,32.9095],[-85.8944,32.8973],[-85.9048,32.8796],[-85.9193,32.8754],[-85.9378,32.8847],[-85.9428,32.8969]]]}},{"type":"Feature","properties":{"c":"#c8f500","v0":0.25,"v1":0.5},"geometry":{"type":"Polygon","coordinates":[[[-102.9407,30.9797],[-102.9202,30.9965],[-102.9,30.9998],[-102.88,30.9895],[-102.855,30.9887],[-102.825,30.9973],[-102.8005,30.994],[-102.7815,30.9788],[-102.7707,30.9584],[-102.7681,30.9326],[-102.7826,30.9133],[-102.8142,30.9002],[-102.8602,30.9131],[-102.9207,30.9519],[-102.9407,30.9797]],[[-102.8448,30.9605],[-102.8216,30.9734],[-102.8026,30.9734],[-102.7878,30.9605],[-102.7812,30.9455],[-102.7827,30.9284],[-102.7951,30.9174],[-102.8184,30.9125],[-102.8366,30.9211],[-102.8498,30.9431],[-102.8448,30.9605]]]}},{"type":"Feature","properties":{"c":"#c8f500","v0":0.25,"v1":0.5},"geometry":{"type":"Polygon","coordinates":[[[-102.8865,30.7538],[-102.8755,30.7654],[-102.865,30.7692],[-102.855,30.7653],[-102.8469,30.7467],[-102.8408,30.7132],[-102.8458,30.6978],[-102.8619,30.7005],[-102.8755,30.7134],[-102.8865,30.7365],[-102.8865,30.7538]]]}},{"type":"Feature","properties":{"c":"#c8f500","v0":0.25,"v1":0.5},"geometry":{"type":"Polygon","coordinates":[[[-102.5621,30.5331],[-102.554,30.5507],[-102.54,30.5638],[-102.52,30.5723],[-102.504,30.5721],[-102.4921,30.5632],[-102.4828,30.5415],[-102.4762,30.5071],[-102.4872,30.4844],[-102.5157,30.4736],[-102.539,30.4822],[-102.5571,30.5103],[-102.5621,30.5331]],[[-102.5367,30.5313],[-102.5189,30.5454],[-102.5057,30.5368],[-102.4972,30.5055],[-102.5022,30.4888],[-102.5207,30.4868],[-102.5339,30.4954],[-102.5417,30.5147],[-102.5367,30.5313]]]}},{"type":"Feature","properties":{"c":"#c8f500","v0":0.25,"v1":0.5},"geometry":{"type":"Polygon","coordinates":[[[-108.3,30.4769],[-108.2933,30.4856],[-108.2832,30.4856],[-108.2697,30.4769],[-108.2697,30.4689],[-108.2832,30.4614],[-108.2933,30.4614],[-108.3,30.4689],[-108.3,30.4769]]]}},{"type":"Feature","properties":{"c":"#c8f500","v0":0.25,"v1":0.5},"geometry":{"type":"Polygon","coordinates":[[[-102.8651,30.3482],[-102.855,30.3755],[-102.84,30.3932],[-102.82,30.4013],[-102.8009,30.4006],[-102.7826,30.3911],[-102.7776,30.3741],[-102.7859,30.3494],[-102.805,30.3319],[-102.835,30.3214],[-102.855,30.3208],[-102.8651,30.33],[-102.8651,30.3482]],[[-102.8333,30.3737],[-102.8178,30.3827],[-102.8047,30.3827],[-102.7941,30.3737],[-102.7991,30.3632],[-102.8197,30.3514],[-102.8328,30.3514],[-102.8383,30.3632],[-102.8333,30.3737]]]}},{"type":"Feature","properties":{"c":"#c8f500","v0":0.25,"v1":0.5},"geometry":{"type":"Polygon","coordinates":[[[-108.2799,30.3429],[-108.26,30.3594],[-108.238,30.3551],[-108.2141,30.3299],[-108.2141,30.3128],[-108.238,30.3038],[-108.26,30.3081],[-108.2799,30.3258],[-108.2799,30.3429]]]}},{"type":"Feature","properties":{"c":"#c8f500","v0":0.25,"v1":0.5},"geometry":{"type":"Polygon","coordinates":[[[-108.138,29.8002],[-108.1193,29.8046],[-108.105,29.7976],[-108.095,29.7792],[-108.1,29.7701],[-108.12,29.7705],[-108.1343,29.7775],[-108.143,29.7912],[-108.138,29.8002]]]}},{"type":"Feature","properties":{"c":"#c8f500","v0":0.25,"v1":0.5},"geometry":{"type":"Polygon","coordinates":[[[-102.4565,28.7894],[-102.4388,28.7958],[-102.4238,28.7914],[-102.4113,28.7763],[-102.4158,28.7643],[-102.4373,28.7556],[-102.4524,28.7599],[-102.461,28.7775],[-102.4565,28.7894]]]}},{"type":"Feature","properties":{"c":"#c8f500","v0":0.25,"v1":0.5},"geometry":{"type":"Polygon","coordinates":[[[-102.2272,28.2283],[-102.2157,28.2374],[-102.202,28.2374],[-102.1859,28.2283],[-102.1859,28.2162],[-102.202,28.2011],[-102.2157,28.2011],[-102.2272,28.2162],[-102.2272,28.2283]]]}},{"type":"Feature","properties":{"c":"#c8f500","v0":0.25,"v1":0.5},"geometry":{"type":"Polygon","coordinates":[[[-102.38,27.5226],[-102.3733,27.5347],[-102.3593,27.5347],[-102.3379,27.5226],[-102.3329,27.51],[-102.3443,27.4969],[-102.3583,27.4969],[-102.375,27.51],[-102.38,27.5226]]]}},{"type":"Feature","properties":{"c":"#ffff00","v0":0.5,"v1":0.75},"geometry":{"type":"Polygon","coordinates":[[[-103.4776,39.3209],[-103.4592,39.334],[-103.435,39.3397],[-103.405,39.3379],[-103.37,39.3272],[-103.33,39.3076],[-103.3032,39.2825],[-103.2895,39.2521],[-103.2945,39.231],[-103.3182,39.2193],[-103.355,39.2139],[-103.405,39.2149],[-103.4399,39.2208],[-103.4596,39.2315],[-103.4738,39.2563],[-103.4825,39.295],[-103.4776,39.3209]],[[-103.4552,39.2679],[-103.4537,39.2988],[-103.4423,39.3178],[-103.4208,39.3246],[-103.39,39.3208],[-103.35,39.3061],[-103.3223,39.2872],[-103.3069,39.264],[-103.3069,39.2454],[-103.3223,39.2314],[-103.345,39.2223],[-103.375,39.2182],[-103.4065,39.2252],[-103.4394,39.2433],[-103.4552,39.2679]]]}},{"type":"Feature","properties":{"c":"#ffff00","v0":0.5,"v1":0.75},"geometry":{"type":"Polygon","coordinates":[[[-97.9049,38.5418],[-97.8816,38.5527],[-97.8626,38.5527],[-97.8478,38.5418],[-97.8528,38.5288],[-97.8776,38.5139],[-97.8966,38.5139],[-97.9099,38.5288],[-97.9049,38.5418]],[[-97.8908,38.5363],[-97.8677,38.5363],[-97.8646,38.5313],[-97.8815,38.5213],[-97.8931,38.5213],[-97.8993,38.5313],[-97.8908,38.5363]]]}},{"type":"Feature","properties":{"c":"#ffff00","v0":0.5,"v1":0.75},"geometry":{"type":"Polygon","coordinates":[[[-98.3892,37.9605],[-98.3764,37.9713],[-98.3641,37.9752],[-98.3522,37.9723],[-98.3522,37.9604],[-98.3641,37.9396],[-98.3764,37.9357],[-98.3892,37.9486],[-98.3892,37.9605]]]}},{"type":"Feature","properties":{"c":"#ffff00","v0":0.5,"v1":0.75},"geometry":{"type":"Polygon","coordinates":[[[-99.212,36.4765],[-99.184,36.514],[-99.1231,36.5381],[-99.0294,36.5488],[-99.0194,36.5188],[-99.0931,36.4481],[-99.145,36.4137],[-99.175,36.4155],[-99.199,36.4268],[-99.217,36.4474],[-99.212,36.4765]],[[-99.1993,36.4712],[-99.1664,36.4981],[-99.1285,36.5102],[-99.0855,36.5074],[-99.0657,36.4979],[-99.069,36.4818],[-99.0871,36.4617],[-99.12,36.4376],[-99.1498,36.4258],[-99.1766,36.4264],[-99.1964,36.4345],[-99.2093,36.45],[-99.1993,36.4712]]]}},{"type":"Feature","properties":{"c":"#ffff00","v0":0.5,"v1":0.75},"geometry":{"type":"Polygon","coordinates":[[[-106.8654,36.1718],[-106.8551,36.1802],[-106.8463,36.1802],[-106.8389,36.1718],[-106.8389,36.1638],[-106.8463,36.1561],[-106.8551,36.1561],[-106.8654,36.1638],[-106.8654,36.1718]]]}},{"type":"Feature","properties":{"c":"#ffff00","v0":0.5,"v1":0.75},"geometry":{"type":"Polygon","coordinates":[[[-106.9777,34.4993],[-106.9702,34.524],[-106.9573,34.5433],[-106.9391,34.5573],[-106.9137,34.5615],[-106.8811,34.5557],[-106.8617,34.5405],[-106.8555,34.5157],[-106.8618,34.4923],[-106.8806,34.4702],[-106.905,34.4575],[-106.935,34.4542],[-106.9579,34.4611],[-106.9736,34.4783],[-106.9777,34.4993]],[[-106.96,34.5034],[-106.9433,34.5363],[-106.9211,34.5528],[-106.8936,34.5528],[-106.8755,34.5405],[-106.867,34.5157],[-106.8684,34.4951],[-106.8799,34.4786],[-106.9017,34.4682],[-106.9339,34.4638],[-106.9546,34.468],[-106.9638,34.4806],[-106.96,34.5034]]]}},{"type":"Feature","properties":{"c":"#ffff00","v0":0.5,"v1":0.75},"geometry":{"type":"Polygon","coordinates":[[[-107.1695,34.4044],[-107.146,34.4374],[-107.1249,34.4539],[-107.1062,34.4539],[-107.1039,34.4333],[-107.118,34.392],[-107.1363,34.3684],[-107.1588,34.3622],[-107.1728,34.3664],[-107.1784,34.3807],[-107.1695,34.4044]],[[-107.1574,34.3986],[-107.1391,34.42],[-107.1291,34.42],[-107.1274,34.3986],[-107.1324,34.3845],[-107.1441,34.3777],[-107.1541,34.3777],[-107.1624,34.3845],[-107.1574,34.3986]]]}},{"type":"Feature","properties":{"c":"#ffff00","v0":0.5,"v1":0.75},"geometry":{"type":"Polygon","coordinates":[[[-102.2315,34.3879],[-102.2154,34.3879],[-102.208,34.3788],[-102.2093,34.3604],[-102.2174,34.3604],[-102.2321,34.3788],[-102.2315,34.3879]]]}},{"type":"Feature","properties":{"c":"#ffff00","v0":0.5,"v1":0.75},"geometry":{"type":"Polygon","coordinates":[[[-106.9774,34.3143],[-106.9591,34.3322],[-106.9298,34.3404],[-106.8894,34.3391],[-106.8703,34.3301],[-106.8727,34.3136],[-106.8829,34.2985],[-106.901,34.2848],[-106.925,34.279],[-106.955,34.2812],[-106.9741,34.288],[-106.9824,34.2996],[-106.9774,34.3143]],[[-106.9705,34.3124],[-106.9568,34.3267],[-106.9327,34.3308],[-106.898,34.3248],[-106.893,34.3117],[-106.9177,34.2913],[-106.9418,34.2871],[-106.9655,34.2993],[-106.9705,34.3124]]]}},{"type":"Feature","properties":{"c":"#ffff00","v0":0.5,"v1":0.75},"geometry":{"type":"Polygon","coordinates":[[[-107.4714,33.3614],[-107.4571,33.3677],[-107.4484,33.3635],[-107.4452,33.3489],[-107.4502,33.3409],[-107.4634,33.3395],[-107.4721,33.3436],[-107.4764,33.3534],[-107.4714,33.3614]]]}},{"type":"Feature","properties":{"c":"#ffff00","v0":0.5,"v1":0.75},"geometry":{"type":"Polygon","coordinates":[[[-86.207,33.263],[-86.1823,33.2731],[-86.1609,33.2647],[-86.1427,33.238],[-86.1477,33.2227],[-86.1759,33.2191],[-86.1973,33.2275],[-86.212,33.2478],[-86.207,33.263]],[[-86.1988,33.2603],[-86.1796,33.265],[-86.1663,33.2608],[-86.1588,33.2478],[-86.1638,33.2379],[-86.1813,33.2311],[-86.1946,33.2352],[-86.2038,33.2504],[-86.1988,33.2603]]]}},{"type":"Feature","properties":{"c":"#ffff00","v0":0.5,"v1":0.75},"geometry":{"type":"Polygon","coordinates":[[[-102.8448,30.9605],[-102.8216,30.9734],[-102.8026,30.9734],[-102.7878,30.9605],[-102.7812,30.9455],[-102.7827,30.9284],[-102.7951,30.9174],[-102.8184,30.9125],[-102.8366,30.9211],[-102.8498,30.9431],[-102.8448,30.9605]],[[-102.8294,30.9431],[-102.8165,30.9553],[-102.8056,30.9553],[-102.7967,30.9431],[-102.7967,30.9322],[-102.8056,30.9228],[-102.8165,30.9228],[-102.8294,30.9322],[-102.8294,30.9431]]]}},{"type":"Feature","properties":{"c":"#ffff00","v0":0.5,"v1":0.75},"geometry":{"type":"Polygon","coordinates":[[[-102.5367,30.5313],[-102.5189,30.5454],[-102.5057,30.5368],[-102.4972,30.5055],[-102.5022,30.4888],[-102.5207,30.4868],[-102.5339,30.4954],[-102.5417,30.5147],[-102.5367,30.5313]]]}},{"type":"Feature","properties":{"c":"#ffff00","v0":0.5,"v1":0.75},"geometry":{"type":"Polygon","coordinates":[[[-102.8333,30.3737],[-102.8178,30.3827],[-102.8047,30.3827],[-102.7941,30.3737],[-102.7991,30.3632],[-102.8197,30.3514],[-102.8328,30.3514],[-102.8383,30.3632],[-102.8333,30.3737]]]}},{"type":"Feature","properties":{"c":"#ffd700","v0":0.75,"v1":1.0},"geometry":{"type":"Polygon","coordinates":[[[-103.4552,39.2679],[-103.4537,39.2988],[-103.4423,39.3178],[-103.4208,39.3246],[-103.39,39.3208],[-103.35,39.3061],[-103.3223,39.2872],[-103.3069,39.264],[-103.3069,39.2454],[-103.3223,39.2314],[-103.345,39.2223],[-103.375,39.2182],[-103.4065,39.2252],[-103.4394,39.2433],[-103.4552,39.2679]],[[-103.4395,39.264],[-103.4368,39.2872],[-103.4291,39.3028],[-103.4164,39.3106],[-103.395,39.3106],[-103.365,39.3027],[-103.3418,39.2911],[-103.3254,39.2756],[-103.32,39.2601],[-103.3257,39.2446],[-103.3389,39.2339],[-103.3596,39.228],[-103.38,39.2254],[-103.4,39.226],[-103.4177,39.2329],[-103.4331,39.2459],[-103.4395,39.264]]]}},{"type":"Feature","properties":{"c":"#ffd700","v0":0.75,"v1":1.0},"geometry":{"type":"Polygon","coordinates":[[[-97.8908,38.5363],[-97.8677,38.5363],[-97.8646,38.5313],[-97.8815,38.5213],[-97.8931,38.5213],[-97.8993,38.5313],[-97.8908,38.5363]]]}},{"type":"Feature","properties":{"c":"#ffd700","v0":0.75,"v1":1.0},"geometry":{"type":"Polygon","coordinates":[[[-99.1993,36.4712],[-99.1664,36.4981],[-99.1285,36.5102],[-99.0855,36.5074],[-99.0657,36.4979],[-99.069,36.4818],[-99.0871,36.4617],[-99.12,36.4376],[-99.1498,36.4258],[-99.1766,36.4264],[-99.1964,36.4345],[-99.2093,36.45],[-99.1993,36.4712]],[[-99.1956,36.4658],[-99.1785,36.4821],[-99.1519,36.4901],[-99.1157,36.49],[-99.1107,36.4756],[-99.1369,36.4472],[-99.16,36.4339],[-99.18,36.4359],[-99.1935,36.4421],[-99.2006,36.4525],[-99.1956,36.4658]]]}},{"type":"Feature","properties":{"c":"#ffd700","v0":0.75,"v1":1.0},"geometry":{"type":"Polygon","coordinates":[[[-106.96,34.5034],[-106.9433,34.5363],[-106.9211,34.5528],[-106.8936,34.5528],[-106.8755,34.5405],[-106.867,34.5157],[-106.8684,34.4951],[-106.8799,34.4786],[-106.9017,34.4682],[-106.9339,34.4638],[-106.9546,34.468],[-106.9638,34.4806],[-106.96,34.5034]],[[-106.9537,34.4993],[-106.9466,34.524],[-106.9298,34.5394],[-106.9033,34.5456],[-106.8857,34.5374],[-106.8772,34.5147],[-106.8772,34.4969],[-106.8857,34.4839],[-106.9,34.4743],[-106.92,34.468],[-106.9368,34.4704],[-106.9504,34.4814],[-106.9537,34.4993]]]}},{"type":"Feature","properties":{"c":"#ffd700","v0":0.75,"v1":1.0},"geometry":{"type":"Polygon","coordinates":[[[-107.1574,34.3986],[-107.1391,34.42],[-107.1291,34.42],[-107.1274,34.3986],[-107.1324,34.3845],[-107.1441,34.3777],[-107.1541,34.3777],[-107.1624,34.3845],[-107.1574,34.3986]]]}},{"type":"Feature","properties":{"c":"#ffd700","v0":0.75,"v1":1.0},"geometry":{"type":"Polygon","coordinates":[[[-106.9705,34.3124],[-106.9568,34.3267],[-106.9327,34.3308],[-106.898,34.3248],[-106.893,34.3117],[-106.9177,34.2913],[-106.9418,34.2871],[-106.9655,34.2993],[-106.9705,34.3124]],[[-106.9634,34.3108],[-106.9545,34.3217],[-106.9367,34.3258],[-106.9102,34.3232],[-106.9052,34.3132],[-106.9217,34.2959],[-106.9395,34.2917],[-106.9584,34.3008],[-106.9634,34.3108]]]}},{"type":"Feature","properties":{"c":"#ffd700","v0":0.75,"v1":1.0},"geometry":{"type":"Polygon","coordinates":[[[-86.1988,33.2603],[-86.1796,33.265],[-86.1663,33.2608],[-86.1588,33.2478],[-86.1638,33.2379],[-86.1813,33.2311],[-86.1946,33.2352],[-86.2038,33.2504],[-86.1988,33.2603]],[[-86.1888,33.2538],[-86.1757,33.2455],[-86.1744,33.2405],[-86.1848,33.2389],[-86.1913,33.2431],[-86.194,33.253],[-86.1888,33.2538]]]}},{"type":"Feature","properties":{"c":"#ffd700","v0":0.75,"v1":1.0},"geometry":{"type":"Polygon","coordinates":[[[-102.8294,30.9431],[-102.8165,30.9553],[-102.8056,30.9553],[-102.7967,30.9431],[-102.7967,30.9322],[-102.8056,30.9228],[-102.8165,30.9228],[-102.8294,30.9322],[-102.8294,30.9431]]]}},{"type":"Feature","properties":{"c":"#ff8c00","v0":1.0,"v1":1.5},"geometry":{"type":"Polygon","coordinates":[[[-103.4395,39.264],[-103.4368,39.2872],[-103.4291,39.3028],[-103.4164,39.3106],[-103.395,39.3106],[-103.365,39.3027],[-103.3418,39.2911],[-103.3254,39.2756],[-103.32,39.2601],[-103.3257,39.2446],[-103.3389,39.2339],[-103.3596,39.228],[-103.38,39.2254],[-103.4,39.226],[-103.4177,39.2329],[-103.4331,39.2459],[-103.4395,39.264]],[[-103.4062,39.2729],[-103.3954,39.2831],[-103.379,39.2831],[-103.3571,39.2729],[-103.3571,39.2614],[-103.379,39.2486],[-103.3954,39.2486],[-103.4062,39.2614],[-103.4062,39.2729]]]}},{"type":"Feature","properties":{"c":"#ff8c00","v0":1.0,"v1":1.5},"geometry":{"type":"Polygon","coordinates":[[[-99.1956,36.4658],[-99.1785,36.4821],[-99.1519,36.4901],[-99.1157,36.49],[-99.1107,36.4756],[-99.1369,36.4472],[-99.16,36.4339],[-99.18,36.4359],[-99.1935,36.4421],[-99.2006,36.4525],[-99.1956,36.4658]]]}},{"type":"Feature","properties":{"c":"#ff8c00","v0":1.0,"v1":1.5},"geometry":{"type":"Polygon","coordinates":[[[-106.9537,34.4993],[-106.9466,34.524],[-106.9298,34.5394],[-106.9033,34.5456],[-106.8857,34.5374],[-106.8772,34.5147],[-106.8772,34.4969],[-106.8857,34.4839],[-106.9,34.4743],[-106.92,34.468],[-106.9368,34.4704],[-106.9504,34.4814],[-106.9537,34.4993]],[[-106.9279,34.5113],[-106.916,34.527],[-106.9062,34.527],[-106.8985,34.5113],[-106.8985,34.4992],[-106.9062,34.4908],[-106.916,34.4908],[-106.9279,34.4992],[-106.9279,34.5113]]]}},{"type":"Feature","properties":{"c":"#ff8c00","v0":1.0,"v1":1.5},"geometry":{"type":"Polygon","coordinates":[[[-106.9634,34.3108],[-106.9545,34.3217],[-106.9367,34.3258],[-106.9102,34.3232],[-106.9052,34.3132],[-106.9217,34.2959],[-106.9395,34.2917],[-106.9584,34.3008],[-106.9634,34.3108]]]}},{"type":"Feature","properties":{"c":"#ff8c00","v0":1.0,"v1":1.5},"geometry":{"type":"Polygon","coordinates":[[[-86.1888,33.2538],[-86.1757,33.2455],[-86.1744,33.2405],[-86.1848,33.2389],[-86.1913,33.2431],[-86.194,33.253],[-86.1888,33.2538]]]}},{"type":"Feature","properties":{"c":"#ff4500","v0":1.5,"v1":1.75},"geometry":{"type":"Polygon","coordinates":[[[-103.4062,39.2729],[-103.3954,39.2831],[-103.379,39.2831],[-103.3571,39.2729],[-103.3571,39.2614],[-103.379,39.2486],[-103.3954,39.2486],[-103.4062,39.2614],[-103.4062,39.2729]]]}},{"type":"Feature","properties":{"c":"#ff4500","v0":1.5,"v1":1.75},"geometry":{"type":"Polygon","coordinates":[[[-106.9279,34.5113],[-106.916,34.527],[-106.9062,34.527],[-106.8985,34.5113],[-106.8985,34.4992],[-106.9062,34.4908],[-106.916,34.4908],[-106.9279,34.4992],[-106.9279,34.5113]]]}}]}