{"type":"FeatureCollection","features":[{"type":"Feature","properties":{"c":"#c8f500","v0":0.2,"v1":0.25},"geometry":{"type":"Polygon","coordinates":[[[-96.6127,43.0399],[-96.5976,43.0568],[-96.575,43.0644],[-96.545,43.0627],[-96.5266,43.0579],[-96.5198,43.05],[-96.5198,43.0387],[-96.5268,43.0241],[-96.5402,43.013],[-96.5601,43.0052],[-96.5826,43.0089],[-96.6077,43.0239],[-96.6127,43.0399]],[[-96.6092,43.0389],[-96.5964,43.054],[-96.5732,43.0576],[-96.5396,43.0499],[-96.5262,43.0387],[-96.533,43.0241],[-96.5448,43.0138],[-96.5616,43.0077],[-96.5814,43.0114],[-96.6042,43.0248],[-96.6092,43.0389]]]}},{"type":"Feature","properties":{"c":"#c8f500","v0":0.25,"v1":0.5},"geometry":{"type":"Polygon","coordinates":[[[-96.6092,43.0389],[-96.5964,43.054],[-96.5732,43.0576],[-96.5396,43.0499],[-96.5262,43.0387],[-96.533,43.0241],[-96.5448,43.0138],[-96.5616,43.0077],[-96.5814,43.0114],[-96.6042,43.0248],[-96.6092,43.0389]],[[-96.584,43.0351],[-96.5747,43.0425],[-96.5657,43.0425],[-96.5571,43.0351],[-96.5618,43.0314],[-96.5797,43.0314],[-96.584,43.0351]]]}},{"type":"Feature","properties":{"c":"#ffff00","v0":0.5,"v1":0.75},"geometry":{"type":"Polygon","coordinates":[[[-96.584,43.0351],[-96.5747,43.0425],[-96.5657,43.0425],[-96.5571,43.0351],[-96.5618,43.0314],[-96.5797,43.0314],[-96.584,43.0351]]]}}]}