{"type":"FeatureCollection","features":[{"type":"Feature","properties":{"c":"#c8f500","v0":0.2,"v1":0.25},"geometry":{"type":"Polygon","coordinates":[[[-99.8212,25.3812],[-99.8068,25.4083],[-99.8025,25.4354],[-99.8085,25.4624],[-99.8061,25.4755],[-99.7954,25.4744],[-99.7822,25.4564],[-99.7665,25.4213],[-99.7665,25.3903],[-99.7822,25.3633],[-99.7996,25.3543],[-99.8188,25.3632],[-99.8212,25.3812]],[[-99.8084,25.3826],[-99.7828,25.4125],[-99.775,25.4108],[-99.785,25.3775],[-99.795,25.3583],[-99.805,25.3534],[-99.8128,25.3551],[-99.8184,25.3634],[-99.8084,25.3826]]]}},{"type":"Feature","properties":{"c":"#c8f500","v0":0.2,"v1":0.25},"geometry":{"type":"Polygon","coordinates":[[[-99.7377,24.7037],[-99.7326,24.717],[-99.72,24.7243],[-99.7,24.7257],[-99.6847,24.7146],[-99.6742,24.6908],[-99.6792,24.6735],[-99.6997,24.6628],[-99.7176,24.6673],[-99.7327,24.6871],[-99.7377,24.7037]],[[-99.7346,24.7025],[-99.7315,24.7133],[-99.72,24.7196],[-99.7,24.7215],[-99.6859,24.7116],[-99.6776,24.6898],[-99.6826,24.6748],[-99.7009,24.6665],[-99.7165,24.6711],[-99.7296,24.6884],[-99.7346,24.7025]]]}},{"type":"Feature","properties":{"c":"#c8f500","v0":0.25,"v1":0.5},"geometry":{"type":"Polygon","coordinates":[[[-99.8084,25.3826],[-99.7828,25.4125],[-99.775,25.4108],[-99.785,25.3775],[-99.795,25.3583],[-99.805,25.3534],[-99.8128,25.3551],[-99.8184,25.3634],[-99.8084,25.3826]]]}},{"type":"Feature","properties":{"c":"#c8f500","v0":0.25,"v1":0.5},"geometry":{"type":"Polygon","coordinates":[[[-99.7346,24.7025],[-99.7315,24.7133],[-99.72,24.7196],[-99.7,24.7215],[-99.6859,24.7116],[-99.6776,24.6898],[-99.6826,24.6748],[-99.7009,24.6665],[-99.7165,24.6711],[-99.7296,24.6884],[-99.7346,24.7025]]]}}]}