{"type":"FeatureCollection","features":[{"type":"Feature","properties":{"c":"#c8f500","v0":0.2,"v1":0.25},"geometry":{"type":"Polygon","coordinates":[[[-73.8801,42.7571],[-73.8334,42.7652],[-73.8016,42.7615],[-73.7849,42.7461],[-73.7999,42.7343],[-73.8466,42.7261],[-73.8784,42.7298],[-73.8951,42.7453],[-73.8801,42.7571]],[[-73.877,42.7564],[-73.8323,42.7631],[-73.8027,42.7594],[-73.788,42.7454],[-73.803,42.735],[-73.8477,42.7282],[-73.8773,42.7319],[-73.892,42.746],[-73.877,42.7564]]]}},{"type":"Feature","properties":{"c":"#c8f500","v0":0.25,"v1":0.5},"geometry":{"type":"Polygon","coordinates":[[[-73.877,42.7564],[-73.8323,42.7631],[-73.8027,42.7594],[-73.788,42.7454],[-73.803,42.735],[-73.8477,42.7282],[-73.8773,42.7319],[-73.892,42.746],[-73.877,42.7564]],[[-73.8585,42.7535],[-73.8262,42.7545],[-73.8088,42.7508],[-73.8065,42.7425],[-73.8215,42.7378],[-73.8538,42.7369],[-73.8712,42.7405],[-73.8735,42.7489],[-73.8585,42.7535]]]}},{"type":"Feature","properties":{"c":"#ffff00","v0":0.5,"v1":0.75},"geometry":{"type":"Polygon","coordinates":[[[-73.8585,42.7535],[-73.8262,42.7545],[-73.8088,42.7508],[-73.8065,42.7425],[-73.8215,42.7378],[-73.8538,42.7369],[-73.8712,42.7405],[-73.8735,42.7489],[-73.8585,42.7535]]]}}]}