{"type":"FeatureCollection","features":[{"type":"Feature","properties":{"c":"#c8f500","v0":0.2,"v1":0.25},"geometry":{"type":"Polygon","coordinates":[[[-120.289,42.7074],[-120.263,42.7338],[-120.245,42.7259],[-120.235,42.6838],[-120.24,42.6609],[-120.26,42.6573],[-120.278,42.6652],[-120.294,42.6846],[-120.289,42.7074]],[[-120.2849,42.7055],[-120.2616,42.7281],[-120.2466,42.7208],[-120.2399,42.6835],[-120.2475,42.6648],[-120.2694,42.6648],[-120.2844,42.6722],[-120.2925,42.6869],[-120.2849,42.7055]]]}},{"type":"Feature","properties":{"c":"#c8f500","v0":0.2,"v1":0.25},"geometry":{"type":"Polygon","coordinates":[[[-121.6375,42.3552],[-121.629,42.3552],[-121.626,42.3503],[-121.6287,42.3406],[-121.633,42.3406],[-121.6389,42.3503],[-121.6375,42.3552]]]}},{"type":"Feature","properties":{"c":"#c8f500","v0":0.2,"v1":0.25},"geometry":{"type":"Polygon","coordinates":[[[-122.7507,42.1368],[-122.7253,42.1442],[-122.7169,42.1412],[-122.7256,42.1277],[-122.7384,42.124],[-122.7551,42.13],[-122.7507,42.1368]]]}},{"type":"Feature","properties":{"c":"#c8f500","v0":0.2,"v1":0.25},"geometry":{"type":"Polygon","coordinates":[[[-110.068,39.6487],[-110.056,39.669],[-110.04,39.6811],[-110.02,39.685],[-110.0051,39.6825],[-109.9953,39.6737],[-110.0003,39.6578],[-110.0201,39.6348],[-110.041,39.6271],[-110.063,39.6347],[-110.068,39.6487]],[[-110.0644,39.6478],[-110.0548,39.6664],[-110.0364,39.6741],[-110.0091,39.6709],[-110.0041,39.6586],[-110.0214,39.6371],[-110.0398,39.6294],[-110.0594,39.6355],[-110.0644,39.6478]]]}},{"type":"Feature","properties":{"c":"#c8f500","v0":0.2,"v1":0.25},"geometry":{"type":"Polygon","coordinates":[[[-110.9216,39.6261],[-110.9139,39.6321],[-110.9053,39.6321],[-110.8959,39.6261],[-110.8998,39.6231],[-110.9169,39.6231],[-110.9216,39.6261]]]}},{"type":"Feature","properties":{"c":"#c8f500","v0":0.2,"v1":0.25},"geometry":{"type":"Polygon","coordinates":[[[-83.8172,24.3945],[-83.7991,24.4081],[-83.79,24.4054],[-83.79,24.3864],[-83.7991,24.3796],[-83.8172,24.385],[-83.8172,24.3945]],[[-83.8149,24.392],[-83.8116,24.4005],[-83.805,24.4017],[-83.795,24.3957],[-83.7966,24.3914],[-83.8099,24.389],[-83.8149,24.392]]]}},{"type":"Feature","properties":{"c":"#c8f500","v0":0.25,"v1":0.5},"geometry":{"type":"Polygon","coordinates":[[[-120.2849,42.7055],[-120.2616,42.7281],[-120.2466,42.7208],[-120.2399,42.6835],[-120.2475,42.6648],[-120.2694,42.6648],[-120.2844,42.6722],[-120.2925,42.6869],[-120.2849,42.7055]]]}},{"type":"Feature","properties":{"c":"#c8f500","v0":0.25,"v1":0.5},"geometry":{"type":"Polygon","coordinates":[[[-110.0644,39.6478],[-110.0548,39.6664],[-110.0364,39.6741],[-110.0091,39.6709],[-110.0041,39.6586],[-110.0214,39.6371],[-110.0398,39.6294],[-110.0594,39.6355],[-110.0644,39.6478]]]}},{"type":"Feature","properties":{"c":"#c8f500","v0":0.25,"v1":0.5},"geometry":{"type":"Polygon","coordinates":[[[-83.8149,24.392],[-83.8116,24.4005],[-83.805,24.4017],[-83.795,24.3957],[-83.7966,24.3914],[-83.8099,24.389],[-83.8149,24.392]]]}}]}