{"type":"FeatureCollection","features":[{"type":"Feature","properties":{"c":"#c8f500","v0":0.2,"v1":0.25},"geometry":{"type":"Polygon","coordinates":[[[-102.0105,40.382],[-101.9968,40.3981],[-101.975,40.4118],[-101.945,40.4231],[-101.92,40.4271],[-101.9,40.4239],[-101.883,40.414],[-101.8691,40.3974],[-101.8665,40.3777],[-101.875,40.3549],[-101.892,40.3375],[-101.9173,40.3257],[-101.945,40.3241],[-101.975,40.3327],[-101.9968,40.3462],[-102.0105,40.3647],[-102.0105,40.382]],[[-101.9922,40.3869],[-101.9507,40.4127],[-101.92,40.4238],[-101.9,40.42],[-101.8842,40.4109],[-101.8725,40.3964],[-101.8711,40.3777],[-101.8801,40.3549],[-101.8959,40.3384],[-101.9186,40.3282],[-101.945,40.3275],[-101.975,40.3361],[-101.9957,40.3488],[-102.0072,40.3655],[-101.9922,40.3869]]]}},{"type":"Feature","properties":{"c":"#c8f500","v0":0.2,"v1":0.25},"geometry":{"type":"Polygon","coordinates":[[[-103.5528,39.2775],[-103.5376,39.2967],[-103.51,39.3125],[-103.47,39.3247],[-103.4355,39.319],[-103.4066,39.2952],[-103.3885,39.2717],[-103.3811,39.2485],[-103.3856,39.2289],[-103.4019,39.213],[-103.425,39.204],[-103.455,39.202],[-103.484,39.2061],[-103.512,39.2163],[-103.5346,39.233],[-103.5518,39.2563],[-103.5528,39.2775]],[[-103.5497,39.2767],[-103.5366,39.2943],[-103.51,39.3089],[-103.47,39.3206],[-103.4365,39.3157],[-103.4094,39.2941],[-103.3921,39.2717],[-103.3847,39.2485],[-103.3982,39.2278],[-103.4327,39.2095],[-103.4679,39.2057],[-103.5036,39.2162],[-103.5302,39.233],[-103.5476,39.2563],[-103.5497,39.2767]]]}},{"type":"Feature","properties":{"c":"#c8f500","v0":0.2,"v1":0.25},"geometry":{"type":"Polygon","coordinates":[[[-83.2884,38.7302],[-83.2628,38.7429],[-83.2413,38.739],[-83.2238,38.7185],[-83.2288,38.702],[-83.2563,38.6898],[-83.2778,38.6937],[-83.2934,38.7138],[-83.2884,38.7302]],[[-83.2855,38.7294],[-83.2618,38.7407],[-83.2424,38.7368],[-83.2272,38.7177],[-83.2322,38.7028],[-83.2574,38.6921],[-83.2768,38.696],[-83.2905,38.7145],[-83.2855,38.7294]]]}},{"type":"Feature","properties":{"c":"#c8f500","v0":0.2,"v1":0.25},"geometry":{"type":"Polygon","coordinates":[[[-94.8776,37.2779],[-94.8592,37.2861],[-94.8431,37.2861],[-94.8294,37.2779],[-94.8294,37.2704],[-94.8431,37.2635],[-94.8592,37.2635],[-94.8776,37.2704],[-94.8776,37.2779]]]}},{"type":"Feature","properties":{"c":"#c8f500","v0":0.2,"v1":0.25},"geometry":{"type":"Polygon","coordinates":[[[-94.7591,37.2786],[-94.7397,37.2882],[-94.7245,37.2882],[-94.7136,37.2786],[-94.7136,37.2689],[-94.7245,37.259],[-94.7397,37.259],[-94.7591,37.2689],[-94.7591,37.2786]],[[-94.7522,37.2771],[-94.7374,37.2836],[-94.7266,37.2836],[-94.7199,37.2771],[-94.7199,37.2703],[-94.7266,37.2633],[-94.7374,37.2633],[-94.7522,37.2703],[-94.7522,37.2771]]]}},{"type":"Feature","properties":{"c":"#c8f500","v0":0.2,"v1":0.25},"geometry":{"type":"Polygon","coordinates":[[[-94.0274,37.0877],[-94.0025,37.098],[-93.983,37.098],[-93.969,37.0877],[-93.969,37.0761],[-93.983,37.0633],[-94.0,37.0582],[-94.02,37.0608],[-94.0325,37.0673],[-94.0374,37.0775],[-94.0274,37.0877]],[[-94.0218,37.0866],[-94.0006,37.0946],[-93.9843,37.0946],[-93.9729,37.0866],[-93.9729,37.0771],[-93.9843,37.0661],[-94.0006,37.0661],[-94.0218,37.0771],[-94.0218,37.0866]]]}},{"type":"Feature","properties":{"c":"#c8f500","v0":0.2,"v1":0.25},"geometry":{"type":"Polygon","coordinates":[[[-84.1389,36.6591],[-84.1196,36.6764],[-84.1011,36.6724],[-84.0832,36.6471],[-84.0832,36.629],[-84.1011,36.6182],[-84.1196,36.6222],[-84.1389,36.6411],[-84.1389,36.6591]],[[-84.1351,36.658],[-84.1184,36.6729],[-84.1025,36.6689],[-84.0875,36.6459],[-84.0875,36.6301],[-84.1025,36.6214],[-84.1184,36.6254],[-84.1351,36.6421],[-84.1351,36.658]]]}},{"type":"Feature","properties":{"c":"#c8f500","v0":0.2,"v1":0.25},"geometry":{"type":"Polygon","coordinates":[[[-94.9796,36.6104],[-94.9723,36.6264],[-94.9589,36.6383],[-94.9396,36.646],[-94.9188,36.646],[-94.8965,36.6383],[-94.8781,36.6224],[-94.8637,36.5983],[-94.8699,36.5789],[-94.8966,36.564],[-94.9283,36.5681],[-94.965,36.5909],[-94.9796,36.6104]],[[-94.9761,36.6104],[-94.9684,36.6264],[-94.9559,36.6377],[-94.9386,36.6443],[-94.9204,36.6443],[-94.9012,36.6377],[-94.8846,36.6224],[-94.8706,36.5983],[-94.8752,36.5799],[-94.8984,36.567],[-94.9275,36.571],[-94.9625,36.5919],[-94.9761,36.6104]]]}},{"type":"Feature","properties":{"c":"#c8f500","v0":0.2,"v1":0.25},"geometry":{"type":"Polygon","coordinates":[[[-82.2456,35.3284],[-82.2352,35.3383],[-82.2237,35.3383],[-82.2111,35.3284],[-82.2111,35.3186],[-82.2237,35.309],[-82.2352,35.309],[-82.2456,35.3186],[-82.2456,35.3284]],[[-82.2386,35.3266],[-82.2329,35.333],[-82.2255,35.333],[-82.2164,35.3266],[-82.2193,35.3234],[-82.2341,35.3234],[-82.2386,35.3266]]]}},{"type":"Feature","properties":{"c":"#c8f500","v0":0.2,"v1":0.25},"geometry":{"type":"Polygon","coordinates":[[[-95.7263,35.2299],[-95.7154,35.2387],[-95.7046,35.2387],[-95.6937,35.2299],[-95.6937,35.2207],[-95.7046,35.2111],[-95.7154,35.2111],[-95.7263,35.2207],[-95.7263,35.2299]]]}},{"type":"Feature","properties":{"c":"#c8f500","v0":0.2,"v1":0.25},"geometry":{"type":"Polygon","coordinates":[[[-95.9377,35.0012],[-95.9326,35.0107],[-95.92,35.016],[-95.9,35.0171],[-95.8866,35.0082],[-95.8799,34.9894],[-95.8849,34.9774],[-95.9016,34.972],[-95.9176,34.9761],[-95.9327,34.9896],[-95.9377,35.0012]],[[-95.9292,35.0018],[-95.9164,35.0125],[-95.9024,35.0125],[-95.8872,35.0018],[-95.8872,34.9906],[-95.9024,34.9789],[-95.9164,34.9789],[-95.9292,34.9906],[-95.9292,35.0018]]]}},{"type":"Feature","properties":{"c":"#c8f500","v0":0.2,"v1":0.25},"geometry":{"type":"Polygon","coordinates":[[[-96.2675,34.5884],[-96.2558,34.5938],[-96.245,34.5889],[-96.235,34.574],[-96.235,34.5634],[-96.245,34.5573],[-96.2558,34.5621],[-96.2675,34.5779],[-96.2675,34.5884]],[[-96.2572,34.5858],[-96.2476,34.5858],[-96.2446,34.5799],[-96.2482,34.5682],[-96.253,34.5682],[-96.259,34.5799],[-96.2572,34.5858]]]}},{"type":"Feature","properties":{"c":"#c8f500","v0":0.2,"v1":0.25},"geometry":{"type":"Polygon","coordinates":[[[-83.7639,34.5729],[-83.7546,34.5801],[-83.7423,34.576],[-83.7269,34.5605],[-83.7269,34.5515],[-83.7423,34.549],[-83.7546,34.5531],[-83.7639,34.5639],[-83.7639,34.5729]],[[-83.7516,34.5693],[-83.7382,34.5693],[-83.731,34.5652],[-83.73,34.5569],[-83.7366,34.5569],[-83.7511,34.5652],[-83.7516,34.5693]]]}},{"type":"Feature","properties":{"c":"#c8f500","v0":0.2,"v1":0.25},"geometry":{"type":"Polygon","coordinates":[[[-83.3694,34.5248],[-83.3565,34.5347],[-83.3438,34.5347],[-83.3315,34.5248],[-83.3315,34.5146],[-83.3438,34.504],[-83.3565,34.504],[-83.3694,34.5146],[-83.3694,34.5248]],[[-83.3651,34.5233],[-83.355,34.5303],[-83.3455,34.5303],[-83.3365,34.5233],[-83.3365,34.5158],[-83.3455,34.5076],[-83.355,34.5076],[-83.3651,34.5158],[-83.3651,34.5233]]]}},{"type":"Feature","properties":{"c":"#c8f500","v0":0.2,"v1":0.25},"geometry":{"type":"Polygon","coordinates":[[[-96.9904,34.0183],[-96.9635,34.0401],[-96.925,34.0456],[-96.875,34.035],[-96.8465,34.0242],[-96.8396,34.013],[-96.8646,33.9977],[-96.9215,33.9781],[-96.9635,33.9781],[-96.9904,33.9977],[-96.9904,34.0183]],[[-96.9879,34.0175],[-96.9626,34.0377],[-96.925,34.0421],[-96.875,34.0306],[-96.8482,34.0205],[-96.8445,34.0118],[-96.8695,33.9985],[-96.9232,33.9806],[-96.9626,33.9806],[-96.9879,33.9985],[-96.9879,34.0175]]]}},{"type":"Feature","properties":{"c":"#c8f500","v0":0.2,"v1":0.25},"geometry":{"type":"Polygon","coordinates":[[[-87.4748,33.4454],[-87.4716,33.4525],[-87.4667,33.4525],[-87.4601,33.4454],[-87.4601,33.437],[-87.4667,33.4275],[-87.4716,33.4275],[-87.4748,33.437],[-87.4748,33.4454]]]}},{"type":"Feature","properties":{"c":"#c8f500","v0":0.2,"v1":0.25},"geometry":{"type":"Polygon","coordinates":[[[-98.1646,31.6648],[-98.1149,31.685],[-98.0814,31.6935],[-98.0642,31.6904],[-98.0742,31.6779],[-98.1114,31.656],[-98.1449,31.6475],[-98.1746,31.6523],[-98.1646,31.6648]],[[-98.1638,31.659],[-98.1557,31.6675],[-98.1343,31.6718],[-98.0996,31.6718],[-98.1036,31.6675],[-98.1464,31.659],[-98.1638,31.659]]]}},{"type":"Feature","properties":{"c":"#c8f500","v0":0.2,"v1":0.25},"geometry":{"type":"Polygon","coordinates":[[[-86.7255,31.4208],[-86.7152,31.4303],[-86.7038,31.4303],[-86.6915,31.4208],[-86.6915,31.4108],[-86.7038,31.4003],[-86.7152,31.4003],[-86.7255,31.4108],[-86.7255,31.4208]],[[-86.7143,31.4161],[-86.7001,31.4161],[-86.6973,31.4126],[-86.7058,31.4055],[-86.7128,31.4055],[-86.7185,31.4126],[-86.7143,31.4161]]]}},{"type":"Feature","properties":{"c":"#c8f500","v0":0.2,"v1":0.25},"geometry":{"type":"Polygon","coordinates":[[[-82.9302,31.4036],[-82.9167,31.4128],[-82.905,31.4128],[-82.895,31.4036],[-82.895,31.3934],[-82.905,31.382],[-82.9167,31.382],[-82.9302,31.3934],[-82.9302,31.4036]],[[-82.923,31.399],[-82.9063,31.399],[-82.9009,31.3946],[-82.907,31.3857],[-82.9154,31.3857],[-82.9261,31.3946],[-82.923,31.399]]]}},{"type":"Feature","properties":{"c":"#c8f500","v0":0.2,"v1":0.25},"geometry":{"type":"Polygon","coordinates":[[[-86.9233,31.3532],[-86.9144,31.3641],[-86.8932,31.3683],[-86.8596,31.366],[-86.8546,31.3571],[-86.8782,31.3415],[-86.8994,31.3373],[-86.9183,31.3443],[-86.9233,31.3532]],[[-86.9042,31.3521],[-86.875,31.3606],[-86.8628,31.3601],[-86.8676,31.3506],[-86.8822,31.3463],[-86.9066,31.3473],[-86.9042,31.3521]]]}},{"type":"Feature","properties":{"c":"#c8f500","v0":0.2,"v1":0.25},"geometry":{"type":"Polygon","coordinates":[[[-98.6033,30.9675],[-98.5811,30.9944],[-98.56,31.0076],[-98.54,31.0073],[-98.54,30.9923],[-98.56,30.9628],[-98.5811,30.9495],[-98.6033,30.9526],[-98.6033,30.9675]],[[-98.592,30.9798],[-98.5601,30.997],[-98.5506,30.9923],[-98.5635,30.9659],[-98.5793,30.953],[-98.598,30.9537],[-98.6074,30.9584],[-98.6077,30.967],[-98.592,30.9798]]]}},{"type":"Feature","properties":{"c":"#c8f500","v0":0.2,"v1":0.25},"geometry":{"type":"Polygon","coordinates":[[[-98.8888,30.9085],[-98.8763,30.9203],[-98.8668,30.9203],[-98.8603,30.9085],[-98.8603,30.8983],[-98.8668,30.8898],[-98.8763,30.8898],[-98.8888,30.8983],[-98.8888,30.9085]]]}},{"type":"Feature","properties":{"c":"#c8f500","v0":0.2,"v1":0.25},"geometry":{"type":"Polygon","coordinates":[[[-98.7866,30.8768],[-98.7755,30.894],[-98.76,30.8983],[-98.7399,30.8897],[-98.7349,30.8775],[-98.745,30.8615],[-98.7605,30.8572],[-98.7816,30.8646],[-98.7866,30.8768]],[[-98.7814,30.8754],[-98.7738,30.8897],[-98.7619,30.894],[-98.7456,30.8883],[-98.7406,30.879],[-98.7469,30.8662],[-98.7588,30.8619],[-98.7764,30.8662],[-98.7814,30.8754]]]}},{"type":"Feature","properties":{"c":"#c8f500","v0":0.2,"v1":0.25},"geometry":{"type":"Polygon","coordinates":[[[-83.1541,29.4401],[-83.138,29.4548],[-83.1245,29.4548],[-83.1136,29.4401],[-83.1136,29.4289],[-83.1245,29.421],[-83.138,29.421],[-83.1541,29.4289],[-83.1541,29.4401]],[[-83.1537,29.4381],[-83.1512,29.4486],[-83.1432,29.453],[-83.1297,29.4511],[-83.1247,29.4437],[-83.1282,29.4307],[-83.1362,29.4264],[-83.1487,29.4307],[-83.1537,29.4381]]]}},{"type":"Feature","properties":{"c":"#c8f500","v0":0.25,"v1":0.5},"geometry":{"type":"Polygon","coordinates":[[[-101.9922,40.3869],[-101.9507,40.4127],[-101.92,40.4238],[-101.9,40.42],[-101.8842,40.4109],[-101.8725,40.3964],[-101.8711,40.3777],[-101.8801,40.3549],[-101.8959,40.3384],[-101.9186,40.3282],[-101.945,40.3275],[-101.975,40.3361],[-101.9957,40.3488],[-102.0072,40.3655],[-101.9922,40.3869]],[[-101.9801,40.3834],[-101.9467,40.4023],[-101.9225,40.4099],[-101.9074,40.4062],[-101.8957,40.3968],[-101.8876,40.3815],[-101.8951,40.3645],[-101.9184,40.3458],[-101.9401,40.3382],[-101.9604,40.3417],[-101.9771,40.351],[-101.9902,40.3663],[-101.9801,40.3834]]]}},{"type":"Feature","properties":{"c":"#c8f500","v0":0.25,"v1":0.5},"geometry":{"type":"Polygon","coordinates":[[[-103.5497,39.2767],[-103.5366,39.2943],[-103.51,39.3089],[-103.47,39.3206],[-103.4365,39.3157],[-103.4094,39.2941],[-103.3921,39.2717],[-103.3847,39.2485],[-103.3982,39.2278],[-103.4327,39.2095],[-103.4679,39.2057],[-103.5036,39.2162],[-103.5302,39.233],[-103.5476,39.2563],[-103.5497,39.2767]],[[-103.5325,39.2759],[-103.5175,39.292],[-103.495,39.3019],[-103.465,39.3056],[-103.4375,39.2976],[-103.4124,39.2778],[-103.3989,39.2601],[-103.397,39.2446],[-103.4045,39.2306],[-103.4215,39.2179],[-103.44,39.2118],[-103.46,39.2122],[-103.4833,39.2185],[-103.5099,39.2308],[-103.5274,39.2446],[-103.5358,39.2601],[-103.5325,39.2759]]]}},{"type":"Feature","properties":{"c":"#c8f500","v0":0.25,"v1":0.5},"geometry":{"type":"Polygon","coordinates":[[[-83.2855,38.7294],[-83.2618,38.7407],[-83.2424,38.7368],[-83.2272,38.7177],[-83.2322,38.7028],[-83.2574,38.6921],[-83.2768,38.696],[-83.2905,38.7145],[-83.2855,38.7294]],[[-83.271,38.7253],[-83.257,38.7284],[-83.2482,38.7245],[-83.2445,38.7136],[-83.2495,38.7069],[-83.2632,38.7044],[-83.272,38.7083],[-83.276,38.7186],[-83.271,38.7253]]]}},{"type":"Feature","properties":{"c":"#c8f500","v0":0.25,"v1":0.5},"geometry":{"type":"Polygon","coordinates":[[[-94.7522,37.2771],[-94.7374,37.2836],[-94.7266,37.2836],[-94.7199,37.2771],[-94.7199,37.2703],[-94.7266,37.2633],[-94.7374,37.2633],[-94.7522,37.2703],[-94.7522,37.2771]]]}},{"type":"Feature","properties":{"c":"#c8f500","v0":0.25,"v1":0.5},"geometry":{"type":"Polygon","coordinates":[[[-94.0218,37.0866],[-94.0006,37.0946],[-93.9843,37.0946],[-93.9729,37.0866],[-93.9729,37.0771],[-93.9843,37.0661],[-94.0006,37.0661],[-94.0218,37.0771],[-94.0218,37.0866]]]}},{"type":"Feature","properties":{"c":"#c8f500","v0":0.25,"v1":0.5},"geometry":{"type":"Polygon","coordinates":[[[-84.1351,36.658],[-84.1184,36.6729],[-84.1025,36.6689],[-84.0875,36.6459],[-84.0875,36.6301],[-84.1025,36.6214],[-84.1184,36.6254],[-84.1351,36.6421],[-84.1351,36.658]]]}},{"type":"Feature","properties":{"c":"#c8f500","v0":0.25,"v1":0.5},"geometry":{"type":"Polygon","coordinates":[[[-94.9761,36.6104],[-94.9684,36.6264],[-94.9559,36.6377],[-94.9386,36.6443],[-94.9204,36.6443],[-94.9012,36.6377],[-94.8846,36.6224],[-94.8706,36.5983],[-94.8752,36.5799],[-94.8984,36.567],[-94.9275,36.571],[-94.9625,36.5919],[-94.9761,36.6104]],[[-94.9553,36.6108],[-94.9384,36.6276],[-94.9213,36.6276],[-94.904,36.6108],[-94.904,36.5965],[-94.9213,36.5849],[-94.9384,36.5849],[-94.9553,36.5965],[-94.9553,36.6108]]]}},{"type":"Feature","properties":{"c":"#c8f500","v0":0.25,"v1":0.5},"geometry":{"type":"Polygon","coordinates":[[[-82.2386,35.3266],[-82.2329,35.333],[-82.2255,35.333],[-82.2164,35.3266],[-82.2193,35.3234],[-82.2341,35.3234],[-82.2386,35.3266]]]}},{"type":"Feature","properties":{"c":"#c8f500","v0":0.25,"v1":0.5},"geometry":{"type":"Polygon","coordinates":[[[-95.9292,35.0018],[-95.9164,35.0125],[-95.9024,35.0125],[-95.8872,35.0018],[-95.8872,34.9906],[-95.9024,34.9789],[-95.9164,34.9789],[-95.9292,34.9906],[-95.9292,35.0018]]]}},{"type":"Feature","properties":{"c":"#c8f500","v0":0.25,"v1":0.5},"geometry":{"type":"Polygon","coordinates":[[[-96.2572,34.5858],[-96.2476,34.5858],[-96.2446,34.5799],[-96.2482,34.5682],[-96.253,34.5682],[-96.259,34.5799],[-96.2572,34.5858]]]}},{"type":"Feature","properties":{"c":"#c8f500","v0":0.25,"v1":0.5},"geometry":{"type":"Polygon","coordinates":[[[-83.7516,34.5693],[-83.7382,34.5693],[-83.731,34.5652],[-83.73,34.5569],[-83.7366,34.5569],[-83.7511,34.5652],[-83.7516,34.5693]]]}},{"type":"Feature","properties":{"c":"#c8f500","v0":0.25,"v1":0.5},"geometry":{"type":"Polygon","coordinates":[[[-83.3651,34.5233],[-83.355,34.5303],[-83.3455,34.5303],[-83.3365,34.5233],[-83.3365,34.5158],[-83.3455,34.5076],[-83.355,34.5076],[-83.3651,34.5158],[-83.3651,34.5233]]]}},{"type":"Feature","properties":{"c":"#c8f500","v0":0.25,"v1":0.5},"geometry":{"type":"Polygon","coordinates":[[[-96.9879,34.0175],[-96.9626,34.0377],[-96.925,34.0421],[-96.875,34.0306],[-96.8482,34.0205],[-96.8445,34.0118],[-96.8695,33.9985],[-96.9232,33.9806],[-96.9626,33.9806],[-96.9879,33.9985],[-96.9879,34.0175]],[[-96.9751,34.0137],[-96.9584,34.0264],[-96.9384,34.0264],[-96.9152,34.0137],[-96.9152,34.0015],[-96.9384,33.9898],[-96.9584,33.9898],[-96.9751,34.0015],[-96.9751,34.0137]]]}},{"type":"Feature","properties":{"c":"#c8f500","v0":0.25,"v1":0.5},"geometry":{"type":"Polygon","coordinates":[[[-98.1638,31.659],[-98.1557,31.6675],[-98.1343,31.6718],[-98.0996,31.6718],[-98.1036,31.6675],[-98.1464,31.659],[-98.1638,31.659]]]}},{"type":"Feature","properties":{"c":"#c8f500","v0":0.25,"v1":0.5},"geometry":{"type":"Polygon","coordinates":[[[-86.7143,31.4161],[-86.7001,31.4161],[-86.6973,31.4126],[-86.7058,31.4055],[-86.7128,31.4055],[-86.7185,31.4126],[-86.7143,31.4161]]]}},{"type":"Feature","properties":{"c":"#c8f500","v0":0.25,"v1":0.5},"geometry":{"type":"Polygon","coordinates":[[[-82.923,31.399],[-82.9063,31.399],[-82.9009,31.3946],[-82.907,31.3857],[-82.9154,31.3857],[-82.9261,31.3946],[-82.923,31.399]]]}},{"type":"Feature","properties":{"c":"#c8f500","v0":0.25,"v1":0.5},"geometry":{"type":"Polygon","coordinates":[[[-86.9042,31.3521],[-86.875,31.3606],[-86.8628,31.3601],[-86.8676,31.3506],[-86.8822,31.3463],[-86.9066,31.3473],[-86.9042,31.3521]]]}},{"type":"Feature","properties":{"c":"#c8f500","v0":0.25,"v1":0.5},"geometry":{"type":"Polygon","coordinates":[[[-98.592,30.9798],[-98.5601,30.997],[-98.5506,30.9923],[-98.5635,30.9659],[-98.5793,30.953],[-98.598,30.9537],[-98.6074,30.9584],[-98.6077,30.967],[-98.592,30.9798]]]}},{"type":"Feature","properties":{"c":"#c8f500","v0":0.25,"v1":0.5},"geometry":{"type":"Polygon","coordinates":[[[-98.7814,30.8754],[-98.7738,30.8897],[-98.7619,30.894],[-98.7456,30.8883],[-98.7406,30.879],[-98.7469,30.8662],[-98.7588,30.8619],[-98.7764,30.8662],[-98.7814,30.8754]]]}},{"type":"Feature","properties":{"c":"#c8f500","v0":0.25,"v1":0.5},"geometry":{"type":"Polygon","coordinates":[[[-83.1537,29.4381],[-83.1512,29.4486],[-83.1432,29.453],[-83.1297,29.4511],[-83.1247,29.4437],[-83.1282,29.4307],[-83.1362,29.4264],[-83.1487,29.4307],[-83.1537,29.4381]]]}},{"type":"Feature","properties":{"c":"#ffff00","v0":0.5,"v1":0.75},"geometry":{"type":"Polygon","coordinates":[[[-101.9801,40.3834],[-101.9467,40.4023],[-101.9225,40.4099],[-101.9074,40.4062],[-101.8957,40.3968],[-101.8876,40.3815],[-101.8951,40.3645],[-101.9184,40.3458],[-101.9401,40.3382],[-101.9604,40.3417],[-101.9771,40.351],[-101.9902,40.3663],[-101.9801,40.3834]],[[-101.9682,40.38],[-101.9427,40.3921],[-101.923,40.3921],[-101.909,40.38],[-101.914,40.3675],[-101.938,40.3546],[-101.9577,40.3546],[-101.9732,40.3675],[-101.9682,40.38]]]}},{"type":"Feature","properties":{"c":"#ffff00","v0":0.5,"v1":0.75},"geometry":{"type":"Polygon","coordinates":[[[-103.5325,39.2759],[-103.5175,39.292],[-103.495,39.3019],[-103.465,39.3056],[-103.4375,39.2976],[-103.4124,39.2778],[-103.3989,39.2601],[-103.397,39.2446],[-103.4045,39.2306],[-103.4215,39.2179],[-103.44,39.2118],[-103.46,39.2122],[-103.4833,39.2185],[-103.5099,39.2308],[-103.5274,39.2446],[-103.5358,39.2601],[-103.5325,39.2759]],[[-103.5171,39.2751],[-103.499,39.2896],[-103.48,39.2961],[-103.46,39.2946],[-103.4408,39.2874],[-103.4225,39.2744],[-103.4121,39.2601],[-103.4096,39.2446],[-103.4238,39.2326],[-103.4546,39.2241],[-103.484,39.2319],[-103.5121,39.2559],[-103.5171,39.2751]]]}},{"type":"Feature","properties":{"c":"#ffff00","v0":0.5,"v1":0.75},"geometry":{"type":"Polygon","coordinates":[[[-83.271,38.7253],[-83.257,38.7284],[-83.2482,38.7245],[-83.2445,38.7136],[-83.2495,38.7069],[-83.2632,38.7044],[-83.272,38.7083],[-83.276,38.7186],[-83.271,38.7253]]]}},{"type":"Feature","properties":{"c":"#ffff00","v0":0.5,"v1":0.75},"geometry":{"type":"Polygon","coordinates":[[[-94.9553,36.6108],[-94.9384,36.6276],[-94.9213,36.6276],[-94.904,36.6108],[-94.904,36.5965],[-94.9213,36.5849],[-94.9384,36.5849],[-94.9553,36.5965],[-94.9553,36.6108]],[[-94.9395,36.6064],[-94.9298,36.6144],[-94.9242,36.6144],[-94.9229,36.6064],[-94.9277,36.6023],[-94.9388,36.6023],[-94.9395,36.6064]]]}},{"type":"Feature","properties":{"c":"#ffff00","v0":0.5,"v1":0.75},"geometry":{"type":"Polygon","coordinates":[[[-96.9751,34.0137],[-96.9584,34.0264],[-96.9384,34.0264],[-96.9152,34.0137],[-96.9152,34.0015],[-96.9384,33.9898],[-96.9584,33.9898],[-96.9751,34.0015],[-96.9751,34.0137]]]}},{"type":"Feature","properties":{"c":"#ffd700","v0":0.75,"v1":1.0},"geometry":{"type":"Polygon","coordinates":[[[-101.9682,40.38],[-101.9427,40.3921],[-101.923,40.3921],[-101.909,40.38],[-101.914,40.3675],[-101.938,40.3546],[-101.9577,40.3546],[-101.9732,40.3675],[-101.9682,40.38]]]}},{"type":"Feature","properties":{"c":"#ffd700","v0":0.75,"v1":1.0},"geometry":{"type":"Polygon","coordinates":[[[-103.5171,39.2751],[-103.499,39.2896],[-103.48,39.2961],[-103.46,39.2946],[-103.4408,39.2874],[-103.4225,39.2744],[-103.4121,39.2601],[-103.4096,39.2446],[-103.4238,39.2326],[-103.4546,39.2241],[-103.484,39.2319],[-103.5121,39.2559],[-103.5171,39.2751]],[[-103.5078,39.273],[-103.4959,39.2833],[-103.4802,39.2871],[-103.4607,39.2846],[-103.4435,39.2717],[-103.4288,39.2485],[-103.4386,39.2361],[-103.4729,39.2344],[-103.4959,39.2422],[-103.5078,39.2593],[-103.5078,39.273]]]}},{"type":"Feature","properties":{"c":"#ffd700","v0":0.75,"v1":1.0},"geometry":{"type":"Polygon","coordinates":[[[-94.9395,36.6064],[-94.9298,36.6144],[-94.9242,36.6144],[-94.9229,36.6064],[-94.9277,36.6023],[-94.9388,36.6023],[-94.9395,36.6064]]]}},{"type":"Feature","properties":{"c":"#ff8c00","v0":1.0,"v1":1.5},"geometry":{"type":"Polygon","coordinates":[[[-103.5078,39.273],[-103.4959,39.2833],[-103.4802,39.2871],[-103.4607,39.2846],[-103.4435,39.2717],[-103.4288,39.2485],[-103.4386,39.2361],[-103.4729,39.2344],[-103.4959,39.2422],[-103.5078,39.2593],[-103.5078,39.273]],[[-103.4773,39.2564],[-103.4724,39.2643],[-103.4643,39.2643],[-103.4528,39.2564],[-103.4552,39.2524],[-103.4716,39.2524],[-103.4773,39.2564]]]}},{"type":"Feature","properties":{"c":"#ff4500","v0":1.5,"v1":1.75},"geometry":{"type":"Polygon","coordinates":[[[-103.4773,39.2564],[-103.4724,39.2643],[-103.4643,39.2643],[-103.4528,39.2564],[-103.4552,39.2524],[-103.4716,39.2524],[-103.4773,39.2564]]]}}]}