{"type":"FeatureCollection","features":[{"type":"Feature","properties":{"c":"#c8f500","v0":0.2,"v1":0.25},"geometry":{"type":"Polygon","coordinates":[[[-101.9721,34.8324],[-101.9516,34.8324],[-101.9485,34.8276],[-101.9628,34.8182],[-101.9731,34.8182],[-101.9793,34.8276],[-101.9721,34.8324]]]}},{"type":"Feature","properties":{"c":"#c8f500","v0":0.2,"v1":0.25},"geometry":{"type":"Polygon","coordinates":[[[-104.2243,32.6915],[-104.2148,32.6996],[-104.2073,32.6996],[-104.202,32.6915],[-104.2067,32.6875],[-104.2216,32.6875],[-104.2243,32.6915]]]}},{"type":"Feature","properties":{"c":"#c8f500","v0":0.2,"v1":0.25},"geometry":{"type":"Polygon","coordinates":[[[-77.3782,25.3268],[-77.3594,25.3536],[-77.3449,25.3581],[-77.3348,25.3403],[-77.3324,25.3224],[-77.3377,25.3043],[-77.3477,25.2931],[-77.3626,25.2886],[-77.3744,25.2932],[-77.3832,25.3066],[-77.3782,25.3268]],[[-77.3754,25.3253],[-77.3585,25.3493],[-77.3489,25.3447],[-77.3468,25.3118],[-77.3518,25.2942],[-77.3639,25.2919],[-77.3735,25.2964],[-77.3804,25.3077],[-77.3754,25.3253]]]}},{"type":"Feature","properties":{"c":"#c8f500","v0":0.2,"v1":0.25},"geometry":{"type":"Polygon","coordinates":[[[-81.8815,24.032],[-81.8794,24.0868],[-81.8713,24.1165],[-81.8571,24.1212],[-81.8458,24.1166],[-81.8373,24.1028],[-81.8408,24.0731],[-81.8564,24.0275],[-81.8687,24.0046],[-81.8779,24.0046],[-81.8815,24.032]],[[-81.8654,24.0866],[-81.8551,24.1043],[-81.85,24.1035],[-81.85,24.0841],[-81.8551,24.0752],[-81.8654,24.0769],[-81.8654,24.0866]]]}},{"type":"Feature","properties":{"c":"#c8f500","v0":0.2,"v1":0.25},"geometry":{"type":"Polygon","coordinates":[[[-79.3738,23.7362],[-79.3713,23.7482],[-79.3625,23.7528],[-79.3476,23.75],[-79.3426,23.7428],[-79.3475,23.7313],[-79.3563,23.7267],[-79.3688,23.7291],[-79.3738,23.7362]]]}},{"type":"Feature","properties":{"c":"#c8f500","v0":0.2,"v1":0.25},"geometry":{"type":"Polygon","coordinates":[[[-80.7199,23.6453],[-80.7,23.6586],[-80.6722,23.6586],[-80.6367,23.6453],[-80.6367,23.6279],[-80.6722,23.6063],[-80.7,23.6063],[-80.7199,23.6279],[-80.7199,23.6453]],[[-80.7158,23.6442],[-80.6986,23.6553],[-80.6746,23.6553],[-80.6437,23.6442],[-80.6437,23.629],[-80.6746,23.6096],[-80.6986,23.6096],[-80.7158,23.629],[-80.7158,23.6442]]]}},{"type":"Feature","properties":{"c":"#c8f500","v0":0.2,"v1":0.25},"geometry":{"type":"Polygon","coordinates":[[[-80.525,23.6038],[-80.4883,23.6073],[-80.445,23.6036],[-80.395,23.5928],[-80.3662,23.5819],[-80.3587,23.5709],[-80.3687,23.5591],[-80.3962,23.5467],[-80.4378,23.5467],[-80.4933,23.5591],[-80.5266,23.5745],[-80.5377,23.5929],[-80.525,23.6038]],[[-80.53,23.5883],[-80.5266,23.5974],[-80.5112,23.6026],[-80.4837,23.6036],[-80.4432,23.5945],[-80.3895,23.5751],[-80.3745,23.5605],[-80.3982,23.5507],[-80.4404,23.5553],[-80.5012,23.5742],[-80.53,23.5883]]]}},{"type":"Feature","properties":{"c":"#c8f500","v0":0.25,"v1":0.5},"geometry":{"type":"Polygon","coordinates":[[[-77.3754,25.3253],[-77.3585,25.3493],[-77.3489,25.3447],[-77.3468,25.3118],[-77.3518,25.2942],[-77.3639,25.2919],[-77.3735,25.2964],[-77.3804,25.3077],[-77.3754,25.3253]]]}},{"type":"Feature","properties":{"c":"#c8f500","v0":0.25,"v1":0.5},"geometry":{"type":"Polygon","coordinates":[[[-81.8654,24.0866],[-81.8551,24.1043],[-81.85,24.1035],[-81.85,24.0841],[-81.8551,24.0752],[-81.8654,24.0769],[-81.8654,24.0866]]]}},{"type":"Feature","properties":{"c":"#c8f500","v0":0.25,"v1":0.5},"geometry":{"type":"Polygon","coordinates":[[[-80.7158,23.6442],[-80.6986,23.6553],[-80.6746,23.6553],[-80.6437,23.6442],[-80.6437,23.629],[-80.6746,23.6096],[-80.6986,23.6096],[-80.7158,23.629],[-80.7158,23.6442]]]}},{"type":"Feature","properties":{"c":"#c8f500","v0":0.25,"v1":0.5},"geometry":{"type":"Polygon","coordinates":[[[-80.53,23.5883],[-80.5266,23.5974],[-80.5112,23.6026],[-80.4837,23.6036],[-80.4432,23.5945],[-80.3895,23.5751],[-80.3745,23.5605],[-80.3982,23.5507],[-80.4404,23.5553],[-80.5012,23.5742],[-80.53,23.5883]]]}}]}