{"type":"FeatureCollection","features":[{"type":"Feature","properties":{"c":"#c8f500","v0":0.2,"v1":0.25},"geometry":{"type":"Polygon","coordinates":[[[-100.4091,44.6528],[-100.3964,44.6642],[-100.3696,44.6678],[-100.3288,44.6635],[-100.313,44.6542],[-100.3224,44.64],[-100.3378,44.6295],[-100.3593,44.6228],[-100.38,44.622],[-100.4,44.6271],[-100.4114,44.634],[-100.4141,44.6427],[-100.4091,44.6528]],[[-100.405,44.6518],[-100.395,44.6611],[-100.3718,44.6647],[-100.3354,44.6624],[-100.3204,44.6552],[-100.3268,44.6429],[-100.34,44.6335],[-100.36,44.6272],[-100.38,44.6298],[-100.4,44.6413],[-100.405,44.6518]]]}},{"type":"Feature","properties":{"c":"#c8f500","v0":0.2,"v1":0.25},"geometry":{"type":"Polygon","coordinates":[[[-101.3623,44.5795],[-101.3386,44.5866],[-101.3276,44.5856],[-101.3292,44.5766],[-101.341,44.573],[-101.3631,44.5749],[-101.3623,44.5795]]]}},{"type":"Feature","properties":{"c":"#c8f500","v0":0.25,"v1":0.5},"geometry":{"type":"Polygon","coordinates":[[[-100.405,44.6518],[-100.395,44.6611],[-100.3718,44.6647],[-100.3354,44.6624],[-100.3204,44.6552],[-100.3268,44.6429],[-100.34,44.6335],[-100.36,44.6272],[-100.38,44.6298],[-100.4,44.6413],[-100.405,44.6518]]]}}]}