{"type":"FeatureCollection","features":[{"type":"Feature","properties":{"c":"#c8f500","v0":0.2,"v1":0.25},"geometry":{"type":"Polygon","coordinates":[[[-110.5977,47.3719],[-110.5526,47.3773],[-110.5227,47.3739],[-110.508,47.3617],[-110.523,47.3527],[-110.5677,47.3468],[-110.5976,47.3502],[-110.6127,47.3629],[-110.5977,47.3719]],[[-110.5942,47.3712],[-110.5514,47.3752],[-110.5239,47.3718],[-110.5117,47.361],[-110.5267,47.3534],[-110.5689,47.3488],[-110.5964,47.3522],[-110.6092,47.3635],[-110.5942,47.3712]]]}},{"type":"Feature","properties":{"c":"#c8f500","v0":0.25,"v1":0.5},"geometry":{"type":"Polygon","coordinates":[[[-110.5942,47.3712],[-110.5514,47.3752],[-110.5239,47.3718],[-110.5117,47.361],[-110.5267,47.3534],[-110.5689,47.3488],[-110.5964,47.3522],[-110.6092,47.3635],[-110.5942,47.3712]]]}}]}